{"type": "FeatureCollection", "features": [{"type": "Feature", "id": 18836, "geometry": {"type": "Point", "coordinates": [-122.6804776, 45.4550913]}, "properties": {"Name": "Collins View Neighborhood", "Status": "In Good Standing", "State": "OR", "County": "Multnomah County", "City": "Portland", "Latitude": 45.4550913, "Longitude": -122.6804776, "TotalInvestment": null, "ResidentCount": 195, "Site_Mailing_Address": null, "FID": 18836, "GlobalID": "ec938d14-2b43-425d-8a60-6e535b7b961d", "ApprovalYear": "2022-12-07"}}, {"type": "Feature", "id": 18843, "geometry": {"type": "Point", "coordinates": [-121.44040740329, 45.721983884108]}, "properties": {"Name": "Columbia Rim Owners Association", "Status": "In Good Standing", "State": "WA", "County": "Klickitat County", "City": "White Salmon", "Latitude": 45.721983884108, "Longitude": -121.44040740329, "TotalInvestment": null, "ResidentCount": 100, "Site_Mailing_Address": null, "FID": 18843, "GlobalID": "2d5ae998-daa4-434e-b868-a4f44bd2cc61", "ApprovalYear": "2024-12-17"}}, {"type": "Feature", "id": 18862, "geometry": {"type": "Point", "coordinates": [-122.2217055, 45.483324]}, "properties": {"Name": "Corbett", "Status": "In Good Standing", "State": "OR", "County": "Multnomah County", "City": "Corbett", "Latitude": 45.483324, "Longitude": -122.2217055, "TotalInvestment": null, "ResidentCount": 4000, "Site_Mailing_Address": null, "FID": 18862, "GlobalID": "55416c1b-33de-4e93-bcb1-d6d3a6ca35df", "ApprovalYear": "2023-03-10"}}, {"type": "Feature", "id": 19059, "geometry": {"type": "Point", "coordinates": [-121.4922768, 45.6848125]}, "properties": {"Name": "Eastside-Old Dalles", "Status": "In Good Standing", "State": "OR", "County": "Hood River County", "City": "Hood River", "Latitude": 45.6848125, "Longitude": -121.4922768, "TotalInvestment": null, "ResidentCount": 29, "Site_Mailing_Address": null, "FID": 19059, "GlobalID": "b15de843-3d2e-47d8-a62c-1012201144f6", "ApprovalYear": "2025-04-30"}}, {"type": "Feature", "id": 19189, "geometry": {"type": "Point", "coordinates": [-122.7803656, 45.537314]}, "properties": {"Name": "Forest Heights", "Status": "In Good Standing", "State": "OR", "County": "Multnomah County", "City": "Portland", "Latitude": 45.537314, "Longitude": -122.7803656, "TotalInvestment": null, "ResidentCount": 360, "Site_Mailing_Address": null, "FID": 19189, "GlobalID": "326c1712-eca5-4c35-963f-5c0ffd5381a3", "ApprovalYear": "2022-07-14"}}, {"type": "Feature", "id": 19197, "geometry": {"type": "Point", "coordinates": [-122.8215818, 45.5944035]}, "properties": {"Name": "Forest Park Neighborhood - North", "Status": "In Good Standing", "State": "OR", "County": "Multnomah County", "City": "Portland", "Latitude": 45.5944035, "Longitude": -122.8215818, "TotalInvestment": null, "ResidentCount": 330, "Site_Mailing_Address": null, "FID": 19197, "GlobalID": "5f515aab-59f7-44ec-8a5e-2c0defcbd5ba", "ApprovalYear": "2021-08-26"}}, {"type": "Feature", "id": 19198, "geometry": {"type": "Point", "coordinates": [-122.7890543, 45.5740103]}, "properties": {"Name": "Forest Park Neighborhood - South", "Status": "In Good Standing", "State": "OR", "County": "Multnomah County", "City": "Portland", "Latitude": 45.5740103, "Longitude": -122.7890543, "TotalInvestment": null, "ResidentCount": 413, "Site_Mailing_Address": null, "FID": 19198, "GlobalID": "64e147a3-e7b6-428f-9d8e-3c1a8213cdb3", "ApprovalYear": "2021-08-26"}}, {"type": "Feature", "id": 19243, "geometry": {"type": "Point", "coordinates": [-121.3386036, 45.6367723]}, "properties": {"Name": "FURTHER VALLEY VENSEL ROADS", "Status": "In Good Standing", "State": "OR", "County": "Wasco County", "City": "Mosier", "Latitude": 45.6367723, "Longitude": -121.3386036, "TotalInvestment": null, "ResidentCount": 33, "Site_Mailing_Address": null, "FID": 19243, "GlobalID": "ee4875dc-200a-41ec-a5ea-5ba1f8d964a5", "ApprovalYear": "2024-05-10"}}, {"type": "Feature", "id": 19355, "geometry": {"type": "Point", "coordinates": [-120.8, 45.8]}, "properties": {"Name": "Ponderosa Park", "Status": "In Good Standing", "State": "WA", "County": "Klickitat County", "City": "Goldendale", "Latitude": 45.8, "Longitude": -120.8, "TotalInvestment": null, "ResidentCount": 450, "Site_Mailing_Address": null, "FID": 19355, "GlobalID": "b87cec22-cfa1-4d03-88b7-d2e7ff7538c0", "ApprovalYear": "2008-12-30"}}, {"type": "Feature", "id": 19394, "geometry": {"type": "Point", "coordinates": [-121.5106854, 45.7051828]}, "properties": {"Name": "Prospect Montello Hood River", "Status": "In Good Standing", "State": "OR", "County": "Hood River County", "City": "Hood River", "Latitude": 45.7051828, "Longitude": -121.5106854, "TotalInvestment": null, "ResidentCount": 18, "Site_Mailing_Address": null, "FID": 19394, "GlobalID": "f450ba95-c9ec-4c1a-aeef-f40f23a553f1", "ApprovalYear": "2024-06-14"}}, {"type": "Feature", "id": 19572, "geometry": {"type": "Point", "coordinates": [-121.5454028, 45.7022173]}, "properties": {"Name": "Rocky Ridge Ct", "Status": "In Good Standing", "State": "OR", "County": "Hood River County", "City": "Hood River", "Latitude": 45.7022173, "Longitude": -121.5454028, "TotalInvestment": null, "ResidentCount": 19, "Site_Mailing_Address": null, "FID": 19572, "GlobalID": "3bf0eb45-8a3b-41d6-a4f8-e9c403b6d1e8", "ApprovalYear": "2024-10-04"}}, {"type": "Feature", "id": 19736, "geometry": {"type": "Point", "coordinates": [-121.2723477, 45.7410668]}, "properties": {"Name": "Silva Ridge Water Group", "Status": "In Good Standing", "State": "WA", "County": "Klickitat", "City": "Lyle", "Latitude": 45.7410668, "Longitude": -121.2723477, "TotalInvestment": null, "ResidentCount": 14, "Site_Mailing_Address": null, "FID": 19736, "GlobalID": "ce198d42-8dfa-4094-81f5-b231179287ea", "ApprovalYear": "2020-08-28"}}, {"type": "Feature", "id": 19761, "geometry": {"type": "Point", "coordinates": [-122.9005335, 45.6276472]}, "properties": {"Name": "Skyline Ridge  Neighbors", "Status": "In Good Standing", "State": "OR", "County": "Multnomah County", "City": "Portland", "Latitude": 45.6276472, "Longitude": -122.9005335, "TotalInvestment": null, "ResidentCount": 27, "Site_Mailing_Address": null, "FID": 19761, "GlobalID": "a95ef098-c0b1-4e08-bcf4-288a4432a46b", "ApprovalYear": "2022-10-17"}}, {"type": "Feature", "id": 19861, "geometry": {"type": "Point", "coordinates": [-120.72458836519, 44.912832602796]}, "properties": {"Name": "Antelope", "Status": "In Good Standing", "State": "OR", "County": "Wasco County", "City": "Antelope", "Latitude": 44.912832602796, "Longitude": -120.72458836519, "TotalInvestment": null, "ResidentCount": 32, "Site_Mailing_Address": null, "FID": 19861, "GlobalID": "8ee4046f-4741-4da2-8e53-7076257e4b3c", "ApprovalYear": "2024-12-31"}}, {"type": "Feature", "id": 19881, "geometry": {"type": "Point", "coordinates": [-122.7093043, 45.5200083]}, "properties": {"Name": "Arlington Heights Neighborhood", "Status": "In Good Standing", "State": "OR", "County": "Multnomah County", "City": "Portland", "Latitude": 45.5200083, "Longitude": -122.7093043, "TotalInvestment": null, "ResidentCount": 1100, "Site_Mailing_Address": null, "FID": 19881, "GlobalID": "690f929c-35a7-4070-a650-93adca743099", "ApprovalYear": "2023-02-20"}}, {"type": "Feature", "id": 19927, "geometry": {"type": "Point", "coordinates": [-121.5738447, 45.5615916]}, "properties": {"Name": "Baldwin Creek Drive in Parkdale", "Status": "In Good Standing", "State": "OR", "County": "Hood River County", "City": "Mount Hood", "Latitude": 45.5615916, "Longitude": -121.5738447, "TotalInvestment": null, "ResidentCount": 48, "Site_Mailing_Address": null, "FID": 19927, "GlobalID": "2111be98-6d39-4427-8297-21ecce565f26", "ApprovalYear": "2023-12-19"}}, {"type": "Feature", "id": 19976, "geometry": {"type": "Point", "coordinates": [-121.5123454932, 45.740475434176]}, "properties": {"Name": "Bella Vista Estates", "Status": "In Good Standing", "State": "WA", "County": "Klickitat County", "City": "White Salmon", "Latitude": 45.740475434176, "Longitude": -121.5123454932, "TotalInvestment": null, "ResidentCount": 34, "Site_Mailing_Address": null, "FID": 19976, "GlobalID": "77f37d59-28fa-4525-bbd2-a9ea64067e57", "ApprovalYear": "2025-11-07"}}, {"type": "Feature", "id": 20078, "geometry": {"type": "Point", "coordinates": [-121.5201121, 45.7406988]}, "properties": {"Name": "Brislawn", "Status": "In Good Standing", "State": "WA", "County": "Klickitat County", "City": "White Salmon", "Latitude": 45.7406988, "Longitude": -121.5201121, "TotalInvestment": null, "ResidentCount": 60, "Site_Mailing_Address": null, "FID": 20078, "GlobalID": "06cc2ff2-9bb2-45f1-8e49-17378d66ed84", "ApprovalYear": "2024-12-17"}}, {"type": "Feature", "id": 20109, "geometry": {"type": "Point", "coordinates": [-122.2227059, 45.4435475]}, "properties": {"Name": "Bull Run", "Status": "In Good Standing", "State": "OR", "County": "Clackamas County", "City": "Sandy", "Latitude": 45.4435475, "Longitude": -122.2227059, "TotalInvestment": null, "ResidentCount": 420, "Site_Mailing_Address": null, "FID": 20109, "GlobalID": "ba7336af-c268-4fbb-b042-1e859870f5f5", "ApprovalYear": "2025-12-19"}}, {"type": "Feature", "id": 20305, "geometry": {"type": "Point", "coordinates": [-122.6944105, 45.5068004]}, "properties": {"Name": "Governors Park Neighborhood", "Status": "In Good Standing", "State": "OR", "County": "Multnomah County", "City": "Portland", "Latitude": 45.5068004, "Longitude": -122.6944105, "TotalInvestment": null, "ResidentCount": 63, "Site_Mailing_Address": null, "FID": 20305, "GlobalID": "5a4c62e8-fa99-4efa-b7dc-00bc870b089d", "ApprovalYear": "2024-10-04"}}, {"type": "Feature", "id": 20429, "geometry": {"type": "Point", "coordinates": [-121.561314, 45.5331211]}, "properties": {"Name": "Hess Roads Community", "Status": "In Good Standing", "State": "OR", "County": "Hood River County", "City": "Mount Hood", "Latitude": 45.5331211, "Longitude": -121.561314, "TotalInvestment": null, "ResidentCount": 38, "Site_Mailing_Address": null, "FID": 20429, "GlobalID": "fc50c9c5-863c-4413-bc6a-bafca0fa2f44", "ApprovalYear": "2023-12-31"}}, {"type": "Feature", "id": 20597, "geometry": {"type": "Point", "coordinates": [-121.4695276, 45.7552005]}, "properties": {"Name": "Jewett Heights Subdivision", "Status": "In Good Standing", "State": "WA", "County": "Klickitat County", "City": "White Salmon", "Latitude": 45.7552005, "Longitude": -121.4695276, "TotalInvestment": null, "ResidentCount": 17, "Site_Mailing_Address": null, "FID": 20597, "GlobalID": "5284d8af-957f-4875-8472-51492450c99a", "ApprovalYear": "2025-11-07"}}, {"type": "Feature", "id": 20643, "geometry": {"type": "Point", "coordinates": [-121.053715, 45.920768]}, "properties": {"Name": "Keystone Acres HOA", "Status": "In Good Standing", "State": "WA", "County": "Klickitat County", "City": "Goldendale", "Latitude": 45.920768, "Longitude": -121.053715, "TotalInvestment": null, "ResidentCount": 100, "Site_Mailing_Address": null, "FID": 20643, "GlobalID": "c8bb5f33-071e-4312-bbb5-cbd64720966d", "ApprovalYear": "2016-11-28"}}, {"type": "Feature", "id": 20800, "geometry": {"type": "Point", "coordinates": [-122.78225127084, 45.589205783217]}, "properties": {"Name": "Linnton", "Status": "In Good Standing", "State": "OR", "County": "Multnomah County", "City": "Portland", "Latitude": 45.589205783217, "Longitude": -122.78225127084, "TotalInvestment": null, "ResidentCount": 30, "Site_Mailing_Address": null, "FID": 20800, "GlobalID": "0a8be025-c445-4c7b-8ebd-e5a5f923d8fa", "ApprovalYear": "2020-05-27"}}, {"type": "Feature", "id": 20869, "geometry": {"type": "Point", "coordinates": [-121.4664988, 45.8191088]}, "properties": {"Name": "Lyons Road", "Status": "In Good Standing", "State": "WA", "County": "Klickitat County", "City": "Husum", "Latitude": 45.8191088, "Longitude": -121.4664988, "TotalInvestment": null, "ResidentCount": 72, "Site_Mailing_Address": null, "FID": 20869, "GlobalID": "81369789-49cb-4f3f-937c-152b1ba4f404", "ApprovalYear": "2021-12-30"}}, {"type": "Feature", "id": 21073, "geometry": {"type": "Point", "coordinates": [-121.5944208, 45.4462843]}, "properties": {"Name": "Mt. Shadows /Cooper Spur", "Status": "In Good Standing", "State": "OR", "County": "Hood River County", "City": "Mount Hood", "Latitude": 45.4462843, "Longitude": -121.5944208, "TotalInvestment": null, "ResidentCount": 69, "Site_Mailing_Address": null, "FID": 21073, "GlobalID": "9f81fbaf-802d-49fa-8f93-8da3d181e22e", "ApprovalYear": "2025-11-19"}}, {"type": "Feature", "id": 21093, "geometry": {"type": "Point", "coordinates": [-121.86297704247, 45.705541725146]}, "properties": {"Name": "Nelson Creek Watershed Cooperative", "Status": "In Good Standing", "State": "WA", "County": "Skamania County", "City": "Stevenson", "Latitude": 45.705541725146, "Longitude": -121.86297704247, "TotalInvestment": null, "ResidentCount": 30, "Site_Mailing_Address": null, "FID": 21093, "GlobalID": "86fc7c43-a64d-418e-8820-826384266d9a", "ApprovalYear": "2024-11-26"}}, {"type": "Feature", "id": 21203, "geometry": {"type": "Point", "coordinates": [-122.7281647, 45.4656138]}, "properties": {"Name": "Orchard Lane", "Status": "In Good Standing", "State": "OR", "County": "Multnomah County", "City": "Portland", "Latitude": 45.4656138, "Longitude": -122.7281647, "TotalInvestment": null, "ResidentCount": 37, "Site_Mailing_Address": null, "FID": 21203, "GlobalID": "2f1bc214-189c-489a-9b97-2a5f269e6a7f", "ApprovalYear": "2025-04-04"}}, {"type": "Feature", "id": 21213, "geometry": {"type": "Point", "coordinates": [-122.6864916, 45.5509322]}, "properties": {"Name": "Overlook Neighborhood", "Status": "In Good Standing", "State": "OR", "County": "Multnomah County", "City": "Portland", "Latitude": 45.5509322, "Longitude": -122.6864916, "TotalInvestment": null, "ResidentCount": 70, "Site_Mailing_Address": null, "FID": 21213, "GlobalID": "6d676c9a-e41b-4604-9927-c7ea5c42fcbc", "ApprovalYear": "2024-10-04"}}, {"type": "Feature", "id": 21233, "geometry": {"type": "Point", "coordinates": [-121.33524927035, 45.652896767061]}, "properties": {"Name": "Paradise Ridge", "Status": "In Good Standing", "State": "OR", "County": "Wasco County", "City": "Mosier", "Latitude": 45.652896767061, "Longitude": -121.33524927035, "TotalInvestment": null, "ResidentCount": 38, "Site_Mailing_Address": null, "FID": 21233, "GlobalID": "4894c3e3-6c07-4c3d-af1b-9d7af45f6e70", "ApprovalYear": "2021-04-21"}}, {"type": "Feature", "id": 21390, "geometry": {"type": "Point", "coordinates": [-121.55807271933, 45.702150493505]}, "properties": {"Name": "Stonegate HOA", "Status": "In Good Standing", "State": "OR", "County": "Hood River County", "City": "Hood River", "Latitude": 45.702150493505, "Longitude": -121.55807271933, "TotalInvestment": null, "ResidentCount": 149, "Site_Mailing_Address": null, "FID": 21390, "GlobalID": "01f4286f-a926-4389-bd43-2f714dc8626d", "ApprovalYear": "2023-10-16"}}, {"type": "Feature", "id": 21615, "geometry": {"type": "Point", "coordinates": [-122.7134203, 45.5354532]}, "properties": {"Name": "Thurman Bridge Neighbors", "Status": "In Good Standing", "State": "OR", "County": "Multnomah County", "City": "Portland", "Latitude": 45.5354532, "Longitude": -122.7134203, "TotalInvestment": null, "ResidentCount": 1000, "Site_Mailing_Address": null, "FID": 21615, "GlobalID": "b7e1c305-a6ea-4336-81a1-2f19e8adaa70", "ApprovalYear": "2021-11-19"}}, {"type": "Feature", "id": 21701, "geometry": {"type": "Point", "coordinates": [-121.528137, 45.9973427]}, "properties": {"Name": "Trout Lake Community", "Status": "In Good Standing", "State": "WA", "County": "Klickitat County", "City": "Trout Lake", "Latitude": 45.9973427, "Longitude": -121.528137, "TotalInvestment": null, "ResidentCount": 888, "Site_Mailing_Address": null, "FID": 21701, "GlobalID": "269d91e3-9740-4159-8ec6-a99777611c84", "ApprovalYear": "2024-05-23"}}, {"type": "Feature", "id": 21925, "geometry": {"type": "Point", "coordinates": [-121.5188849, 45.7348558]}, "properties": {"Name": "White Salmon Sterling Estates HOA", "Status": "In Good Standing", "State": "WA", "County": "Klickitat County", "City": "White Salmon", "Latitude": 45.7348558, "Longitude": -121.5188849, "TotalInvestment": null, "ResidentCount": 34, "Site_Mailing_Address": null, "FID": 21925, "GlobalID": "bc0c5203-9569-4e3e-8eeb-8afe963a6d8a", "ApprovalYear": "2024-11-26"}}]}