{"type": "FeatureCollection", "features": [{"type": "Feature", "id": 29879, "geometry": {"type": "Polygon", "coordinates": [[[-121.461785330169, 45.6777566311902], [-121.46180293431, 45.6777597188596], [-121.461814004962, 45.6777607581388], [-121.461844506886, 45.6777636216529], [-121.46185462905, 45.6777933206082], [-121.461854461819, 45.6777994227849], [-121.461863497405, 45.677819340201], [-121.461900694454, 45.6778421112001], [-121.461938025812, 45.6778599352859], [-121.462070350788, 45.6778505424181], [-121.462073652036, 45.6778503078394], [-121.462144892476, 45.6778452499213], [-121.462174715565, 45.6778431329954], [-121.462266603501, 45.677836610412], [-121.462589189363, 45.6778536559076], [-121.462714861924, 45.6778945086334], [-121.462785215463, 45.6779173790558], [-121.462912045188, 45.6779586080747], [-121.463017298894, 45.6781191446306], [-121.463014391313, 45.6783379000199], [-121.463013883216, 45.6783761003135], [-121.463163908301, 45.6783800308023], [-121.463431351848, 45.6783870376033], [-121.463455965957, 45.6783876828592], [-121.463670327761, 45.6784790607589], [-121.46371242653, 45.6784791976608], [-121.463916172112, 45.6784798577908], [-121.464105776637, 45.6785382276611], [-121.464323151918, 45.6787507469044], [-121.464453243874, 45.6788153367611], [-121.464541560625, 45.6788591857195], [-121.464786156462, 45.6789071424421], [-121.464952694091, 45.6787419914184], [-121.465047061373, 45.6786124590685], [-121.465046594065, 45.6785975256538], [-121.465040396845, 45.6783996443309], [-121.465092550464, 45.6782304401131], [-121.465094238472, 45.6782249650312], [-121.46516279538, 45.6780511090037], [-121.46553307276, 45.6780127679611], [-121.465543586644, 45.6780116796806], [-121.465714035326, 45.6779940296431], [-121.465734258297, 45.6779919358471], [-121.465761942957, 45.6779887082484], [-121.465784589666, 45.6779869620323], [-121.465917785708, 45.6780502129806], [-121.466011672601, 45.6780499455723], [-121.466048808459, 45.6780498403424], [-121.466164423763, 45.6781251726628], [-121.466454604647, 45.6784057611245], [-121.466459341036, 45.6786812557347], [-121.466386298509, 45.6788662872481], [-121.466424978543, 45.6789524998964], [-121.466328437537, 45.6789926052047], [-121.46649358352, 45.679161513376], [-121.466494466779, 45.6792119448131], [-121.466516770147, 45.6792427546862], [-121.46651948123, 45.679246498565], [-121.466615017922, 45.6793784709863], [-121.46661572206, 45.6793869134051], [-121.466625108287, 45.6794993907476], [-121.466700788262, 45.6796138039441], [-121.466672810781, 45.6797319669352], [-121.466591899948, 45.679745554042], [-121.466591767112, 45.6797454811514], [-121.466580094472, 45.6798025973226], [-121.466462286418, 45.6800238173348], [-121.466196194467, 45.6801823870701], [-121.466076476239, 45.6802230009061], [-121.466085780588, 45.680236160095], [-121.466063909659, 45.6803195182564], [-121.466001290105, 45.6805536985752], [-121.465612779789, 45.6806849971498], [-121.465271433513, 45.6808910606273], [-121.465051692506, 45.6810116086064], [-121.464896467518, 45.6810838152237], [-121.464682638141, 45.6813701966117], [-121.464675677517, 45.681715867136], [-121.464709132564, 45.6817468020447], [-121.464750844953, 45.6817853727013], [-121.464941769607, 45.6819619148739], [-121.464965247623, 45.6821095439669], [-121.464918000423, 45.6825049620755], [-121.464979456429, 45.6827041106667], [-121.464978070931, 45.6829028260448], [-121.464806786012, 45.6829902460644], [-121.464738927516, 45.6830211891386], [-121.464628820412, 45.6828767403161], [-121.46466192835, 45.6827510896742], [-121.464432994519, 45.6827512632796], [-121.464316499927, 45.6828705398253], [-121.464410724492, 45.6830015917787], [-121.464306581078, 45.6830389090743], [-121.464259973755, 45.6830363445327], [-121.464204676727, 45.683056297743], [-121.464181011149, 45.6830648373408], [-121.464100898046, 45.6830937457677], [-121.463888602492, 45.6831654715946], [-121.463827756734, 45.6831902906034], [-121.463806197797, 45.683199084379], [-121.463680473775, 45.6832503665107], [-121.463472627146, 45.6833443521687], [-121.463435969063, 45.6833609283704], [-121.463432528584, 45.6833624842505], [-121.463221137211, 45.6835920178991], [-121.463216557832, 45.6835969904995], [-121.46318786791, 45.6836281428046], [-121.463288843676, 45.6836906203], [-121.463303577643, 45.6836997366377], [-121.463349897213, 45.6837283967601], [-121.463595984866, 45.6838806615878], [-121.463604435351, 45.6838858904781], [-121.46365228446, 45.6839154963451], [-121.463627237267, 45.6839401954931], [-121.463592020604, 45.6839660242733], [-121.463555367276, 45.6839922153562], [-121.463525679291, 45.6840266594557], [-121.463493379381, 45.6840447785508], [-121.463464158675, 45.6840652504949], [-121.463463418923, 45.6840657688973], [-121.463420809549, 45.6840868456005], [-121.463368174623, 45.6840867720703], [-121.463330053891, 45.6840986858857], [-121.463288486716, 45.6841146217352], [-121.463244841456, 45.6841164062707], [-121.46319369498, 45.6841208297425], [-121.463150377287, 45.6841344260529], [-121.46311017061, 45.6841457437704], [-121.463095719475, 45.6841801704522], [-121.463064271126, 45.6842019795587], [-121.4630460926, 45.6842264910733], [-121.463035724106, 45.6842389177351], [-121.46301295235, 45.6842624808469], [-121.462979594996, 45.6842883920624], [-121.462949833841, 45.6843161122411], [-121.462920482206, 45.6843371790442], [-121.462880157622, 45.6843555599137], [-121.462847606396, 45.684361602513], [-121.462837830298, 45.6843634178468], [-121.462797846271, 45.6843608806383], [-121.462756030176, 45.6843624051752], [-121.462713203335, 45.6843584957409], [-121.462675858709, 45.6843681308499], [-121.462631511874, 45.6843869840487], [-121.462607558883, 45.6844093592608], [-121.462587171983, 45.6844400327081], [-121.462560458258, 45.6844602879383], [-121.462528817626, 45.6844786964622], [-121.462492384836, 45.6844942303846], [-121.462439477636, 45.6844994867049], [-121.462390392831, 45.684513669361], [-121.462360564281, 45.6845460833563], [-121.462339536263, 45.6845705284945], [-121.462306802277, 45.68459944791], [-121.462283339385, 45.6846155992166], [-121.462272681227, 45.6846229354908], [-121.462242926931, 45.6846454656476], [-121.462185151894, 45.6846494789941], [-121.462172030306, 45.6846657308039], [-121.462161418492, 45.6846788723829], [-121.462147670556, 45.6847086063309], [-121.46213570147, 45.684734628847], [-121.462133011381, 45.6847404756269], [-121.462132693803, 45.6847679007447], [-121.462103425224, 45.6847950071697], [-121.462064056739, 45.6848144195269], [-121.462016807432, 45.684827918364], [-121.461973448356, 45.6848388241956], [-121.461937799602, 45.6848551623785], [-121.461912242972, 45.6848795230535], [-121.461873934522, 45.6848895868659], [-121.461829304149, 45.6848976303334], [-121.461821694118, 45.6849011876242], [-121.461811516189, 45.6849059452589], [-121.461801398098, 45.6849106748956], [-121.461787961511, 45.6849169557037], [-121.461777573574, 45.6849489085766], [-121.461767787334, 45.6849773222903], [-121.461771505527, 45.6850063967189], [-121.461745759392, 45.685033308364], [-121.461737220137, 45.6850694958581], [-121.461723714334, 45.6851038765869], [-121.461710818369, 45.6851268325633], [-121.461708251893, 45.6851314001672], [-121.461698712928, 45.6851589891202], [-121.461676864204, 45.6851830441425], [-121.461663922549, 45.6852091642201], [-121.461638280041, 45.6852378648178], [-121.461613743384, 45.6852617342106], [-121.461590797397, 45.6852896007269], [-121.461562110105, 45.685310568115], [-121.461523754657, 45.6853304358741], [-121.461498073494, 45.6853570288046], [-121.461497190579, 45.6853579431064], [-121.461460264157, 45.685374868791], [-121.461449752272, 45.6854019648683], [-121.461439933775, 45.6854325293363], [-121.461436177227, 45.6854668685342], [-121.461442077148, 45.6854960362658], [-121.461426775218, 45.6855220993197], [-121.461435002175, 45.6855528105508], [-121.461417886898, 45.6855713343129], [-121.461418073215, 45.685572922784], [-121.461426434112, 45.6856027303275], [-121.461430895341, 45.6856302729163], [-121.46142778848, 45.6856626955684], [-121.461421531723, 45.6856906590413], [-121.461418070436, 45.6857212542333], [-121.46141983455, 45.6857494157578], [-121.461403950907, 45.6857769732245], [-121.461394264979, 45.6858043387472], [-121.461396664006, 45.6858245664166], [-121.461398040985, 45.685836170043], [-121.46138416282, 45.6858693629915], [-121.461351466416, 45.685891152109], [-121.461330330193, 45.6859149655348], [-121.461346767928, 45.6859471933203], [-121.461335827045, 45.6859735833345], [-121.461320524603, 45.6859976913666], [-121.461317520745, 45.6860024240865], [-121.461311015368, 45.6860323788055], [-121.461308875466, 45.6860649872959], [-121.461309160424, 45.6860971649047], [-121.461324928022, 45.6861254520653], [-121.461345555306, 45.6861507821806], [-121.461357477779, 45.6861732227503], [-121.461360364688, 45.6861786558873], [-121.461381434652, 45.6862024086983], [-121.461385432062, 45.6862339405442], [-121.461425324661, 45.6862432772053], [-121.461444576451, 45.6862745149762], [-121.461460956982, 45.6863041515096], [-121.461479611641, 45.6863364667413], [-121.461480256684, 45.6863643674635], [-121.461489017664, 45.6863931245802], [-121.461492166299, 45.6863979590778], [-121.461505826806, 45.6864189342904], [-121.461508859082, 45.6864473091116], [-121.461530956117, 45.686475388066], [-121.461540880212, 45.6865076739012], [-121.461570158045, 45.6865297343456], [-121.461608302205, 45.6865495937637], [-121.46163121385, 45.686581408248], [-121.461644080066, 45.686607656282], [-121.461644574119, 45.6866292165248], [-121.4616446545, 45.6866327018612], [-121.461644729074, 45.6866359305934], [-121.461643781747, 45.6866376478102], [-121.461628357148, 45.6866656003263], [-121.461607335796, 45.6866985665768], [-121.461620617169, 45.6867270038263], [-121.46162080472, 45.6867585248523], [-121.461619835955, 45.6867733426103], [-121.461618529172, 45.6867933223401], [-121.461615250225, 45.6867993285919], [-121.461602732072, 45.6868222590354], [-121.4615838744, 45.6868490023879], [-121.461588793347, 45.686863697825], [-121.461592158556, 45.6868737494657], [-121.461592477861, 45.6868747033627], [-121.461592509932, 45.6868747983043], [-121.461593313516, 45.6868771997702], [-121.461609071472, 45.6868896451498], [-121.461573382821, 45.6868964732117], [-121.46156307437, 45.6869266791482], [-121.461560214715, 45.6869550970198], [-121.461568430753, 45.6869832653288], [-121.461566082558, 45.6870119052109], [-121.461544934355, 45.6870353467733], [-121.461521777113, 45.687068032212], [-121.461529208197, 45.6870962574573], [-121.461513808645, 45.6871271769944], [-121.461512535577, 45.6871561823917], [-121.46149877189, 45.6871857054166], [-121.4614794854, 45.6872117823073], [-121.46146175662, 45.6872418891835], [-121.461428673387, 45.6872681087581], [-121.46139783777, 45.6872965215187], [-121.461373022636, 45.6873308362611], [-121.461344366828, 45.6873691118678], [-121.461310577454, 45.6873963966043], [-121.461273527389, 45.6874204015763], [-121.461291325759, 45.6874572570589], [-121.461310084941, 45.6874825863115], [-121.461334088084, 45.6875122580353], [-121.461346244538, 45.6875421923125], [-121.461370748744, 45.6875638500648], [-121.461418845924, 45.6875691649272], [-121.461452618273, 45.6875858709905], [-121.461492152155, 45.6876090272954], [-121.461534860173, 45.6876191840173], [-121.461577297451, 45.6876267097103], [-121.461588477647, 45.6876273373421], [-121.461594312762, 45.6876473565551], [-121.461601507383, 45.6876776992232], [-121.461625955129, 45.6877088224193], [-121.461635815446, 45.6877243332804], [-121.461644731443, 45.687738359773], [-121.461673131755, 45.6877575541782], [-121.461675031927, 45.6877588380972], [-121.461702566345, 45.6877894267892], [-121.461741100667, 45.6878165416478], [-121.461769331201, 45.6878380901811], [-121.461803319338, 45.6878630960867], [-121.461822592031, 45.6878948633203], [-121.461837072536, 45.6879314787142], [-121.461844352514, 45.6879584327714], [-121.461874463157, 45.6879836879695], [-121.461884968022, 45.6880111543984], [-121.461905599948, 45.6880409867229], [-121.461945217365, 45.6880651430949], [-121.461957567446, 45.6880941672189], [-121.461960562192, 45.688122375898], [-121.461985307135, 45.688147169075], [-121.462002244098, 45.688178227957], [-121.462038196352, 45.6882014942592], [-121.462078515597, 45.688224462913], [-121.46211439701, 45.6882486760332], [-121.462111778156, 45.6882760467481], [-121.462113474735, 45.6883037347928], [-121.462130737132, 45.6883356225199], [-121.462159722748, 45.6883588282878], [-121.462176018267, 45.6883890711248], [-121.462196838705, 45.6884155035882], [-121.462193242738, 45.6884569709776], [-121.462205601581, 45.6884854956401], [-121.462228603587, 45.6885257207617], [-121.462242904716, 45.6885554479881], [-121.46225096083, 45.6885890497374], [-121.46227323344, 45.6886158266692], [-121.462287654366, 45.6886491036614], [-121.462301687453, 45.6886761486003], [-121.462313479818, 45.6887124127078], [-121.462313218569, 45.6887133227833], [-121.462305556038, 45.6887399577331], [-121.462319604553, 45.6887675186291], [-121.462361184524, 45.6887777291603], [-121.46238873568, 45.6888038021496], [-121.462401303701, 45.6888336041341], [-121.462408943629, 45.6888481876445], [-121.462417945545, 45.68886537185], [-121.462425364643, 45.6888998227968], [-121.462441744242, 45.6889371306395], [-121.462458088734, 45.6889680347592], [-121.462486336526, 45.6889907651625], [-121.462482954759, 45.6890203452377], [-121.462491441681, 45.6890499500615], [-121.46250484271, 45.6890819765702], [-121.462512214769, 45.6891118670157], [-121.462536175926, 45.6891352921814], [-121.462534606603, 45.6891698291524], [-121.462538895933, 45.6891971119415], [-121.462546255897, 45.6892261795383], [-121.462550312775, 45.6892536968219], [-121.462570499363, 45.6892860306788], [-121.462580683009, 45.6893170381722], [-121.462601452036, 45.6893545049811], [-121.46260822606, 45.6893855538875], [-121.462646385161, 45.68940631054], [-121.462646798871, 45.6894393467471], [-121.462663541808, 45.6894705298252], [-121.462677459074, 45.6895005029512], [-121.462671412463, 45.689529098467], [-121.462689448185, 45.6895559893052], [-121.462717535548, 45.689591150446], [-121.462743048485, 45.6896200573032], [-121.462755303867, 45.6896512987827], [-121.46277899435, 45.6896768336658], [-121.462800234462, 45.6897045695924], [-121.462818292827, 45.6897329350631], [-121.4628398224, 45.6897683418521], [-121.462858193693, 45.6898004280029], [-121.462883198413, 45.6898260930615], [-121.462898951341, 45.6898537623265], [-121.462915236887, 45.6898887582961], [-121.462925619606, 45.6899194011973], [-121.462943813235, 45.6899515065449], [-121.462954598654, 45.6899802961746], [-121.462981575718, 45.690004947247], [-121.462985579761, 45.6900332774826], [-121.462997322207, 45.6900646857491], [-121.463009221534, 45.6900948215967], [-121.463024404526, 45.6901225317788], [-121.463024676882, 45.6901554850702], [-121.463045317244, 45.6901809338485], [-121.463043659115, 45.6902088773599], [-121.4630621152, 45.6902331896316], [-121.463076746513, 45.6902595683492], [-121.463116344675, 45.6902770948767], [-121.463131919037, 45.6903122756632], [-121.463152412441, 45.6903374200134], [-121.463161988616, 45.6903653040615], [-121.463163424833, 45.6903945934395], [-121.46316633877, 45.6904108216799], [-121.463168609781, 45.6904234679091], [-121.463190478043, 45.6904507945689], [-121.463208369102, 45.690476609566], [-121.463237240488, 45.6904998684199], [-121.463273711502, 45.6905267740691], [-121.463281154802, 45.6905546006078], [-121.463303448833, 45.6905869239771], [-121.463320010998, 45.6906186364743], [-121.463343019172, 45.6906520378509], [-121.463357418437, 45.6906782693943], [-121.46337739871, 45.6907074797101], [-121.463380276899, 45.6907425526639], [-121.463395564259, 45.6907682938989], [-121.46338648793, 45.6907956308653], [-121.463425810138, 45.690812089664], [-121.463440395909, 45.6908513966234], [-121.463452099898, 45.690877753012], [-121.463475789508, 45.6909072418319], [-121.46349592401, 45.6909383758942], [-121.463521742608, 45.6909666629193], [-121.463492377076, 45.6909944929434], [-121.46351562301, 45.6910206760534], [-121.463531184845, 45.691051875511], [-121.463544362383, 45.6910780788936], [-121.463576591243, 45.6910959525749], [-121.463584917736, 45.6911279295883], [-121.4635948286, 45.6911738532159], [-121.463627098518, 45.6912004538144], [-121.463662891053, 45.691221439314], [-121.463700050427, 45.6912324719817], [-121.463689222939, 45.6912685568005], [-121.463693004807, 45.6913013106629], [-121.463715312443, 45.6913246206223], [-121.463748522473, 45.6913416595656], [-121.463763164279, 45.6913674424712], [-121.463742447659, 45.6914049712476], [-121.463743133808, 45.6914049129694], [-121.463777388844, 45.6914229551588], [-121.463813429215, 45.6914120087265], [-121.4638368376, 45.6914372425581], [-121.463834452416, 45.6914718630706], [-121.463856417279, 45.6915023016102], [-121.463890997096, 45.6915205875573], [-121.463922779324, 45.6915365865446], [-121.463956100816, 45.6915634928195], [-121.463977443583, 45.6915879481677], [-121.463953607427, 45.6916112613028], [-121.463934109645, 45.6916482286451], [-121.463933705354, 45.6916845706684], [-121.463949274685, 45.6917108205678], [-121.463957994881, 45.6917407191353], [-121.463965912763, 45.691773511505], [-121.463946398191, 45.6918055083222], [-121.463972094395, 45.6918472940542], [-121.46399476451, 45.6918779697722], [-121.464010030583, 45.6919091534814], [-121.464025022918, 45.6919400625802], [-121.464037108541, 45.6919770316034], [-121.46405895945, 45.6920060140226], [-121.464075628924, 45.6920320077697], [-121.464112509953, 45.6920570761714], [-121.464142400206, 45.6920908255443], [-121.464158004936, 45.6921179948818], [-121.464163576268, 45.6921492462317], [-121.46417227221, 45.6921836494077], [-121.464168477882, 45.6922148117294], [-121.464172786666, 45.6922470965077], [-121.464181807854, 45.6922781116144], [-121.464216609268, 45.6923089666038], [-121.464229933342, 45.6923434914085], [-121.464242923967, 45.6923569343081], [-121.464244481452, 45.6923585457091], [-121.46425388503, 45.6923682761095], [-121.464259319403, 45.6924010143617], [-121.464257007392, 45.6924304360383], [-121.464247860081, 45.6924650151397], [-121.464228927801, 45.6924926282892], [-121.464236526049, 45.6925196530587], [-121.464194823542, 45.6925297557139], [-121.46415602052, 45.6925418505372], [-121.464154127927, 45.6925424398508], [-121.464115917711, 45.6925519278686], [-121.464078780806, 45.6925640576703], [-121.463843651311, 45.692535841659], [-121.463761447316, 45.6925828153104], [-121.46373547589, 45.6926444966386], [-121.463722455717, 45.6926754223454], [-121.46369009796, 45.6926927513161], [-121.463667501363, 45.6928059388929], [-121.463303457431, 45.6929116286753], [-121.463199249787, 45.6927618827454], [-121.463055825866, 45.69262924541], [-121.463040970921, 45.6926155081626], [-121.46297053319, 45.69255036678], [-121.462804599698, 45.6925420167516], [-121.46273231757, 45.6925787829507], [-121.462702949922, 45.6926132995092], [-121.462822317231, 45.6926730329437], [-121.462816984408, 45.6926954418356], [-121.462815621355, 45.6927011723698], [-121.462806865796, 45.6927379663491], [-121.462713916611, 45.6927704669959], [-121.462633829065, 45.6927322459515], [-121.462615779552, 45.6927236321711], [-121.462562349892, 45.6926981335222], [-121.462486934236, 45.692685670142], [-121.462455073372, 45.6926804041789], [-121.462253049283, 45.6926470166569], [-121.462118567616, 45.6926483500893], [-121.462050291279, 45.6926253695768], [-121.462031415714, 45.6926190164097], [-121.461998171815, 45.6926027829957], [-121.461990800627, 45.6925991832899], [-121.461961522592, 45.6926109267741], [-121.46194628033, 45.6926170410657], [-121.461875867508, 45.6926452846342], [-121.46184204713, 45.6926374763598], [-121.461827600811, 45.6926341414027], [-121.461827198777, 45.6926340486799], [-121.461817533431, 45.6926318177092], [-121.461717716977, 45.6925780666017], [-121.461655783793, 45.692576932768], [-121.461641993857, 45.6925936885472], [-121.461630370929, 45.6926078110429], [-121.461577133565, 45.692672499992], [-121.46163456673, 45.6927126830937], [-121.461731033863, 45.6927670840359], [-121.461688416869, 45.6927963669894], [-121.461725732866, 45.6929006328784], [-121.461704082649, 45.6929494664411], [-121.461640283115, 45.6929462156537], [-121.461532650745, 45.6933640164165], [-121.461517548978, 45.6934994503309], [-121.461331549376, 45.6936258666473], [-121.461293749527, 45.6936326175723], [-121.461155700614, 45.6935784004434], [-121.4610349508, 45.6937943335289], [-121.460981633708, 45.6938436502717], [-121.460976567602, 45.6938659501563], [-121.460897832761, 45.6939070998926], [-121.46089118274, 45.6939084828332], [-121.460792417538, 45.6939626002193], [-121.460591449974, 45.6938539827513], [-121.460490916776, 45.6938608501089], [-121.460483318005, 45.6939077999134], [-121.460458250495, 45.6939174845487], [-121.460429516694, 45.6939136670111], [-121.460539399546, 45.6939787169263], [-121.460446800354, 45.6940155165712], [-121.460474200942, 45.6940914997782], [-121.460428050724, 45.6941355501203], [-121.460357766692, 45.694206734191], [-121.460282167166, 45.6942169167523], [-121.460225134774, 45.6942262172472], [-121.460223033443, 45.6942576155727], [-121.460215232965, 45.6943095167343], [-121.46007253375, 45.6943352158358], [-121.46008491642, 45.6943623161788], [-121.460213932897, 45.6944119501844], [-121.460300315941, 45.6945062334916], [-121.460188033732, 45.6945872833604], [-121.460050032382, 45.6945466335055], [-121.460039503818, 45.6947714907148], [-121.459710332151, 45.6947024501071], [-121.459569691978, 45.6946252510267], [-121.459165484399, 45.6943906171567], [-121.459123333535, 45.6944442168731], [-121.459119833094, 45.6945634163104], [-121.459037915881, 45.6948286533001], [-121.458950587246, 45.694991059314], [-121.458867737421, 45.6951755580946], [-121.458821792593, 45.6953594953635], [-121.458817582906, 45.6955115861988], [-121.458816514558, 45.6955501883502], [-121.458797773218, 45.695705579055], [-121.458738932063, 45.6960450281405], [-121.458535151527, 45.6960077984817], [-121.45829419602, 45.6959637768676], [-121.457523451129, 45.6958583072473], [-121.456582330257, 45.6957771766153], [-121.45203899405, 45.6956798196444], [-121.451461873901, 45.6956644316441], [-121.449141872487, 45.6955504312043], [-121.448410874444, 45.6954744325123], [-121.447881872816, 45.6953604324957], [-121.447485873801, 45.69523843231], [-121.44699487257, 45.6950374324976], [-121.445628873202, 45.6943234318529], [-121.442277593291, 45.6922257018191], [-121.441081216146, 45.6914166308794], [-121.441066910308, 45.6914069558708], [-121.441041707425, 45.6913899116018], [-121.440998417459, 45.6913614890333], [-121.439967283841, 45.6906844754074], [-121.438796281742, 45.6899574749289], [-121.438054283849, 45.6895204759048], [-121.43785345132, 45.6894076302181], [-121.437834837728, 45.6893971713118], [-121.437835410116, 45.6893957560959], [-121.437830790515, 45.6893853319646], [-121.438140468118, 45.68864149388], [-121.438168683772, 45.6885737193834], [-121.43852401284, 45.6879572354627], [-121.438426727852, 45.6879336894063], [-121.438426759533, 45.6879336124315], [-121.437502127559, 45.6876933127585], [-121.437095254077, 45.6875072705808], [-121.437134698852, 45.6873728649864], [-121.437130204112, 45.6873728142862], [-121.436927243757, 45.6872518189842], [-121.436790000354, 45.6871700000298], [-121.436339999175, 45.68688000017], [-121.436079999957, 45.6867100000707], [-121.435950000094, 45.6866500002889], [-121.435780000401, 45.6866099998681], [-121.434579999669, 45.6864600005899], [-121.434060000219, 45.6864100003837], [-121.4337000005, 45.6863100001816], [-121.432440000167, 45.6858100001014], [-121.431839999888, 45.6855500002963], [-121.431716102552, 45.6855084071315], [-121.430439999966, 45.6850800001365], [-121.429869999732, 45.6848999991142], [-121.429420000557, 45.6847999992876], [-121.428469999807, 45.6845799993666], [-121.428130000282, 45.6845199993993], [-121.427789999727, 45.6844799993496], [-121.427224110866, 45.68447404388], [-121.427236860465, 45.6842014249342], [-121.427254377637, 45.6837459611973], [-121.427492913745, 45.6833055873356], [-121.427511262409, 45.6830120039361], [-121.427425386286, 45.682722170129], [-121.426403858745, 45.6831896541073], [-121.425397254464, 45.6835531921825], [-121.424368316426, 45.6837699880871], [-121.423209814135, 45.6840398926837], [-121.422628211722, 45.6841871650154], [-121.421963975576, 45.6841843932158], [-121.421938084517, 45.6841842848314], [-121.421416353239, 45.684342516795], [-121.420798608838, 45.6841640292988], [-121.420650353919, 45.6841578984034], [-121.420651405382, 45.6841293008126], [-121.420654134105, 45.6840974590792], [-121.420651055046, 45.6840645946429], [-121.420680700384, 45.6840441917242], [-121.420667367748, 45.684003642738], [-121.420667563549, 45.6839602303989], [-121.420669497631, 45.6839286981094], [-121.42068137157, 45.6838988856215], [-121.420702118747, 45.6838436710072], [-121.4207176799, 45.6837987411439], [-121.42073019373, 45.6837600157839], [-121.420742573356, 45.6837336783362], [-121.420750266464, 45.6836777485635], [-121.420751414519, 45.6836465834419], [-121.420749516975, 45.6836178667655], [-121.420744158212, 45.6835814532483], [-121.420748502683, 45.6835229056107], [-121.42075708131, 45.6834909494353], [-121.420763712143, 45.6834605801936], [-121.420768873608, 45.6834327306958], [-121.420771640111, 45.6833855798088], [-121.420775160049, 45.6833304564203], [-121.420775202518, 45.683301249913], [-121.420770035017, 45.6832707256432], [-121.420759677546, 45.6832384014373], [-121.420744807417, 45.6832057178054], [-121.420730512443, 45.6831732680471], [-121.420718844766, 45.6831346160741], [-121.420713469179, 45.6830965209475], [-121.420716427061, 45.6830584951412], [-121.420720496201, 45.6830218213368], [-121.420720329216, 45.6829848180325], [-121.42071633918, 45.6829458122674], [-121.420709202088, 45.6829092112393], [-121.420698386816, 45.6828786016725], [-121.420690268832, 45.6828440932961], [-121.420682585905, 45.6828090472788], [-121.420679269546, 45.6827759464312], [-121.420670803571, 45.6827488302003], [-121.420663157222, 45.6827171393311], [-121.420656086282, 45.6826897336566], [-121.420648561, 45.6826624108083], [-121.420639693297, 45.6826348776774], [-121.420630786538, 45.6826057211391], [-121.420620125231, 45.6825738877664], [-121.420597838928, 45.6825241132193], [-121.420579974579, 45.6824829848956], [-121.420563113196, 45.6824514366202], [-121.420549950847, 45.6824228287901], [-121.420541373494, 45.6823928757166], [-121.420538874116, 45.6823654261393], [-121.420538611138, 45.6823262711825], [-121.420535277591, 45.6822791394495], [-121.420535982628, 45.6822474290414], [-121.420539663633, 45.6822184789651], [-121.420546308584, 45.6821671665738], [-121.420553597397, 45.6821145579511], [-121.42056614998, 45.6820662327483], [-121.42058531449, 45.6820148054453], [-121.420597230192, 45.6819672068071], [-121.420600345151, 45.6819172578434], [-121.420596928859, 45.6818708747421], [-121.420601982087, 45.6818310813206], [-121.420612516606, 45.6817890738573], [-121.420622437145, 45.6817447905698], [-121.420627891934, 45.6817097542875], [-121.42062390448, 45.6816684713126], [-121.420616356518, 45.6816280887014], [-121.420621694503, 45.6815873469172], [-121.420630486497, 45.6815547357241], [-121.420641934937, 45.6815185788938], [-121.420658577594, 45.6814676387568], [-121.42067715004, 45.6814203103692], [-121.420688373491, 45.6813845716659], [-121.420702282565, 45.6813479916048], [-121.420718492446, 45.68131178719], [-121.42072868674, 45.6812804024014], [-121.420736026389, 45.6812528071355], [-121.420742131984, 45.6812109301389], [-121.420743343756, 45.6811614814049], [-121.420745146253, 45.6811125331888], [-121.420739139592, 45.6810665238119], [-121.420728465158, 45.6810162275599], [-121.420725213006, 45.6809688917268], [-121.420737822742, 45.6809298823453], [-121.420747328081, 45.6808872476703], [-121.420753698676, 45.6808505993724], [-121.420759252914, 45.6808196886784], [-121.420770297496, 45.6807811734049], [-121.420787943614, 45.6807331661179], [-121.420790836347, 45.6807260593776], [-121.42080359793, 45.6806947010743], [-121.420818269416, 45.680659264753], [-121.420834818687, 45.6806209371911], [-121.420846886509, 45.680594837533], [-121.420874453393, 45.6805432707115], [-121.420900849882, 45.6804385570302], [-121.420922999724, 45.680350685672], [-121.420901683492, 45.6801776469765], [-121.420847864091, 45.6799555745906], [-121.420865160191, 45.6797787528672], [-121.420735049111, 45.6795858561324], [-121.420746917039, 45.6793830465892], [-121.420811802836, 45.6793213242586], [-121.420824359106, 45.6791487547358], [-121.420808468331, 45.6786734902859], [-121.420805608051, 45.678491250319], [-121.42080542056, 45.6784793403966], [-121.420805420668, 45.678479290893], [-121.42080239943, 45.6781615315888], [-121.420802231998, 45.6781439801599], [-121.420807751098, 45.6777136742652], [-121.420795510719, 45.6774371161334], [-121.42079607661, 45.6774023092547], [-121.420796651127, 45.677366921935], [-121.420797435321, 45.6773186517805], [-121.420799719294, 45.6771780591027], [-121.420873584562, 45.6770160536713], [-121.420990182183, 45.6769226562929], [-121.421180080791, 45.6767968038771], [-121.421347956041, 45.6765777958331], [-121.421407151791, 45.6763896763031], [-121.422122264622, 45.6765293536665], [-121.42237673286, 45.676579055236], [-121.423235823091, 45.6767746855795], [-121.423653768826, 45.6768439254471], [-121.424287299197, 45.6768769930523], [-121.424786250225, 45.6769035846287], [-121.424912649107, 45.67691127827], [-121.425471367574, 45.6769452824181], [-121.425740353497, 45.6768325252758], [-121.425862328192, 45.676791853387], [-121.426176394641, 45.676687130565], [-121.426474870112, 45.6766502193355], [-121.426513861308, 45.6766416583464], [-121.426544989855, 45.6766503896317], [-121.426562840927, 45.6766553970365], [-121.426605434852, 45.6766726301118], [-121.426623316395, 45.6766684434749], [-121.4266324168, 45.6766663123002], [-121.426646899083, 45.6766629222219], [-121.426647255406, 45.6766606543949], [-121.426646986461, 45.6766571025228], [-121.426646232109, 45.6766471398011], [-121.426644858971, 45.6766290200119], [-121.426646718748, 45.6765998682088], [-121.426678561351, 45.6765859197442], [-121.426686142719, 45.6765825993199], [-121.426692706272, 45.6765829750595], [-121.426692424187, 45.6765828235586], [-121.426715849189, 45.6765836592778], [-121.426732147683, 45.6765751150693], [-121.426726788734, 45.6765586073522], [-121.426723413124, 45.6765482079836], [-121.426712878951, 45.6765195407287], [-121.426698450985, 45.6764828828158], [-121.426687204786, 45.6764543326637], [-121.426696835611, 45.6764256731416], [-121.426673795866, 45.6764006518194], [-121.426676807011, 45.6763682602373], [-121.426664151149, 45.6763407131706], [-121.42670490675, 45.6763476652249], [-121.426731539529, 45.6763270463989], [-121.426748876556, 45.6762994507175], [-121.426691561713, 45.6762901022594], [-121.426657145427, 45.6762656911056], [-121.426629720183, 45.6762446813861], [-121.426615877611, 45.6762382629574], [-121.426593144703, 45.6762277211448], [-121.426613553487, 45.676202859077], [-121.42661798971, 45.6761974530204], [-121.426634837059, 45.6761769289437], [-121.426650375839, 45.6761454174024], [-121.426655642349, 45.6761400272819], [-121.426677760658, 45.6761173885787], [-121.426693597907, 45.6760908019525], [-121.426664601213, 45.6760558182487], [-121.426678522389, 45.676027228626], [-121.426651020549, 45.6760052907596], [-121.426645057141, 45.6759704983162], [-121.426677460207, 45.6759525287534], [-121.426651757273, 45.675919780343], [-121.426664915784, 45.6758868372654], [-121.426654101592, 45.6758411390795], [-121.426642855154, 45.6758118238373], [-121.426682606424, 45.6758061742606], [-121.426685468698, 45.6757753359857], [-121.426732450066, 45.6757543853863], [-121.426776708851, 45.6757560373147], [-121.426815349109, 45.6757612104127], [-121.426864391851, 45.6757595240458], [-121.426913510358, 45.6757598072054], [-121.426960740938, 45.6757650553604], [-121.426990154543, 45.6757456700944], [-121.427036741717, 45.6757432711651], [-121.42706601915, 45.675722145924], [-121.427075216747, 45.675687949327], [-121.427109436905, 45.6756684934077], [-121.427145550212, 45.6756518574376], [-121.427182528617, 45.6756646493193], [-121.427228006686, 45.675659214326], [-121.42727550618, 45.6756394200565], [-121.427306683787, 45.6756103658928], [-121.427347048089, 45.6755997848133], [-121.427386003287, 45.6755967397019], [-121.427431022292, 45.6755969175899], [-121.427434874662, 45.6755688544136], [-121.427433625071, 45.6755377461845], [-121.427431079888, 45.6755067776338], [-121.427428271767, 45.6754681915729], [-121.427427889008, 45.6754387280473], [-121.427428078869, 45.6754040869675], [-121.42747006984, 45.6753936875569], [-121.427514035826, 45.6753961569538], [-121.42755319181, 45.6754148140008], [-121.42759248028, 45.6754268175677], [-121.427634465633, 45.6754424694218], [-121.427679335399, 45.6754543877756], [-121.427718166882, 45.6754626307189], [-121.427762447842, 45.6754764104287], [-121.427817580035, 45.6754856400981], [-121.42786408855, 45.6754917708334], [-121.427908955924, 45.6754731542968], [-121.427948721909, 45.6754497744426], [-121.427998292632, 45.675436560159], [-121.42804016643, 45.6754225477516], [-121.428096527289, 45.6754347149992], [-121.428159164905, 45.675440577035], [-121.42818572746, 45.6754665403329], [-121.428232959346, 45.6754754513599], [-121.428270919948, 45.675455280585], [-121.428305624479, 45.6754327211495], [-121.428348984522, 45.6754229001129], [-121.428398896418, 45.675439364628], [-121.428434502745, 45.6754546205828], [-121.42846411152, 45.6754776770237], [-121.428489527751, 45.675501114118], [-121.428525307724, 45.6755141140992], [-121.428564855974, 45.6755181325768], [-121.428588229683, 45.6754901489177], [-121.428629373002, 45.6754833296916], [-121.428670436204, 45.6754882699682], [-121.428714675816, 45.6754949127995], [-121.42875451392, 45.6754938973764], [-121.428780467071, 45.6754682516007], [-121.42881963026, 45.6754653843795], [-121.428858124744, 45.6754738842264], [-121.428903740349, 45.6754658635893], [-121.428942919726, 45.675442416814], [-121.428974866798, 45.6754153790862], [-121.429022251334, 45.6754142054402], [-121.429074601804, 45.6754024969746], [-121.429112297508, 45.6753904942243], [-121.429138946862, 45.675367307996], [-121.429183040889, 45.6753714436839], [-121.429195436841, 45.6753431640103], [-121.429243201151, 45.6753454392526], [-121.429285445099, 45.6753279130139], [-121.42932218101, 45.6753146917702], [-121.429369230077, 45.675317060635], [-121.42941180318, 45.6753027738112], [-121.429427569009, 45.6752746007567], [-121.42940091289, 45.675253845301], [-121.429385100836, 45.6752282848419], [-121.429430692136, 45.6752153869539], [-121.429479546867, 45.6752079182789], [-121.429520577974, 45.6751911475562], [-121.429548116131, 45.6751653712827], [-121.429548465539, 45.6751340213335], [-121.429528005951, 45.6751072511733], [-121.429553713613, 45.6750834767397], [-121.429560172416, 45.6750427544096], [-121.429644321124, 45.6750559204216], [-121.429646773719, 45.6751114908046], [-121.429683955893, 45.6751223305758], [-121.429685106951, 45.6750893552775], [-121.429712493133, 45.675047940452], [-121.429649208513, 45.675027168426], [-121.429680128279, 45.6750051631991], [-121.429672722033, 45.6749767201336], [-121.429716336988, 45.674965843572], [-121.429774213337, 45.6749566500083], [-121.42981552467, 45.674957162125], [-121.429852182934, 45.6749426183056], [-121.429892237002, 45.6749340050657], [-121.429943562707, 45.6749346737003], [-121.429985896473, 45.6749373744355], [-121.430024431326, 45.6749424045847], [-121.430067454474, 45.674942538698], [-121.430105390233, 45.6749342374026], [-121.430153582468, 45.67492730659], [-121.430193984179, 45.6749126421939], [-121.430240252184, 45.6749047767041], [-121.43029724364, 45.6748836489763], [-121.430326407993, 45.6749033765836], [-121.430375249665, 45.6749228543425], [-121.430415446423, 45.6749325525802], [-121.430466948304, 45.6749365636472], [-121.430508748045, 45.674919194668], [-121.43055034276, 45.6749045654409], [-121.430593246225, 45.6748885437349], [-121.4306267951, 45.6748687886061], [-121.430663896606, 45.6748482091892], [-121.430679537768, 45.6748145940825], [-121.430738910285, 45.6747975231667], [-121.43077162584, 45.6747801075901], [-121.430828069406, 45.6747736525937], [-121.430866593511, 45.6747643222205], [-121.430873373785, 45.6747626799875], [-121.430908844881, 45.6747330384538], [-121.430909876326, 45.6747325179679], [-121.430910001324, 45.6747324557784], [-121.430919575897, 45.6747276295951], [-121.430928144766, 45.6747292468655], [-121.430939213181, 45.6747313350178], [-121.43099419604, 45.6747245403398], [-121.431022808933, 45.6747229828855], [-121.43103613885, 45.6747255143365], [-121.431065014134, 45.6747311063177], [-121.431107542058, 45.6747320019164], [-121.431113018706, 45.674731981733], [-121.431158814464, 45.6747318150841], [-121.43121346948, 45.6747384955968], [-121.431257603758, 45.6747471513061], [-121.431310306482, 45.6747552352069], [-121.431348861877, 45.6747696837691], [-121.43138849817, 45.674777937418], [-121.431427498808, 45.6747852759296], [-121.431479743858, 45.6747841932161], [-121.431536752658, 45.6747886610645], [-121.431579314941, 45.6748029413485], [-121.431623250999, 45.6748004519379], [-121.431652485478, 45.674799211593], [-121.431672356495, 45.6747983683264], [-121.431722346778, 45.6747939818021], [-121.431773664881, 45.6747845783644], [-121.431822192056, 45.6747767225498], [-121.431852552917, 45.6747737226342], [-121.43186477528, 45.6747725150959], [-121.431923695624, 45.6747626534051], [-121.431946573445, 45.6747649890961], [-121.431982465591, 45.6747686537661], [-121.432027986769, 45.6747766630481], [-121.432072927, 45.6747683303416], [-121.432120912289, 45.6747608882051], [-121.432163874433, 45.6747593402166], [-121.432224464398, 45.6747600782867], [-121.432264265924, 45.6747599837328], [-121.432309842937, 45.6747474220335], [-121.432361115669, 45.6747275928269], [-121.432402117577, 45.6747312716901], [-121.432431516804, 45.6747117624103], [-121.432476020666, 45.6747117413196], [-121.432519534831, 45.6747213214275], [-121.432563855588, 45.6747184318923], [-121.432603624746, 45.6747199092392], [-121.432649191712, 45.6747269702033], [-121.43269449358, 45.6747275234365], [-121.432742975587, 45.6747359943055], [-121.432783288506, 45.6747406221773], [-121.432824362597, 45.6747476034218], [-121.432864912793, 45.674751643159], [-121.43291161054, 45.6747434512485], [-121.432961615428, 45.6747407439563], [-121.433020866571, 45.6747402274073], [-121.433062069529, 45.6747382238016], [-121.433105119743, 45.6747379809025], [-121.433153377039, 45.6747414871996], [-121.433197613404, 45.6747377105687], [-121.433243016739, 45.674747003083], [-121.433292123506, 45.6747453760398], [-121.433346460162, 45.6747524319039], [-121.433385992936, 45.6747505573883], [-121.433434848274, 45.6747465298864], [-121.433471430001, 45.6747616959388], [-121.433519907021, 45.6747480367127], [-121.433565037098, 45.6747526763688], [-121.43361064304, 45.674762256845], [-121.43365260934, 45.6747722842421], [-121.433710698322, 45.6747789071403], [-121.43375234258, 45.6747758130233], [-121.433795898139, 45.6747930764093], [-121.433836901752, 45.6747940301977], [-121.433877343431, 45.6747782174272], [-121.43392450582, 45.6747766993655], [-121.433967040863, 45.6747838316439], [-121.434002150976, 45.6747676694002], [-121.43404469979, 45.6747692455618], [-121.434066011831, 45.6747642893065], [-121.434094250825, 45.674757722337], [-121.434145373849, 45.6747504636818], [-121.434187451132, 45.6747528794137], [-121.434242739737, 45.6747611171226], [-121.434288626181, 45.6747614743157], [-121.434344182233, 45.6747659244482], [-121.434389180326, 45.6747714782643], [-121.434447219221, 45.6747787031636], [-121.434497714613, 45.6747790316362], [-121.43454443604, 45.6747803875733], [-121.434592447082, 45.6747839348915], [-121.434610164137, 45.6747822884126], [-121.434634374279, 45.6747800396471], [-121.43468381737, 45.6747750997704], [-121.434720546657, 45.6747574068348], [-121.434767462129, 45.674751066841], [-121.434823498016, 45.6747603199136], [-121.434857391488, 45.6747791246651], [-121.434897898016, 45.6747844142114], [-121.434937225188, 45.6747918928123], [-121.434982604621, 45.6748069359037], [-121.435022931564, 45.674821108667], [-121.435038325515, 45.6748474312966], [-121.435036109773, 45.6748777205833], [-121.435057380143, 45.6749212318002], [-121.435044623892, 45.6749602875921], [-121.435047167207, 45.6749949733333], [-121.435076652244, 45.675028543955], [-121.435112291219, 45.6750151438024], [-121.43516883525, 45.6750267682121], [-121.435207990086, 45.6750263424386], [-121.43526390297, 45.675035967148], [-121.435303868055, 45.675061010682], [-121.435346882699, 45.6750822273759], [-121.435403222022, 45.6750792277487], [-121.435445145635, 45.6750742232425], [-121.435532960821, 45.6750828986656], [-121.435536832352, 45.6751121381211], [-121.435577869718, 45.6751209657628], [-121.435627633591, 45.6751244259418], [-121.435663840009, 45.6751388066692], [-121.435684133987, 45.6751669253999], [-121.435716589486, 45.6751866219951], [-121.435759915307, 45.6751852090477], [-121.435786996319, 45.6752085854076], [-121.435815551666, 45.6752392304029], [-121.43584888605, 45.6752612567365], [-121.435882381183, 45.6752454453386], [-121.435930660275, 45.6752564854407], [-121.435980658067, 45.6752587902488], [-121.436027121078, 45.6752628927254], [-121.436057093158, 45.6752822347852], [-121.436088774708, 45.6753046470594], [-121.436134416478, 45.6753095627332], [-121.436168751273, 45.6753227394517], [-121.436212154644, 45.675314859324], [-121.436247843126, 45.6753261796579], [-121.436287785716, 45.675329700407], [-121.436334077896, 45.6753390623653], [-121.436376235732, 45.6753438600396], [-121.436368816488, 45.6753137322596], [-121.436392166242, 45.6752858663886], [-121.43642293422, 45.6752574665974], [-121.436440532819, 45.67523080642], [-121.436453286744, 45.6752027720852], [-121.436449420781, 45.6751716560432], [-121.436446997007, 45.6751434796459], [-121.436472747662, 45.6751191632885], [-121.436514561192, 45.675110456599], [-121.436560114242, 45.6751044473557], [-121.436553123205, 45.6751316388908], [-121.436587801773, 45.6751560290515], [-121.43661938376, 45.6751722480741], [-121.436673304755, 45.6751737430885], [-121.436715484245, 45.675194955936], [-121.436757636052, 45.6752062835641], [-121.436797737189, 45.6751875577983], [-121.436838026302, 45.6751889606775], [-121.436882489319, 45.6752105224477], [-121.436926122605, 45.6752236578733], [-121.436974155326, 45.675213304345], [-121.43702365728, 45.6752171851751], [-121.437067408599, 45.6752296335905], [-121.437112048621, 45.6752278726752], [-121.437149411823, 45.6752128969147], [-121.43715981177, 45.6751856502767], [-121.437203298637, 45.6751911336999], [-121.437241800721, 45.6751810907016], [-121.43728168185, 45.6752038353553], [-121.437332511793, 45.6752084875988], [-121.437372863028, 45.6751951611122], [-121.437418691068, 45.6751962921284], [-121.437457022221, 45.6752130055931], [-121.43749646824, 45.6752193742221], [-121.437537151941, 45.6752212250985], [-121.437576519255, 45.675229268597], [-121.437620137987, 45.6752228211282], [-121.437642519344, 45.6752466989201], [-121.437680495928, 45.6752661446433], [-121.437722043073, 45.6752687129372], [-121.437755800734, 45.6752833088323], [-121.437796543312, 45.6752971631655], [-121.437835147495, 45.6753048108972], [-121.437880160258, 45.6753154940687], [-121.437923518102, 45.6753167153113], [-121.437967438371, 45.675322595011], [-121.438006338412, 45.6753151368648], [-121.438061073742, 45.6753221644323], [-121.438097647081, 45.675336582708], [-121.43814158602, 45.6753390701444], [-121.43818241207, 45.6753301792237], [-121.438233600974, 45.6753354579387], [-121.438275268909, 45.6753360411771], [-121.438322350374, 45.6753409054537], [-121.438364355539, 45.6753340287967], [-121.438417441759, 45.675330784284], [-121.438452903064, 45.6753157181882], [-121.438502022935, 45.6753065246992], [-121.438556712937, 45.675313798935], [-121.438598247709, 45.6753101218937], [-121.438637530792, 45.6753137696192], [-121.438692799192, 45.6753003891551], [-121.438748638413, 45.6753149553623], [-121.438798016048, 45.6753192972716], [-121.438840655179, 45.6753133526005], [-121.438884882666, 45.6753126213607], [-121.438927530287, 45.6753084022521], [-121.438968435069, 45.6752939972549], [-121.439020033261, 45.6752858527194], [-121.439064979812, 45.6752982779995], [-121.439093748328, 45.6753265407395], [-121.439126176112, 45.6753440019538], [-121.439181463304, 45.6753410706929], [-121.439192045659, 45.6753310559491], [-121.439211283723, 45.675312851623], [-121.439248659688, 45.6753020625842], [-121.439291908356, 45.6752927111198], [-121.439354059374, 45.675289510826], [-121.43939249248, 45.6752833689647], [-121.439443533548, 45.675288979952], [-121.439494987996, 45.6752701158272], [-121.439512844555, 45.6752967046195], [-121.439529500165, 45.6753268197685], [-121.439543146386, 45.675356095418], [-121.439571262439, 45.6753783247991], [-121.439593243918, 45.6754073353768], [-121.439638191799, 45.6754264643436], [-121.439672783363, 45.6754433230965], [-121.439701071748, 45.6754646682076], [-121.439728663861, 45.6754921703391], [-121.439767465531, 45.6755042755762], [-121.439781977782, 45.6755155656618], [-121.439802100441, 45.6755312186263], [-121.439827545936, 45.6755592710714], [-121.439861231878, 45.6755540687126], [-121.439873445606, 45.6755822284411], [-121.439913475235, 45.6756064233516], [-121.439930946745, 45.6756442435813], [-121.439972151059, 45.6756674302094], [-121.440016809512, 45.6756584550629], [-121.440075333596, 45.6756590914429], [-121.440119231066, 45.6756723237644], [-121.44015112665, 45.6756883939748], [-121.4401773788, 45.6757179686137], [-121.440177539526, 45.6757582040749], [-121.440176075716, 45.6757751634426], [-121.44017489991, 45.675788781997], [-121.44016854267, 45.6758171597268], [-121.440146582183, 45.675840326151], [-121.440124845762, 45.675864762062], [-121.440106454732, 45.6758908386221], [-121.440085372189, 45.6759274122111], [-121.440094642064, 45.6759612959059], [-121.440111819626, 45.676001061693], [-121.440148416954, 45.6760333635882], [-121.440201854416, 45.6760451762006], [-121.440230620986, 45.6760234564503], [-121.440274809046, 45.676042738605], [-121.440318158865, 45.6760646483693], [-121.440367729988, 45.6760745314141], [-121.440401808861, 45.6760914720525], [-121.440450090999, 45.6761003347573], [-121.440501787529, 45.6761123772847], [-121.440545889384, 45.6761174375854], [-121.440584060555, 45.676130306215], [-121.440610388318, 45.6761026853655], [-121.440657934659, 45.67610905638], [-121.440683676926, 45.6761345852212], [-121.440737166639, 45.6761459572504], [-121.440774434277, 45.6761594147438], [-121.440816531817, 45.6761703476892], [-121.440853007223, 45.6761813568901], [-121.440896535147, 45.6761924290437], [-121.440929992366, 45.6761722195954], [-121.440953759388, 45.6762027169305], [-121.441001551018, 45.6761980884114], [-121.441040859982, 45.6761997689587], [-121.441076445817, 45.6762200180037], [-121.441118411581, 45.6762320471526], [-121.441163511401, 45.6762425573975], [-121.441169401611, 45.6762154918771], [-121.441172027349, 45.6762034259603], [-121.441199125363, 45.6761842619617], [-121.441200358853, 45.6761804398985], [-121.441209867402, 45.6761509674026], [-121.441210386355, 45.6761486477442], [-121.441214323649, 45.6761310578522], [-121.441214962166, 45.676129102563], [-121.441216111381, 45.6761255871813], [-121.441223514922, 45.6761029302646], [-121.441215968022, 45.6760822493405], [-121.441213023248, 45.6760741794212], [-121.441213543123, 45.6760357174351], [-121.441245443957, 45.6760019141487], [-121.441279783478, 45.6759878381717], [-121.441312570769, 45.6760033495664], [-121.441340354435, 45.6759829779645], [-121.441351614711, 45.6759596841974], [-121.441352346175, 45.6759581730216], [-121.441353406026, 45.675955979556], [-121.441353738439, 45.6759552910204], [-121.441366794463, 45.6759560146401], [-121.441371230227, 45.6759562605896], [-121.441384791351, 45.6759570127021], [-121.441389095064, 45.6759572514484], [-121.441403119915, 45.6759646084695], [-121.441412217696, 45.6759599117156], [-121.441419353174, 45.6759561530842], [-121.441423216714, 45.6759541175881], [-121.441444397724, 45.6759429601269], [-121.441402421884, 45.6759085951478], [-121.441419136922, 45.6758819563537], [-121.441429878411, 45.6758498768907], [-121.441444514284, 45.6758152051928], [-121.441476420297, 45.6757951247322], [-121.441506413199, 45.675793586181], [-121.441545828352, 45.6758024849508], [-121.441555737695, 45.6758018532784], [-121.441577666191, 45.6757617355919], [-121.441603882951, 45.6757617206559], [-121.441636129979, 45.6757793011019], [-121.441679687871, 45.6757714363061], [-121.44172392199, 45.6757766752751], [-121.441766351057, 45.6757777437722], [-121.441809737467, 45.6757576470213], [-121.441854035646, 45.6757656663015], [-121.44189723881, 45.6757677111101], [-121.441941349942, 45.6757761787515], [-121.441924467173, 45.6757457773294], [-121.441902444331, 45.6757220942902], [-121.441920030445, 45.6757023638189], [-121.441923411161, 45.6756985710382], [-121.441965982039, 45.6756833344073], [-121.441974698404, 45.6756765090857], [-121.44199212192, 45.6756628664158], [-121.441996103268, 45.6756616272895], [-121.442032769431, 45.6756502173948], [-121.442053627468, 45.6756264937141], [-121.442087001495, 45.6756117985617], [-121.442127484977, 45.6756129682008], [-121.442168220707, 45.6756121736622], [-121.442208831604, 45.6756069480479], [-121.442250131636, 45.675603724624], [-121.442286677042, 45.6755919898674], [-121.442330826211, 45.6755854812265], [-121.44236396141, 45.675601181584], [-121.442388950662, 45.6756167114392], [-121.442431227267, 45.6756179954328], [-121.442459775197, 45.6756368762429], [-121.442504557083, 45.6756479621837], [-121.442541719578, 45.6756688218342], [-121.442580168528, 45.6756749239839], [-121.442610816993, 45.675693624576], [-121.442647065666, 45.6757167408668], [-121.44267945994, 45.675736614663], [-121.442707871723, 45.6757569832085], [-121.442738846032, 45.6757776873154], [-121.442781426885, 45.6757857350271], [-121.442811380403, 45.6758160219905], [-121.442869088558, 45.6758277025588], [-121.442887737124, 45.6758566769629], [-121.442907609534, 45.6758820343718], [-121.442932640065, 45.6759200156934], [-121.442955422325, 45.6759439276079], [-121.442982214996, 45.6759783748716], [-121.443002748354, 45.6760069402043], [-121.443042440327, 45.6760292491177], [-121.443098722445, 45.6760418480276], [-121.443140135049, 45.6760420749732], [-121.443190486182, 45.6760563040727], [-121.443234392569, 45.6760755947433], [-121.44325643804, 45.6761141347692], [-121.443281756113, 45.6761536122861], [-121.443297022585, 45.6761953317494], [-121.443321711184, 45.6762343137273], [-121.443367870415, 45.6762306673739], [-121.443398834343, 45.6762564863875], [-121.443408641204, 45.6762928415833], [-121.443428191156, 45.6763212287188], [-121.443452174201, 45.6763514881513], [-121.443487359704, 45.6763682431274], [-121.443529993688, 45.6763772192788], [-121.443579015219, 45.6763888936251], [-121.443554919177, 45.676413408744], [-121.443522821508, 45.6764302279345], [-121.443572186959, 45.6764475136499], [-121.443602316789, 45.6764247018141], [-121.443630249193, 45.676445573948], [-121.443633075601, 45.6764489887101], [-121.443644807337, 45.676463163917], [-121.443646551204, 45.6764654721152], [-121.443663309731, 45.6764876609366], [-121.443670612103, 45.6764973293269], [-121.44370005648, 45.6765273471886], [-121.44373076158, 45.6765476009091], [-121.443758976498, 45.6765839431591], [-121.443722565525, 45.6766084606382], [-121.44377275647, 45.6766183488481], [-121.443815816009, 45.6766407438768], [-121.443840288643, 45.6766802178481], [-121.443837047955, 45.6767201801308], [-121.443869239025, 45.6767504756944], [-121.443906452745, 45.6767609638221], [-121.44390152979, 45.6767657833579], [-121.443900681515, 45.6767878123789], [-121.443920262753, 45.6768423187528], [-121.443906564934, 45.6768680242135], [-121.44392730613, 45.6769217264037], [-121.443962021029, 45.6769437565661], [-121.443956824795, 45.6769770981282], [-121.443975520288, 45.6770066364461], [-121.443977336934, 45.6770410573477], [-121.444003501321, 45.6770704651861], [-121.444053398035, 45.6770948281588], [-121.444089516981, 45.6771093841343], [-121.444118806305, 45.6771333421469], [-121.444172024359, 45.6771284945888], [-121.444221931987, 45.6771149466208], [-121.444270882205, 45.6771302875756], [-121.444327918935, 45.6771084369957], [-121.444343415454, 45.6771422638298], [-121.444368414994, 45.6771717817319], [-121.444402040588, 45.677189300059], [-121.444449214204, 45.6771871153334], [-121.444489646879, 45.6771821457081], [-121.444526859396, 45.6771586839102], [-121.444573446628, 45.677144204879], [-121.444613482337, 45.6771312252773], [-121.444630313289, 45.6771059224354], [-121.44467215304, 45.6770915974379], [-121.444701228289, 45.6770719941872], [-121.444730935617, 45.6770377811258], [-121.444738747978, 45.6770654294475], [-121.444780518373, 45.6770359963054], [-121.444814256379, 45.6770361595493], [-121.444825085571, 45.677036211587], [-121.444875318083, 45.6770315516744], [-121.444917771454, 45.6770154662587], [-121.444926666751, 45.6770121877156], [-121.444968772625, 45.6769972892729], [-121.444964923593, 45.6769948174205], [-121.444967637051, 45.6769910973747], [-121.444971150001, 45.6769862810991], [-121.444975535855, 45.6769802678825], [-121.444984322202, 45.6769682227462], [-121.445020240974, 45.676950846704], [-121.445073652616, 45.6769586539681], [-121.445126980889, 45.6769589496965], [-121.445163280472, 45.6769468290357], [-121.445196684018, 45.6769198966151], [-121.445235234348, 45.6769272935826], [-121.445285482609, 45.6769383772302], [-121.445333952835, 45.676949635575], [-121.445398544305, 45.676957770376], [-121.445430591805, 45.6769767808781], [-121.445474143103, 45.67697079124], [-121.445525392688, 45.6769783618457], [-121.445569281644, 45.6769844740162], [-121.445609476425, 45.6770019022706], [-121.445652832833, 45.6770136606455], [-121.445701716116, 45.6770256337283], [-121.445748437131, 45.6770277771547], [-121.445784021622, 45.6770160669094], [-121.445806865721, 45.676990599991], [-121.445850269345, 45.6769742688321], [-121.445895115125, 45.6769644676516], [-121.445986937194, 45.6769073333445], [-121.446015704025, 45.6768821539871], [-121.446054951661, 45.6768581064155], [-121.446108021675, 45.6768385547221], [-121.44614799282, 45.6768318752546], [-121.446140832937, 45.6768606870371], [-121.446153121219, 45.6768897093891], [-121.446199757041, 45.6768946948656], [-121.446240970934, 45.6768825030004], [-121.446278557162, 45.6768620664267], [-121.446292331279, 45.6768331942927], [-121.446309872811, 45.6768052905987], [-121.446342298848, 45.6767752410253], [-121.446376836883, 45.6767575361427], [-121.446413253922, 45.6767343383373], [-121.446449604833, 45.6767098173841], [-121.446494138689, 45.6767067282194], [-121.446538459485, 45.6766779807887], [-121.446570092052, 45.6766955685819], [-121.446562833539, 45.6767234060494], [-121.446609132912, 45.6767438386795], [-121.44664799496, 45.6767392321688], [-121.4466967636, 45.6767434228632], [-121.446715749636, 45.676705349698], [-121.446698415323, 45.6766743658879], [-121.446729218154, 45.6766555425921], [-121.446761266176, 45.6766724564119], [-121.446795215024, 45.6766516758733], [-121.446823973294, 45.6766293863937], [-121.446874942196, 45.6766328967582], [-121.446902110493, 45.6766088097553], [-121.446941010964, 45.6766292145518], [-121.446981065003, 45.6766194837043], [-121.447020194181, 45.6766063784205], [-121.447067712048, 45.676601800346], [-121.447103140888, 45.6765894773098], [-121.447094444219, 45.6766193231681], [-121.44711634729, 45.676671559923], [-121.44714158288, 45.6766409362142], [-121.44715618015, 45.6766691275615], [-121.447199585228, 45.6766721209057], [-121.447234710594, 45.6766867343866], [-121.447276917396, 45.6766876970032], [-121.447312283055, 45.6767014694395], [-121.447343528294, 45.6767196539151], [-121.447383865812, 45.6767287324228], [-121.447418680877, 45.6767502498426], [-121.447453384883, 45.676765849431], [-121.447415515673, 45.6767923563723], [-121.447382944476, 45.6768083178218], [-121.447344879381, 45.6768269111597], [-121.447302057456, 45.6768395010071], [-121.447250383444, 45.6768540911186], [-121.447191534268, 45.6768671534131], [-121.447184077023, 45.6769054797011], [-121.447167530098, 45.6769367111928], [-121.447137437508, 45.6769552490317], [-121.447096924595, 45.6769741321407], [-121.447078368878, 45.6770045010219], [-121.447067392453, 45.6770405391234], [-121.447015138856, 45.6770710555934], [-121.447004850266, 45.6771011660277], [-121.446993637987, 45.677130133385], [-121.44701900778, 45.6771536521202], [-121.447069507617, 45.6771694926933], [-121.447110453866, 45.6771697595625], [-121.447146948127, 45.6771912935927], [-121.447166131339, 45.677222991039], [-121.447211956146, 45.6772148840253], [-121.447250280093, 45.6771949747154], [-121.447271421331, 45.6771598416601], [-121.447283592719, 45.6770951320222], [-121.447323907162, 45.6770402577332], [-121.447368294747, 45.6770271464045], [-121.447411817105, 45.6770357974459], [-121.447393995325, 45.6770040834425], [-121.4474271042, 45.6769889267813], [-121.44747650397, 45.6769908745886], [-121.447519410206, 45.6769893515647], [-121.447559437164, 45.6769798163669], [-121.447606126292, 45.6769942556695], [-121.447651172739, 45.676999797711], [-121.447673105511, 45.6769725241486], [-121.447708507225, 45.6769436361458], [-121.447743274294, 45.6769258556551], [-121.44777886958, 45.6768992051918], [-121.447816714185, 45.6769176934433], [-121.447841126839, 45.6769398947548], [-121.447886250718, 45.6769516438967], [-121.447934917303, 45.6769521521949], [-121.447964328956, 45.6769234968494], [-121.44800382888, 45.6769058057928], [-121.448039603031, 45.6768939498063], [-121.448078908813, 45.6768807709521], [-121.44812504958, 45.6768801224346], [-121.448157167161, 45.6769034103649], [-121.448196601693, 45.6768788398427], [-121.448237107864, 45.6768855890992], [-121.448277434736, 45.6768680315952], [-121.448318823689, 45.67686147324], [-121.448336968759, 45.6768864335935], [-121.448383916014, 45.6769052883404], [-121.448408191289, 45.6769274507606], [-121.448442792508, 45.6769455284072], [-121.448484456849, 45.676952280707], [-121.448529078596, 45.6769485231735], [-121.448566683226, 45.6769568899716], [-121.448605775098, 45.6769591122213], [-121.448636545622, 45.6769778146482], [-121.448680133068, 45.6769822581557], [-121.448728733774, 45.6769648956755], [-121.448750242279, 45.6769380868928], [-121.44877987214, 45.6769098834473], [-121.448796757746, 45.6768845303284], [-121.448827713083, 45.6768657427421], [-121.448854312478, 45.6768443739314], [-121.448872186944, 45.6768178974129], [-121.448903356434, 45.6767927985619], [-121.448947705727, 45.6767820281408], [-121.448985528824, 45.6767619494296], [-121.449019516573, 45.6767424747935], [-121.449046428848, 45.6767152613821], [-121.449077841174, 45.6766941945968], [-121.449096192458, 45.6766622591525], [-121.449119598194, 45.6766350404151], [-121.449133369803, 45.6766050886926], [-121.449173969249, 45.6765849909097], [-121.449212487024, 45.6765769395965], [-121.449251335191, 45.6765652482794], [-121.449296826841, 45.6765495571221], [-121.449334906153, 45.676538831039], [-121.449324723781, 45.6765109546346], [-121.449338992494, 45.6764848017275], [-121.44938475331, 45.6764754454435], [-121.449422318771, 45.6764591020754], [-121.449457701708, 45.6764378676647], [-121.449492688115, 45.676407560323], [-121.449535918837, 45.6763949229973], [-121.449570232674, 45.676373529124], [-121.44961540351, 45.6763577758787], [-121.449655083085, 45.6763484692546], [-121.449705326695, 45.6763604779905], [-121.449735448149, 45.6763802748273], [-121.449770423237, 45.6763997423907], [-121.449802866536, 45.6764182718883], [-121.449846243026, 45.6764224843645], [-121.449884107231, 45.6764084284349], [-121.449942609469, 45.6763998452074], [-121.449987514357, 45.6764077147474], [-121.450018854127, 45.6764308709878], [-121.450055908275, 45.6764144835688], [-121.450110356983, 45.6764181738234], [-121.450113390559, 45.6764546480519], [-121.450134472469, 45.6764814805612], [-121.450160623207, 45.6765028876778], [-121.450159744596, 45.6765429379951], [-121.450142300034, 45.6765687508802], [-121.450148924122, 45.6766023269224], [-121.450159331116, 45.6766406842829], [-121.450197506484, 45.6766643283658], [-121.450240733178, 45.6766643478265], [-121.450278708059, 45.6766546101141], [-121.450306308013, 45.6766340430218], [-121.450343987462, 45.6766242616753], [-121.450377652102, 45.6766084708321], [-121.450419267299, 45.6766051893231], [-121.45045687756, 45.6765964709106], [-121.45051096639, 45.6765865070816], [-121.450552325685, 45.6765894713982], [-121.450576636297, 45.6766110775799], [-121.450620544714, 45.6766088658131], [-121.450664501468, 45.6766038328936], [-121.450703837554, 45.6766049236206], [-121.45074226708, 45.6766245772563], [-121.45078906564, 45.6766265576552], [-121.450835459034, 45.6766184686], [-121.450880003032, 45.6766014624248], [-121.450917096485, 45.6765830410498], [-121.450910092982, 45.6765329089968], [-121.453393255975, 45.6757219879543], [-121.453428281866, 45.6757379654258], [-121.45345645135, 45.6757619103836], [-121.453475073525, 45.6757666890964], [-121.453509349719, 45.6757754862505], [-121.453562461536, 45.6757544717057], [-121.453623925005, 45.6757397709476], [-121.453671763966, 45.675710441012], [-121.453717811835, 45.6757028267569], [-121.453726403576, 45.675701405711], [-121.453760849813, 45.6756761572707], [-121.453816361962, 45.6756679798261], [-121.453866634124, 45.6756571472562], [-121.453897746227, 45.6756257294085], [-121.453929593643, 45.6755947445491], [-121.453965421304, 45.6755702411208], [-121.454002271287, 45.6755437686135], [-121.454006456194, 45.675489257113], [-121.454014988351, 45.6754555939035], [-121.454048315288, 45.6754285984465], [-121.454087849388, 45.675419721257], [-121.454131066389, 45.6754088686894], [-121.454171658684, 45.6754027339748], [-121.454218426062, 45.6754008718495], [-121.454258403142, 45.6753960024099], [-121.454304297241, 45.6753809510679], [-121.454340292157, 45.6753599214439], [-121.454375334481, 45.6753242452038], [-121.45440387471, 45.675304283903], [-121.454433111748, 45.6752846623581], [-121.454480449799, 45.6752709770233], [-121.454532827092, 45.6752514273396], [-121.454587194319, 45.6752434032458], [-121.454644736857, 45.6752322519592], [-121.454675272227, 45.6752100988544], [-121.454728110013, 45.6751952249944], [-121.454782526445, 45.6751990764022], [-121.454823894406, 45.6752039357859], [-121.454860025105, 45.6752166298241], [-121.454881746219, 45.6752412972834], [-121.454878633827, 45.6752704983059], [-121.45490826456, 45.6753037831388], [-121.454967166919, 45.6752952405526], [-121.455006108192, 45.6753183884403], [-121.455043172078, 45.6753397728408], [-121.455088400769, 45.6753596645992], [-121.455129456679, 45.6753619183822], [-121.455166751868, 45.6753730817131], [-121.455215892703, 45.675387708583], [-121.455258415338, 45.6754104295717], [-121.45529382507, 45.6754398122488], [-121.455296846383, 45.6754422806602], [-121.455323268181, 45.6754636902627], [-121.455332703611, 45.6754949691868], [-121.455352632093, 45.6755290335867], [-121.455385844112, 45.675551078658], [-121.455419093641, 45.6755688685867], [-121.45545036443, 45.6755965561741], [-121.455476607571, 45.6756283828021], [-121.455519271447, 45.6756550804136], [-121.455563100804, 45.6756803464186], [-121.455598055477, 45.6756954338692], [-121.455648257675, 45.675718586183], [-121.455699231101, 45.6757269621732], [-121.455720813997, 45.6757289056526], [-121.455838829687, 45.6757401591941], [-121.455883175561, 45.6757376020815], [-121.455886726271, 45.6757373971567], [-121.455928279046, 45.675741203729], [-121.455939929808, 45.6757459211001], [-121.455968734817, 45.6757575841581], [-121.455988375771, 45.6757588019632], [-121.456026752225, 45.6757597995763], [-121.456084162513, 45.675791369594], [-121.456095525739, 45.6757971586737], [-121.456130426203, 45.6758153451486], [-121.45617582403, 45.6758249137932], [-121.456227319888, 45.6758369896904], [-121.456264668404, 45.675858511653], [-121.456300040501, 45.6758724848141], [-121.456339698216, 45.6758794204504], [-121.456377592308, 45.6758927787046], [-121.456413982715, 45.6759101580429], [-121.456456533241, 45.6759243325766], [-121.456493359708, 45.6759347276599], [-121.456531503586, 45.6759451684365], [-121.456557584245, 45.6759671960058], [-121.456590848371, 45.6759883998417], [-121.456618072788, 45.6760083843394], [-121.456649939881, 45.6760323469676], [-121.45670054956, 45.6760572838068], [-121.456744653146, 45.6760707384406], [-121.456781769582, 45.6760832948713], [-121.456825758666, 45.6760887731027], [-121.456867529562, 45.6760919900184], [-121.456921928462, 45.6760905377206], [-121.456963899096, 45.6760908328973], [-121.457002585787, 45.6760859252629], [-121.457051955804, 45.6760896858132], [-121.457115918505, 45.6761053059667], [-121.457161101294, 45.6761142574506], [-121.457201237305, 45.676124869827], [-121.457244165506, 45.6761371355701], [-121.457298173154, 45.6761517417679], [-121.457352056646, 45.6761659610234], [-121.457391486864, 45.6761737582106], [-121.457429892289, 45.6761818889799], [-121.457468333742, 45.6761909518191], [-121.45751662761, 45.676202946087], [-121.457570110231, 45.6762119455873], [-121.457623721012, 45.6762297857061], [-121.457664898262, 45.6762374632751], [-121.457717753561, 45.6762567720009], [-121.457761325123, 45.6762689958311], [-121.457816156679, 45.6762895616225], [-121.457854144862, 45.676305827056], [-121.457896436641, 45.6763200965684], [-121.457932992161, 45.6763382697319], [-121.457963908993, 45.6763591786483], [-121.457996128834, 45.6763784615776], [-121.458034263426, 45.6763947298275], [-121.458073151697, 45.6764114672864], [-121.458112212696, 45.6764243483653], [-121.458149517359, 45.6764359149888], [-121.458187791594, 45.6764480842488], [-121.458227420681, 45.6764524859804], [-121.458266805825, 45.6764570743251], [-121.458311440385, 45.6764572996529], [-121.458357345096, 45.6764611145756], [-121.458402051491, 45.6764635397645], [-121.458446207342, 45.6764578665703], [-121.458491530131, 45.6764593540457], [-121.458535882442, 45.676469576409], [-121.458579380955, 45.6764755891995], [-121.458623577402, 45.6764804070676], [-121.458662925204, 45.6764886482488], [-121.458711586907, 45.6764959628906], [-121.458751371223, 45.6765073395547], [-121.458792411673, 45.6765131849817], [-121.458830991502, 45.6765186740594], [-121.458873275562, 45.6765222031965], [-121.458913487792, 45.6765238420719], [-121.458953926251, 45.6765274830919], [-121.458998615206, 45.6765321832468], [-121.459038394946, 45.6765398945707], [-121.459079339135, 45.6765483596663], [-121.459129942235, 45.6765605428205], [-121.459166942636, 45.6765737089721], [-121.459204537439, 45.6765888903371], [-121.459239371217, 45.6766088121381], [-121.459272681873, 45.6766284181524], [-121.459310355898, 45.6766468435857], [-121.459344169965, 45.676664951414], [-121.45937859296, 45.6766966147436], [-121.459401431247, 45.676723804063], [-121.459425637415, 45.6767571072563], [-121.459469815751, 45.676763765242], [-121.459516460944, 45.6767684015692], [-121.459560903304, 45.6767632412608], [-121.459600211154, 45.6767524113119], [-121.459619525847, 45.6767416717586], [-121.459683193345, 45.6770270290156], [-121.459719012299, 45.6770506507345], [-121.459752755055, 45.6770782489576], [-121.459802941593, 45.6770795719755], [-121.459850827742, 45.6770694102715], [-121.459897777901, 45.6770723952839], [-121.459947263779, 45.6770976161563], [-121.45997235863, 45.6771221337065], [-121.460002170195, 45.6771444331102], [-121.460039145933, 45.677159034293], [-121.460074422751, 45.6772013012135], [-121.460093546219, 45.6772392801257], [-121.460109969505, 45.6772685043324], [-121.460133686522, 45.6772919537625], [-121.460151051625, 45.6773171780466], [-121.460179954287, 45.6773475272807], [-121.460232089523, 45.677363384976], [-121.460283623852, 45.6773596314264], [-121.460335542031, 45.6773578929349], [-121.460369370067, 45.6773352633465], [-121.460421913092, 45.6773428095945], [-121.460465778125, 45.6773458373972], [-121.46050395437, 45.6773582025779], [-121.460537626535, 45.6773857267083], [-121.460568852821, 45.6774268218658], [-121.460603837275, 45.6774600126452], [-121.46063253166, 45.6774839691984], [-121.460653809112, 45.6775174927823], [-121.460638817376, 45.6775520253163], [-121.460631938264, 45.6775825249572], [-121.460652837975, 45.6776067418916], [-121.460628482027, 45.6776347125583], [-121.460619041277, 45.677661700616], [-121.460624731264, 45.6776917395884], [-121.460624959299, 45.6777218147596], [-121.460665852747, 45.6777443893536], [-121.460705643693, 45.6777414314465], [-121.46076387012, 45.677745751689], [-121.460817592915, 45.6777282262687], [-121.460847166905, 45.6777519083905], [-121.460904728603, 45.6777691854391], [-121.460962553148, 45.6777538862447], [-121.460992683456, 45.6777234730519], [-121.461001709986, 45.6776922921512], [-121.461037756179, 45.677667388916], [-121.461082304695, 45.6776618901112], [-121.46112384205, 45.6776537260494], [-121.461164636113, 45.6776557653107], [-121.461195443006, 45.6776366834458], [-121.461244774013, 45.6776462355524], [-121.461280567258, 45.6776719104436], [-121.461331585287, 45.6776735086177], [-121.461380900859, 45.6776847031267], [-121.461416696268, 45.6776999504301], [-121.461457475664, 45.6777110047177], [-121.461497605345, 45.6777272590758], [-121.46152867348, 45.6777453472683], [-121.461571758251, 45.6777442039074], [-121.461615364477, 45.6777365436816], [-121.461658018726, 45.6777185015497], [-121.461689636895, 45.6777235034577], [-121.461701384879, 45.6777253619536], [-121.46171828553, 45.6777532737193], [-121.46175849203, 45.6777519241069], [-121.461785330169, 45.6777566311902]]]}, "properties": {"OBJECTID": 29879, "poly_SourceOID": 33695, "poly_IncidentName": "Microwave Tower", "poly_FeatureCategory": "Wildfire Daily Fire Perimeter", "poly_MapMethod": "Mixed Methods", "poly_GISAcres": 1314.1008534935754, "poly_DeleteThis": "No", "poly_FeatureAccess": "Public", "poly_FeatureStatus": "Approved", "poly_IsVisible": "Yes", "poly_CreateDate": 1722166405000, "poly_DateCurrent": 1723210943000, "poly_PolygonDateTime": 1722159000000, "poly_IRWINID": "{064DC3A4-4EBA-460E-BE36-D47B0BBC85EE}", "poly_FORID": null, "poly_Acres_AutoCalc": 1314.0957993614297, "poly_SourceGlobalID": "{A8A94FF4-F336-4BDB-9D92-3AE6A1D8524A}", "poly_Source": "2024 NIFS", "attr_SourceOID": 33002215, "attr_ABCDMisc": null, "attr_ADSPermissionState": "DEFAULT", "attr_CalculatedAcres": 1311.9111, "attr_ContainmentDateTime": 1723498200000, "attr_ControlDateTime": null, "attr_CreatedBySystem": "wildcade", "attr_IncidentSize": 1313, "attr_DiscoveryAcres": 1, "attr_DispatchCenterID": "WACCC", "attr_EstimatedCostToDate": 3500000, "attr_FinalAcres": null, "attr_FFReportApprovedByTitle": null, "attr_FFReportApprovedByUnit": null, "attr_FFReportApprovedDate": null, "attr_FireBehaviorGeneral": "Minimal", "attr_FireBehaviorGeneral1": "Smoldering", "attr_FireBehaviorGeneral2": "Creeping", "attr_FireBehaviorGeneral3": "Smoldering", "attr_FireCause": "Human", "attr_FireCauseGeneral": null, "attr_FireCauseSpecific": null, "attr_FireCode": "R4CL", "attr_FireDepartmentID": null, "attr_FireDiscoveryDateTime": 1721688112000, "attr_FireMgmtComplexity": null, "attr_FireOutDateTime": 1729018800000, "attr_FireStrategyConfinePercent": 0, "attr_FireStrategyFullSuppPrcnt": 100, "attr_FireStrategyMonitorPercent": 0, "attr_FireStrategyPointZonePrcnt": 0, "attr_FSJobCode": "PN", "attr_FSOverrideCode": "1522", "attr_GACC": "NWCC", "attr_ICS209ReportDateTime": 1723513226000, "attr_ICS209RptForTimePeriodFrom": 1723446000000, "attr_ICS209RptForTimePeriodTo": 1723509000000, "attr_ICS209ReportStatus": "F", "attr_IncidentManagementOrg": "Type 4 IC", "attr_IncidentName": "MICROWAVE TOWER", "attr_IncidentShortDescription": "1 mile WSW of Mosier, OR", "attr_IncidentTypeCategory": "WF", "attr_IncidentTypeKind": "FI", "attr_InitialLatitude": 45.670036, "attr_InitialLongitude": -121.428022, "attr_InitialResponseAcres": null, "attr_InitialResponseDateTime": null, "attr_IrwinID": "{064DC3A4-4EBA-460E-BE36-D47B0BBC85EE}", "attr_IsFireCauseInvestigated": null, "attr_IsFireCodeRequested": 0, "attr_IsFSAssisted": 1, "attr_IsMultiJurisdictional": 1, "attr_IsQuarantined": 0, "attr_IsReimbursable": 1, "attr_IsTrespass": null, "attr_IsUnifiedCommand": 0, "attr_IsValid": 1, "attr_LocalIncidentIdentifier": "000661", "attr_ModifiedBySystem": "wildcade", "attr_PercentContained": 100, "attr_PercentPerimToBeContained": 100, "attr_POOCity": "Mosier", "attr_POOCounty": "Hood River", "attr_POODispatchCenterID": "WACCC", "attr_POOFips": "41027", "attr_POOJurisdictionalAgency": null, "attr_POOJurisdictionalUnit": null, "attr_POOJurisdictUnitParentUnit": null, "attr_POOLandownerCategory": "Private", "attr_POOLandownerKind": "Private", "attr_POOLegalDescPrincipalMerid": null, "attr_POOLegalDescQtr": null, "attr_POOLegalDescQtrQtr": null, "attr_POOLegalDescRange": null, "attr_POOLegalDescSection": null, "attr_POOLegalDescTownship": null, "attr_POOPredictiveServiceAreaID": "NW06", "attr_POOProtectingAgency": "DOF", "attr_POOProtectingUnit": "OR954S", "attr_POOState": "US-OR", "attr_PredominantFuelGroup": null, "attr_PredominantFuelModel": null, "attr_PrimaryFuelModel": "Short Grass (1 foot)", "attr_SecondaryFuelModel": "Timber (Litter and Understory)", "attr_TotalIncidentPersonnel": 7, "attr_UniqueFireIdentifier": "2024-OR954S-000661", "attr_FORID": null, "attr_WFDSSDecisionStatus": "Approved Decision", "attr_EstimatedFinalCost": 4000000, "attr_OrganizationalAssessment": "Type 5 IC", "attr_StratDecisionPublishDate": 1728071909000, "attr_CreatedOnDateTime_dt": 1721690242053, "attr_ModifiedOnDateTime_dt": 1733159754907, "attr_Source": "IRWIN", "attr_IsCpxChild": 0, "attr_CpxName": null, "attr_CpxID": null, "attr_SourceGlobalID": "{8EF76475-E305-4E07-8CC8-B1445D2FA99F}", "GlobalID": "5f537b41-b2b7-4e4c-b1b9-aecb2f01b4b5", "Shape__Area": 0.0006141874027889571, "Shape__Length": 0.14042742336055875, "attr_IncidentComplexityLevel": "Type 4 Incident"}}]}