{"type": "FeatureCollection", "features": [{"type": "Feature", "id": 13618, "geometry": {"type": "MultiPolygon", "coordinates": [[[[-121.330989071647, 45.6332654049439], [-121.331113950946, 45.6332048667575], [-121.331257341829, 45.6332117600336], [-121.331407283226, 45.6332283418327], [-121.331552806709, 45.6331633079608], [-121.331715849136, 45.6331992699745], [-121.331863940004, 45.6332781870758], [-121.331909648082, 45.633350811314], [-121.331824214706, 45.6334646938095], [-121.331787904802, 45.6335361211946], [-121.331642522355, 45.6335963587713], [-121.331505539155, 45.6336039530055], [-121.33136342927, 45.6335539051622], [-121.331236270047, 45.6334609017083], [-121.331081201066, 45.6333866789859], [-121.330973979052, 45.6333131559187], [-121.330989071647, 45.6332654049439]]], [[[-121.332108135336, 45.632883592292], [-121.331965313986, 45.6328575209281], [-121.331801419955, 45.6328503298652], [-121.331707867605, 45.6327770071027], [-121.331738480393, 45.6326671201426], [-121.331781054249, 45.6326149740605], [-121.331925011969, 45.6326026848773], [-121.332028388295, 45.6325754117255], [-121.332099012046, 45.6324996890547], [-121.332222606754, 45.6324823061432], [-121.33229266277, 45.6324257628047], [-121.332360585287, 45.6324411456889], [-121.33241284388, 45.6325234609139], [-121.332521632556, 45.6325442370985], [-121.332630563166, 45.6325602192086], [-121.332724258348, 45.6326287469375], [-121.332756158422, 45.6327059656916], [-121.332795887314, 45.6327497202164], [-121.332786207967, 45.6328455207472], [-121.332702767952, 45.6328922739499], [-121.332607933705, 45.6328621070518], [-121.332532324305, 45.6328753949364], [-121.332482772335, 45.6329322368203], [-121.332325711789, 45.632925146271], [-121.332209803965, 45.6329138603106], [-121.332108135336, 45.632883592292]]], [[[-121.33269639171, 45.633798836781], [-121.332772856307, 45.6337567790534], [-121.332915821388, 45.6337780541519], [-121.333045541708, 45.6337847450965], [-121.333087975427, 45.6337373927645], [-121.333111466372, 45.6336369957636], [-121.333039550843, 45.6335256129978], [-121.333041828073, 45.6334488922345], [-121.333071016133, 45.6333869559975], [-121.333141782716, 45.6333064379075], [-121.333272639405, 45.6332747680804], [-121.333470567907, 45.6332872499567], [-121.333573803197, 45.6332647711451], [-121.333705514184, 45.6332043296925], [-121.333876670195, 45.6331972328961], [-121.334073318598, 45.6332528702984], [-121.334129860358, 45.6334215931125], [-121.334174862361, 45.6335181921204], [-121.33411748337, 45.6336085007515], [-121.33413443458, 45.6337286760617], [-121.334152949756, 45.6337961062583], [-121.334241094248, 45.6338213769362], [-121.334342481704, 45.6338612317324], [-121.334483884615, 45.6339352509377], [-121.334638391251, 45.6340286499588], [-121.334840458291, 45.6341323351773], [-121.334953954139, 45.6342251352575], [-121.335019321847, 45.6343268283007], [-121.335043395798, 45.6344375122471], [-121.335110041809, 45.6344960491305], [-121.335106490769, 45.63461592606], [-121.335069899692, 45.6346969428877], [-121.335013516035, 45.6347536868205], [-121.334867706888, 45.6348283147594], [-121.334744105892, 45.634845700712], [-121.334558849924, 45.6348669848191], [-121.334396368943, 45.634811847753], [-121.334295121624, 45.6347671972423], [-121.334235452828, 45.6347039641187], [-121.334181908746, 45.6346648058897], [-121.334081089923, 45.6346057698187], [-121.33402782881, 45.6345570218451], [-121.333819354087, 45.6344388501691], [-121.333634948824, 45.6344313628307], [-121.333575138992, 45.6343729251247], [-121.333496957715, 45.6342422619776], [-121.333374778751, 45.6342116963124], [-121.333227395756, 45.6341088058329], [-121.33315476966, 45.6340213981169], [-121.333019492361, 45.6339714517766], [-121.332876669214, 45.633945382175], [-121.332686712363, 45.633894638031], [-121.33269639171, 45.633798836781]]], [[[-121.375306001817, 45.6456910001844], [-121.375333999609, 45.6457039999123], [-121.375362999922, 45.6456709988099], [-121.375417002145, 45.645668000079], [-121.37544999996, 45.6456849989564], [-121.375521000105, 45.6456899997705], [-121.375838999224, 45.6456579997025], [-121.37597600039, 45.6456260002442], [-121.376564604412, 45.6454943980879], [-121.376606991419, 45.6456139889815], [-121.37661063229, 45.6456319882904], [-121.376661425731, 45.6458830190453], [-121.37666091459, 45.6462010212038], [-121.376670354985, 45.6464322549172], [-121.376675819437, 45.6465136327148], [-121.376691742076, 45.6467507532133], [-121.376730541211, 45.6470199002761], [-121.376792766613, 45.6472227128549], [-121.376918130104, 45.6474312217954], [-121.377058307712, 45.6476176807952], [-121.377214761895, 45.647749514085], [-121.377410144571, 45.6478700848397], [-121.377558447442, 45.6479800386961], [-121.377667963753, 45.6480786290492], [-121.377699033784, 45.6481610098486], [-121.377706583225, 45.6483035570315], [-121.377722130368, 45.6486822302527], [-121.37776881222, 45.6488909849485], [-121.37761218017, 45.6489401512392], [-121.377471525556, 45.6490114791458], [-121.377330632889, 45.6490992622385], [-121.377220906372, 45.6493078188267], [-121.37706424378, 45.6494834762563], [-121.376915560922, 45.6496374772415], [-121.376719932108, 45.6497578919659], [-121.376492927835, 45.6498401490993], [-121.376199199399, 45.6499057652011], [-121.376046394172, 45.6499497581071], [-121.375765057995, 45.6500269360376], [-121.375506775283, 45.6501094251199], [-121.375311635152, 45.6502301772976], [-121.375045520029, 45.6505050320553], [-121.374787949681, 45.6507633678861], [-121.374592339731, 45.6509499388714], [-121.374483304917, 45.6510762170448], [-121.374448128687, 45.6512710438201], [-121.374426871852, 45.6514146669162], [-121.374492821669, 45.651499562109], [-121.374704421631, 45.6515745357175], [-121.374752412328, 45.6516891598198], [-121.37474772941, 45.6518510089794], [-121.37474478114, 45.6519529143007], [-121.374721616283, 45.6521624750042], [-121.374820023129, 45.6523078012779], [-121.374921550723, 45.6523452272722], [-121.375098100219, 45.6524496861155], [-121.375255020628, 45.6525695120757], [-121.375323548609, 45.6528463082034], [-121.375387522132, 45.6529530348045], [-121.375653612102, 45.6530273628452], [-121.375632420845, 45.6527216848422], [-121.375629952275, 45.6526860637639], [-121.37533850466, 45.6523291980589], [-121.375443129645, 45.6521895979655], [-121.375714314859, 45.6520876390725], [-121.375955149594, 45.652455540939], [-121.375957690928, 45.6528329691692], [-121.376069445841, 45.6528652922877], [-121.376082901705, 45.6529914179524], [-121.375974959243, 45.6531757862993], [-121.375718704926, 45.653166145179], [-121.375707821837, 45.6531589529549], [-121.375663913084, 45.6532508989462], [-121.375563468859, 45.6538255810477], [-121.375412491704, 45.6538789148705], [-121.37540485782, 45.6539652637151], [-121.375256599866, 45.6540651018695], [-121.375055839875, 45.6542061709944], [-121.374874084642, 45.6542815440978], [-121.374750947176, 45.6543997298088], [-121.374840984418, 45.6545389388581], [-121.375011072333, 45.6545713432477], [-121.375033072972, 45.6546975912793], [-121.375004482292, 45.6547991310041], [-121.374805280877, 45.6548862501228], [-121.374774433629, 45.6550657171147], [-121.374784917866, 45.6552194509634], [-121.374949825196, 45.6553335489619], [-121.375090796017, 45.655676517805], [-121.375218065734, 45.6559134751914], [-121.37527388435, 45.6563022618312], [-121.375185329328, 45.6564656052123], [-121.37529482408, 45.6567375812949], [-121.375277345559, 45.656895681231], [-121.37533560939, 45.6569507249867], [-121.375373494041, 45.6571191761485], [-121.375627163904, 45.6572187342978], [-121.375726622677, 45.6573280921561], [-121.375722809329, 45.6574599691448], [-121.375430087904, 45.6575277688538], [-121.375426274555, 45.6576596460002], [-121.375471148099, 45.6578821678101], [-121.375398947804, 45.6580130728097], [-121.375312078021, 45.658059811919], [-121.375097849589, 45.6580747551652], [-121.374920070299, 45.6580122572091], [-121.374836668912, 45.6579391080159], [-121.374882358125, 45.6578378106916], [-121.374720808698, 45.6578055281153], [-121.374524374095, 45.6577967360451], [-121.374372585761, 45.6577226127419], [-121.374298948162, 45.6576076242646], [-121.374173848776, 45.6574978990182], [-121.374056951008, 45.6574002852661], [-121.373937623297, 45.6573865931951], [-121.373789700414, 45.6574744397619], [-121.373650499275, 45.657556413693], [-121.373428766316, 45.6575352662912], [-121.373339250097, 45.6573780723012], [-121.373372359303, 45.6573670461835], [-121.373257980411, 45.6573289762052], [-121.373107438041, 45.6572776272459], [-121.37292467939, 45.6571274101415], [-121.372844751787, 45.6570606660399], [-121.372742395049, 45.6569607980647], [-121.372582540742, 45.6568273087568], [-121.372467545606, 45.6567600638753], [-121.372234229771, 45.6567403376985], [-121.372048386305, 45.656696684788], [-121.371864204722, 45.656595650811], [-121.371737758761, 45.6565200409703], [-121.371752775898, 45.6564054449639], [-121.372030865563, 45.6563550922418], [-121.372025211567, 45.6562506683099], [-121.371975011014, 45.6562245927491], [-121.371922237686, 45.6560404661308], [-121.371794349929, 45.6559418609093], [-121.371728932813, 45.655924492177], [-121.371580323617, 45.6558850342047], [-121.371563255627, 45.6559084539418], [-121.371187889196, 45.6559067580063], [-121.370356272923, 45.6559029963069], [-121.369971251399, 45.6570379638225], [-121.368199894931, 45.6568363100636], [-121.367831167948, 45.6562549322962], [-121.367479570939, 45.6562381488526], [-121.366826995191, 45.6561935480669], [-121.366648798185, 45.6559793667288], [-121.366506513129, 45.6556833988981], [-121.366436732896, 45.6552003502598], [-121.366291373805, 45.6550101528593], [-121.365811528814, 45.6547916558049], [-121.36581597278, 45.654638873943], [-121.366005649357, 45.6543844326972], [-121.365961632807, 45.654352279991], [-121.366075542778, 45.6542579597957], [-121.36612944439, 45.6541687782671], [-121.366065945177, 45.65399995718], [-121.365958139258, 45.6538844737969], [-121.365886616294, 45.6536975471396], [-121.365838993007, 45.6535709307775], [-121.365669787239, 45.65350854082], [-121.365585704928, 45.6534593628415], [-121.365357538236, 45.6533661437703], [-121.365189725754, 45.6532557992453], [-121.365097274738, 45.6532005032006], [-121.364857947377, 45.6529032302966], [-121.364812738762, 45.6528629407055], [-121.364733429201, 45.652885446191], [-121.364568832688, 45.6529158911548], [-121.364335297663, 45.652904346748], [-121.364269461034, 45.6527557900819], [-121.364232331867, 45.6526244118926], [-121.364216192735, 45.6526241808149], [-121.36419891364, 45.6526204490356], [-121.363961644319, 45.6526841222111], [-121.363732510141, 45.6524927219419], [-121.363490728583, 45.652160051808], [-121.363298475637, 45.6518500570266], [-121.363246553912, 45.6519096488627], [-121.362996902213, 45.6518472840558], [-121.362764349047, 45.6517734059365], [-121.362516069076, 45.6516640309513], [-121.362407330706, 45.6513685382722], [-121.362277382213, 45.6512255857023], [-121.362157680803, 45.651306170979], [-121.361918964296, 45.651443836074], [-121.361703515952, 45.651358444722], [-121.361471984171, 45.6513293898054], [-121.361456405587, 45.6513787442223], [-121.36130087038, 45.6514995238046], [-121.361149399152, 45.651480949931], [-121.361072125173, 45.6513240259158], [-121.361029438129, 45.6511840000823], [-121.361060705789, 45.6510940469371], [-121.360794543055, 45.6509103800621], [-121.360670513562, 45.650806113012], [-121.360654008816, 45.6508259800558], [-121.360453156298, 45.6508969030463], [-121.360312896943, 45.6508948898453], [-121.360268776187, 45.650804047688], [-121.36030623324, 45.6507225781634], [-121.360442596602, 45.6506096739248], [-121.359800140375, 45.6499437579633], [-121.359140778753, 45.6501341628412], [-121.358454081397, 45.6501125379013], [-121.358130756167, 45.6499285877382], [-121.357764503144, 45.6497202130582], [-121.357415221992, 45.6495214912836], [-121.357127001126, 45.6490588091509], [-121.356078297084, 45.6482324612031], [-121.355929246815, 45.6481452532365], [-121.355419045955, 45.6478467352149], [-121.35465685508, 45.6475418227104], [-121.354277314178, 45.6473364798682], [-121.353889165618, 45.6474249450676], [-121.353747539926, 45.6476815662649], [-121.353367534594, 45.6480640812747], [-121.352779686954, 45.6483345087512], [-121.352588742854, 45.6486202317285], [-121.352568281926, 45.6486508479356], [-121.352447357011, 45.6485771948104], [-121.352306255934, 45.6484912521218], [-121.352024906282, 45.6482718542338], [-121.351820943797, 45.6480302972157], [-121.351539366871, 45.6476960639], [-121.35135137733, 45.6473776030061], [-121.351281017684, 45.6471145052089], [-121.351186710749, 45.6468183310183], [-121.351022343306, 45.646609735017], [-121.350686029335, 45.6463410280947], [-121.350270951978, 45.6460999739435], [-121.349935035063, 45.6460232276919], [-121.349488828386, 45.6459575649657], [-121.349230784626, 45.6458919071866], [-121.348972581864, 45.6457491202484], [-121.348651755747, 45.6455022337488], [-121.348370266856, 45.6453709270944], [-121.34800267175, 45.6452666390561], [-121.347767772185, 45.6451459622157], [-121.347603340962, 45.6449651289057], [-121.347579821271, 45.644794929841], [-121.347712950698, 45.6445426959496], [-121.34803328364, 45.644059776054], [-121.348228568399, 45.6437141938122], [-121.348228419279, 45.6436045010071], [-121.348204974149, 45.64347269376], [-121.348064086871, 45.6432642668021], [-121.347742959818, 45.6429625329702], [-121.347461251738, 45.642748954821], [-121.347140519944, 45.6425733648263], [-121.346866852684, 45.6425407230036], [-121.346577620316, 45.6425462428606], [-121.346100472068, 45.6426011129355], [-121.345357630007, 45.6426671551639], [-121.345392298688, 45.6424901568425], [-121.345432845047, 45.6423878869968], [-121.345513744626, 45.6423351690195], [-121.345626163394, 45.6423140592051], [-121.345763611921, 45.6422731019219], [-121.345785812885, 45.642216567206], [-121.345803125217, 45.6421489361183], [-121.34575885624, 45.6420982691161], [-121.345785145437, 45.6419836649536], [-121.34580398221, 45.6419482700522], [-121.345802895248, 45.6419467539438], [-121.345812146998, 45.6419329299727], [-121.345813086635, 45.6419311632726], [-121.34580911698, 45.6418865900322], [-121.345724156117, 45.6419226161613], [-121.345581042814, 45.6418389468508], [-121.345383528436, 45.6418347112853], [-121.345121976755, 45.6418340800956], [-121.344871356672, 45.6418234560095], [-121.34474626537, 45.6418454672596], [-121.344585875668, 45.6418456563024], [-121.344437031113, 45.6418322807338], [-121.344314479349, 45.6418436760628], [-121.344230340445, 45.6418315182817], [-121.344192392014, 45.6417866428699], [-121.344137306422, 45.6417302282489], [-121.344047376079, 45.6416845457103], [-121.343919987785, 45.6416720148321], [-121.34388344432, 45.6416684211225], [-121.343776236679, 45.6416702116968], [-121.343657922268, 45.6416698179087], [-121.343558019727, 45.6416700308181], [-121.343464477258, 45.6416268729987], [-121.343378871404, 45.6416338217634], [-121.343268587034, 45.6416616482164], [-121.343215516363, 45.6416058119054], [-121.343195543221, 45.6415582457357], [-121.343077951056, 45.6415320597055], [-121.342889463848, 45.6414724781823], [-121.342643043389, 45.6413029091231], [-121.342605606998, 45.6411922029378], [-121.342559271895, 45.641055184041], [-121.342538015061, 45.6408945572941], [-121.342557890286, 45.6407900731325], [-121.342882766009, 45.6405070699312], [-121.342913517138, 45.6404825647387], [-121.343083039113, 45.6402950808511], [-121.343060265024, 45.6401025278205], [-121.343031604275, 45.6399617560501], [-121.343001442441, 45.6398242059357], [-121.342905057703, 45.6398139671048], [-121.342746461038, 45.6398622049077], [-121.342300759214, 45.6399509299984], [-121.342077764123, 45.6399850059581], [-121.341830025836, 45.6399263799697], [-121.341629262251, 45.6398204877492], [-121.341414652035, 45.639651659214], [-121.341052960657, 45.6396094720992], [-121.340858432279, 45.6392582630876], [-121.340797133041, 45.6389171181487], [-121.340844829091, 45.6386257538355], [-121.340970109039, 45.6382591988288], [-121.340927621421, 45.6379677368805], [-121.340761304634, 45.6377262817765], [-121.340740459228, 45.6375463899032], [-121.340795482836, 45.6373798219548], [-121.341198128407, 45.6371633119001], [-121.341209475027, 45.6370408928333], [-121.340987539948, 45.6367511769651], [-121.340898535768, 45.6365112309901], [-121.340900116803, 45.6360464257792], [-121.340891540587, 45.6358594797905], [-121.341102706663, 45.6357050898094], [-121.341253781734, 45.6357228341454], [-121.341395321188, 45.6357394579135], [-121.341412134057, 45.6357414320877], [-121.341451312282, 45.6357460330503], [-121.341572858831, 45.6358008042611], [-121.341664867876, 45.6358422650002], [-121.341737384377, 45.6358454878666], [-121.341695496834, 45.6357373782154], [-121.342143151594, 45.6355581972699], [-121.342148605267, 45.6355522539997], [-121.34232511883, 45.6353599007443], [-121.342369020396, 45.6353120598076], [-121.342548196566, 45.6352231841592], [-121.342717174163, 45.6352346430167], [-121.342741446642, 45.6352362227471], [-121.342886520068, 45.6352456678385], [-121.34296823981, 45.6352509880429], [-121.343007158421, 45.635240593858], [-121.343091911773, 45.6352179581708], [-121.343265991801, 45.6351714656955], [-121.343317299976, 45.6351577619088], [-121.343359330352, 45.6350834390493], [-121.342993353112, 45.6349781946967], [-121.342990658166, 45.6348857231179], [-121.342971347082, 45.6346985678587], [-121.342841965427, 45.6345578158028], [-121.342771391083, 45.6344005422467], [-121.342665276692, 45.6342165197602], [-121.342640411325, 45.6340247862882], [-121.342667300596, 45.6339720447385], [-121.342711553404, 45.6338852548976], [-121.342925702785, 45.6338114812288], [-121.342970238561, 45.6337961382934], [-121.343110255371, 45.6337558651097], [-121.343235518251, 45.633788066071], [-121.343490946117, 45.6337834888171], [-121.343588914586, 45.6337817331665], [-121.343586978716, 45.6336998092369], [-121.343602768404, 45.6336444549419], [-121.343736878791, 45.6331743168583], [-121.34400236689, 45.632751271122], [-121.344186778442, 45.632272367158], [-121.344301714289, 45.6321188957124], [-121.344521343393, 45.6320892390911], [-121.344602764893, 45.6321135858894], [-121.344758466288, 45.6321601430892], [-121.344894834142, 45.6322009186893], [-121.344946022842, 45.632219375837], [-121.345034620983, 45.6322513220214], [-121.345138885743, 45.632244852005], [-121.345192151348, 45.6321880288967], [-121.345197066929, 45.6321318489649], [-121.345201712118, 45.6320787519804], [-121.345233051643, 45.6319045042188], [-121.345219031636, 45.6317788537045], [-121.345129457026, 45.6317016141999], [-121.345015158084, 45.6316030540731], [-121.344773352271, 45.6314678428304], [-121.344610435608, 45.6313793499206], [-121.344508537908, 45.6312652427007], [-121.344535208889, 45.6310883528398], [-121.344471977375, 45.6309022917382], [-121.3441686711, 45.6306488639595], [-121.343947171704, 45.6304882438157], [-121.34388584911, 45.6304618208147], [-121.343779161593, 45.6304158501782], [-121.343756648914, 45.6303770620907], [-121.343736639839, 45.6302942499647], [-121.343758806667, 45.6302179268128], [-121.34397325878, 45.6301595387369], [-121.344068296046, 45.6300882628374], [-121.34451086724, 45.6299147652198], [-121.3448187666, 45.6297205099433], [-121.344972479125, 45.6296159157433], [-121.345061134759, 45.6295555878267], [-121.345123379923, 45.6294022502843], [-121.345092211976, 45.6292759823029], [-121.345045336088, 45.6291114351653], [-121.345013858222, 45.6288974128533], [-121.34504530824, 45.6288097721156], [-121.345154680821, 45.6287383657193], [-121.345235465416, 45.6287383720013], [-121.345248237663, 45.6287549752262], [-121.345293951131, 45.6288510370043], [-121.345303134608, 45.6287477270994], [-121.345306278712, 45.6287431971767], [-121.345443914088, 45.6288041510222], [-121.345662944015, 45.6289136347172], [-121.345865858167, 45.6289903258818], [-121.346030515765, 45.6289905068016], [-121.346335318633, 45.6289519658642], [-121.346499326749, 45.6289079300844], [-121.346608860128, 45.6288474908434], [-121.34668142963, 45.6287568912243], [-121.346749436589, 45.6286719892058], [-121.346882519303, 45.6285184802608], [-121.347007120124, 45.6284195382447], [-121.347124629645, 45.6283700096909], [-121.34715447617, 45.6283618499953], [-121.34744531832, 45.6282823310646], [-121.347922188989, 45.6281835789771], [-121.348257934326, 45.6280899610233], [-121.348547185559, 45.6279911941482], [-121.348719095257, 45.6278867650803], [-121.348756650226, 45.6278626620745], [-121.349086453208, 45.6276509958017], [-121.349336705879, 45.6274589270194], [-121.349466691203, 45.6273801229689], [-121.349563333758, 45.6273215327936], [-121.349688498721, 45.6272613198833], [-121.349969752253, 45.6272500221028], [-121.350329594898, 45.6272007871476], [-121.350798466069, 45.6271236770284], [-121.351079973825, 45.6270304449133], [-121.351204889057, 45.6269534350744], [-121.351306685246, 45.6267998058307], [-121.351329742305, 45.6266409217359], [-121.351318518754, 45.6265881487371], [-121.351283011944, 45.626421185105], [-121.351204459662, 45.6260978111728], [-121.351126300842, 45.6259002407015], [-121.351172885676, 45.6257795786896], [-121.351188206444, 45.6255929848154], [-121.351235365301, 45.6254119859965], [-121.351508637302, 45.6252910471386], [-121.351532983443, 45.6252829460489], [-121.351830926775, 45.6251838167615], [-121.351836045375, 45.6251827638378], [-121.35187637524, 45.6251744629534], [-121.352195650865, 45.6251437968509], [-121.352408149142, 45.6251468632734], [-121.352443425983, 45.6251473708886], [-121.352564143388, 45.6251491129884], [-121.352920799708, 45.6252552308271], [-121.352979439035, 45.6252726769188], [-121.35298010289, 45.6252749027557], [-121.353189680744, 45.6253507891049], [-121.353307343877, 45.6253783842868], [-121.353479232913, 45.6253726742684], [-121.353752664814, 45.6253946750184], [-121.353932453635, 45.6254605521981], [-121.354065417772, 45.6255973868334], [-121.35428461838, 45.6257839838342], [-121.354566517801, 45.6259485262906], [-121.354832130765, 45.6260031481353], [-121.355058903272, 45.6260083467128], [-121.355340155008, 45.6260302869035], [-121.355238614838, 45.6262332810058], [-121.355200023214, 45.626431016154], [-121.355215573949, 45.6266228698378], [-121.355247332988, 45.626886251073], [-121.355317935179, 45.6271661449316], [-121.355466706072, 45.6274458099804], [-121.355630866902, 45.6276101817117], [-121.355729315969, 45.6276793179446], [-121.355810585654, 45.6277363887402], [-121.35609217336, 45.6278789910328], [-121.356248608678, 45.627962989009], [-121.356327101671, 45.6280051358921], [-121.356333073671, 45.6281304989828], [-121.35630280404, 45.6281548280265], [-121.356216379821, 45.6282242927655], [-121.356190366407, 45.6282496639551], [-121.356205247, 45.6283789012386], [-121.356193907566, 45.628474511986], [-121.356143638741, 45.6285626250248], [-121.356074583448, 45.6286569250395], [-121.355980618771, 45.6287879950872], [-121.355903839764, 45.6290379460657], [-121.355866820191, 45.6291364767809], [-121.355891750237, 45.6291631818365], [-121.355812209808, 45.6292639417792], [-121.355729368071, 45.6294331087956], [-121.355742055876, 45.6295420617002], [-121.355800161604, 45.6296280409965], [-121.35586796195, 45.6296722627817], [-121.355831408603, 45.6297222230045], [-121.355751668748, 45.6298235410261], [-121.355712009027, 45.6299382196867], [-121.355571949996, 45.6300666659656], [-121.355512586627, 45.6301378998046], [-121.355439656002, 45.630271347188], [-121.355428047074, 45.6304016489684], [-121.355526530277, 45.6305393509888], [-121.355603824917, 45.6306997567788], [-121.35562980689, 45.6307673709056], [-121.355653726331, 45.6309163941982], [-121.35577275131, 45.6310926300487], [-121.355868085917, 45.6312162097737], [-121.355951224099, 45.6313127937379], [-121.355965877418, 45.6313459678775], [-121.355939189369, 45.6314005147362], [-121.355880767434, 45.6316546809774], [-121.35582348097, 45.6318718511554], [-121.355779496759, 45.6319660350464], [-121.3557456159, 45.632053141939], [-121.355700614796, 45.6321304538255], [-121.355652021329, 45.6322611991596], [-121.355591477573, 45.6324075551025], [-121.355578979313, 45.6325649322436], [-121.355552224789, 45.632671826259], [-121.355545391304, 45.632805466733], [-121.355555995018, 45.6328907632498], [-121.355553027883, 45.6329815207618], [-121.355516080175, 45.6330865232586], [-121.355508030372, 45.6331741541683], [-121.35547475857, 45.6332708371462], [-121.35546191356, 45.6333315059154], [-121.355435203053, 45.6333837147734], [-121.355439953345, 45.6334316000702], [-121.355420256884, 45.6335061361764], [-121.35541125307, 45.6336377671212], [-121.355422912304, 45.6337191961669], [-121.355439679358, 45.6337472338368], [-121.355465902978, 45.6337910899354], [-121.355572338068, 45.6338857002479], [-121.35572552957, 45.6339558092633], [-121.355791965375, 45.6340495216904], [-121.355853491887, 45.6341075721736], [-121.355878286287, 45.6341686231996], [-121.355888868441, 45.634194676994], [-121.35592983072, 45.6342381627711], [-121.356020565055, 45.634281749016], [-121.356096111574, 45.6343220080029], [-121.35621997398, 45.6344282240527], [-121.356300439674, 45.6344868181058], [-121.356357674934, 45.6345891143077], [-121.356371149663, 45.6345998679042], [-121.356449029107, 45.6346620201337], [-121.35649010098, 45.6347861039129], [-121.35659318715, 45.6348551477536], [-121.356665020033, 45.6350514511386], [-121.356706270671, 45.6351530848949], [-121.356694986933, 45.6352664518077], [-121.356693870327, 45.6353300228545], [-121.35669338883, 45.635357388256], [-121.356707527414, 45.6354205377303], [-121.356797429011, 45.635506362913], [-121.356890462135, 45.6356100158758], [-121.356918955798, 45.63564176227], [-121.357029284186, 45.6357929879712], [-121.357153354103, 45.6359630498171], [-121.35741666289, 45.636118775085], [-121.357470118039, 45.6361756771187], [-121.35749876172, 45.6362375217099], [-121.357611541611, 45.6363397148464], [-121.357856405289, 45.6364772829365], [-121.357908503084, 45.6365356097852], [-121.35800318282, 45.6366086399567], [-121.358257063787, 45.6368896472599], [-121.358480392153, 45.6369919510096], [-121.358599878866, 45.637157059774], [-121.358673823689, 45.6371582789198], [-121.358779062223, 45.6372507291617], [-121.358857815727, 45.637341316307], [-121.358988156783, 45.6373210098354], [-121.359121714706, 45.63733585121], [-121.359451154769, 45.6373110487954], [-121.359539501382, 45.6372978228883], [-121.359575681928, 45.6372498680355], [-121.359584639928, 45.6372319338684], [-121.359605577861, 45.6371900137591], [-121.359665818884, 45.6372116487126], [-121.359712004866, 45.6372282349811], [-121.359741397742, 45.6372433678192], [-121.359951867623, 45.6373517276891], [-121.360218361835, 45.6373983942233], [-121.360539682924, 45.6374697632063], [-121.360589230402, 45.6375645507127], [-121.360509244409, 45.6376919959153], [-121.360434047335, 45.637742362276], [-121.360379342629, 45.6377790028343], [-121.360381034157, 45.6378316101575], [-121.360386136588, 45.6379903689447], [-121.360394824195, 45.6381531640214], [-121.36039083298, 45.6383593457348], [-121.360580070281, 45.6386059132408], [-121.36068125382, 45.6387332580938], [-121.360722310422, 45.6388491213023], [-121.360824288071, 45.6390908221719], [-121.361088550868, 45.639120922909], [-121.361495309825, 45.6391713847095], [-121.361926529908, 45.6390634447758], [-121.36224892089, 45.6390764228026], [-121.362336841702, 45.6389926148322], [-121.362486232432, 45.6388833467876], [-121.36261442921, 45.6388667622652], [-121.363213731268, 45.6389050991667], [-121.363218648646, 45.6389103668929], [-121.363349926645, 45.6390509497401], [-121.363600418269, 45.6393634478995], [-121.363662982335, 45.6394620540456], [-121.363982370249, 45.6395116312085], [-121.364083693925, 45.6395550607295], [-121.364246232398, 45.6395513921431], [-121.364322441873, 45.6395764711752], [-121.364415220774, 45.6396197781714], [-121.364555569961, 45.6396968051513], [-121.36461717283, 45.6397306137063], [-121.364716549856, 45.6398032289545], [-121.364784593646, 45.6398529490159], [-121.364851215402, 45.6399138719369], [-121.364864815896, 45.6400340042061], [-121.364914693055, 45.6400826940294], [-121.364774651991, 45.6401946290236], [-121.364576185398, 45.6402577542046], [-121.364555584334, 45.6402750800624], [-121.364551000231, 45.6402980001053], [-121.364530000315, 45.6403089988083], [-121.364553000779, 45.64030399877], [-121.364619999828, 45.6403209999032], [-121.364662003254, 45.64030399877], [-121.364739000552, 45.640321999785], [-121.364948999716, 45.6404040000786], [-121.364988999899, 45.6404650002804], [-121.365015999663, 45.6404880000098], [-121.365107000798, 45.6404880000098], [-121.365156000304, 45.6405130001145], [-121.36521400003, 45.6404960002957], [-121.365330001279, 45.6405030000739], [-121.365311999041, 45.6405530002589], [-121.365273001378, 45.6405700000604], [-121.36528655965, 45.6405829130477], [-121.365381560983, 45.6404911679674], [-121.365520730682, 45.6404092042292], [-121.365658157649, 45.6403871829938], [-121.365854008347, 45.64041397313], [-121.365945570031, 45.6404992379681], [-121.365916098103, 45.6406307488564], [-121.366007659787, 45.6407160158768], [-121.366134799247, 45.6407538157765], [-121.366218685725, 45.64080898782], [-121.366259321915, 45.640881531956], [-121.366221829829, 45.6409949362681], [-121.366090682085, 45.6410950079421], [-121.366089112728, 45.6411489568223], [-121.366083669836, 45.6412086812584], [-121.366163999884, 45.6412750002167], [-121.366198001117, 45.6412869998485], [-121.366268002336, 45.6412769999461], [-121.366332000113, 45.6413040000554], [-121.366392999314, 45.641313000089], [-121.366449000289, 45.6413559998802], [-121.366529999582, 45.6413329998791], [-121.366564999742, 45.641350000072], [-121.366593000229, 45.6413339997428], [-121.366615000869, 45.6413599999614], [-121.366611057265, 45.6413906691249], [-121.366673712959, 45.6413312287637], [-121.366719924992, 45.6412119521766], [-121.366833983186, 45.641111635769], [-121.366984669286, 45.6412217347831], [-121.366998101795, 45.641347860917], [-121.366901311916, 45.6414424276966], [-121.366740855738, 45.641516114069], [-121.366736677674, 45.641518032771], [-121.366713534377, 45.6415387842672], [-121.366745995, 45.641544971843], [-121.367066613607, 45.6416060932727], [-121.367099183824, 45.6416795910145], [-121.367282000866, 45.6417230000135], [-121.367415837267, 45.6418995498196], [-121.367443723668, 45.6418999492587], [-121.367673590871, 45.6419332169908], [-121.367761659905, 45.6418445251856], [-121.367846943263, 45.6418517421004], [-121.367843114643, 45.641983617222], [-121.367805448283, 45.6421030171476], [-121.367852684396, 45.6421509157191], [-121.36785307157, 45.6421513132722], [-121.368169000072, 45.6421990001511], [-121.368186999615, 45.6423689998482], [-121.368480999343, 45.6423010002825], [-121.368626999832, 45.6423990002215], [-121.36887103706, 45.642384349229], [-121.368911456756, 45.6424544093011], [-121.369091000337, 45.6425579997963], [-121.36918099985, 45.6425630002614], [-121.369360998877, 45.6426200000059], [-121.369411999829, 45.6426820001469], [-121.369416999852, 45.6427440002192], [-121.369437581153, 45.6427737290789], [-121.369479739988, 45.6428236097943], [-121.36952999983, 45.6428650000211], [-121.369527295003, 45.6428798750974], [-121.369624372342, 45.6429947311534], [-121.369704709576, 45.6430573457266], [-121.369718999976, 45.6430599998058], [-121.369775999877, 45.6430979997234], [-121.369800999992, 45.6431269998746], [-121.369803227813, 45.6431341286994], [-121.369810999139, 45.6431590001323], [-121.36984000035, 45.6431679998679], [-121.369844726386, 45.6431664712318], [-121.369873999786, 45.643156999842], [-121.369907001195, 45.6431620002537], [-121.369937000434, 45.6431810001811], [-121.369968001294, 45.6432449999886], [-121.369966000746, 45.6432609909795], [-121.37011611462, 45.6433779847037], [-121.370219944596, 45.6434651197042], [-121.370257999028, 45.6434670000296], [-121.370329000071, 45.6434920000612], [-121.370372999554, 45.643552000217], [-121.370445999349, 45.6435740001115], [-121.370453999745, 45.6436100000343], [-121.37042899963, 45.643638000098], [-121.370428902612, 45.6436404801854], [-121.370498413351, 45.6436988127664], [-121.370486207042, 45.6437064841349], [-121.370491840378, 45.643747191043], [-121.370294983566, 45.6438797682329], [-121.370285764156, 45.6438859737629], [-121.370294322406, 45.643910218092], [-121.370294000809, 45.6439249999429], [-121.370276999294, 45.6439569997449], [-121.370305999607, 45.6440039992834], [-121.370330812871, 45.644013621256], [-121.37035500001, 45.6440230001813], [-121.370406999889, 45.6440260002564], [-121.370426001054, 45.6440959998694], [-121.370493999928, 45.6441899993018], [-121.370601000058, 45.6442350002771], [-121.370611823859, 45.6443019028533], [-121.370641648824, 45.6443168001569], [-121.370715000759, 45.644300999758], [-121.370716942018, 45.6443544029407], [-121.370717001307, 45.6443560012547], [-121.370724189626, 45.644358020971], [-121.370813000668, 45.6443829992522], [-121.370843000805, 45.6444059980012], [-121.370910999679, 45.6444140002398], [-121.370878999892, 45.6444329997426], [-121.370869732872, 45.6444468990873], [-121.370956723029, 45.6444481419392], [-121.371067534711, 45.6446731127603], [-121.370947630281, 45.6448524297271], [-121.371051363239, 45.6450480041346], [-121.371236000267, 45.6451840002832], [-121.37124299994, 45.6453019998326], [-121.37120799978, 45.6453359996885], [-121.371203687867, 45.6453351920674], [-121.371215331829, 45.6453571460449], [-121.371235163038, 45.6454465507316], [-121.371497796291, 45.6454434759995], [-121.371714257935, 45.6454935910971], [-121.371728972339, 45.6455643449975], [-121.371458846238, 45.6456516580913], [-121.371524999074, 45.6456419999757], [-121.371550999912, 45.6456620001045], [-121.371565000155, 45.6457399997224], [-121.371509999904, 45.645779999903], [-121.371469999721, 45.6457919998261], [-121.371369001235, 45.6457809996874], [-121.371347623128, 45.6457871880506], [-121.371698932676, 45.6460224539928], [-121.371745543561, 45.6460989521848], [-121.371808999655, 45.646112000174], [-121.371827999921, 45.6461400002431], [-121.371832999944, 45.6462379997467], [-121.371839845106, 45.6462537179593], [-121.371899194102, 45.6463511212931], [-121.371905999739, 45.6463599999401], [-121.371906654611, 45.6463633678973], [-121.371922959033, 45.6463901262878], [-121.37196335178, 45.6467316646933], [-121.372156256902, 45.6469348438073], [-121.372110503908, 45.6469850329296], [-121.372109672068, 45.6469859460296], [-121.372063453747, 45.6470118619862], [-121.372189393058, 45.6470946701321], [-121.372269804853, 45.6471475412562], [-121.372282175552, 45.6471766837488], [-121.372267999239, 45.647183999199], [-121.372267000312, 45.6472360011022], [-121.372318000366, 45.6473009991743], [-121.372341568566, 45.647316592119], [-121.372382999765, 45.6473440000216], [-121.372421000298, 45.6474050002031], [-121.372457468305, 45.647433652732], [-121.37256100004, 45.6475150001874], [-121.372580999233, 45.6475439999361], [-121.372576999035, 45.6476140001771], [-121.372678000216, 45.6476429998744], [-121.372735999942, 45.6476029997682], [-121.372792999844, 45.6475899998531], [-121.372852000293, 45.6476170000598], [-121.372879000057, 45.6475940001171], [-121.372890999753, 45.6475580002425], [-121.372896998702, 45.6474599999083], [-121.372930001009, 45.6474009999255], [-121.372935000134, 45.6473670000669], [-121.372966000096, 45.6473480003032], [-121.373039999716, 45.6473529997128], [-121.37305399996, 45.6473820001733], [-121.373033999868, 45.6474519999887], [-121.37299299986, 45.6475039997591], [-121.372988999662, 45.6475669998993], [-121.373029998772, 45.6476209996939], [-121.373055999609, 45.6476399999931], [-121.373084239947, 45.647649149097], [-121.373090879395, 45.6476475910679], [-121.373204068918, 45.6475772410813], [-121.373310447414, 45.6474468241237], [-121.373438647784, 45.6474486503086], [-121.373547325069, 45.647534153751], [-121.373575267166, 45.6477504409881], [-121.373487714664, 45.647821154987], [-121.373323939211, 45.6478667992387], [-121.373304067579, 45.6479624659126], [-121.373395511583, 45.648001356749], [-121.373464547112, 45.6480307167063], [-121.373491407638, 45.6480575320746], [-121.373527065365, 45.648083981946], [-121.373533627558, 45.6480814449091], [-121.373955508755, 45.6478616491593], [-121.374205694053, 45.647696951869], [-121.374338818988, 45.647515989893], [-121.374416793653, 45.647340239003], [-121.37443219437, 45.6470991382844], [-121.374421623894, 45.6469364282318], [-121.374407956027, 45.6467260139978], [-121.374399855918, 45.6463856781749], [-121.374394596282, 45.6462088241098], [-121.374391866302, 45.64611698525], [-121.374321335976, 45.6459138910901], [-121.374313558362, 45.6458995550187], [-121.374272100214, 45.645823145731], [-121.374224698811, 45.645735782036], [-121.374208563272, 45.6457060447001], [-121.374268000303, 45.6456719998522], [-121.374329000402, 45.6456129998703], [-121.374315999983, 45.6455700002063], [-121.374394172277, 45.6455670378943], [-121.374447841226, 45.6454502277242], [-121.374531165358, 45.6454894977378], [-121.374679363126, 45.6455593397761], [-121.37483350774, 45.6456925011194], [-121.37498100033, 45.6457099998822], [-121.375194999692, 45.6457219998202], [-121.375306001817, 45.6456910001844]]], [[[-121.360875340227, 45.6422692997401], [-121.360888531088, 45.6418170882142], [-121.360898123299, 45.6414882058967], [-121.360899815725, 45.6414792027511], [-121.361021685668, 45.6408309379188], [-121.36106108398, 45.6406153757569], [-121.361176911854, 45.6399704918817], [-121.36136351799, 45.6396030217745], [-121.361249902666, 45.6394780096879], [-121.360818083407, 45.6391330731133], [-121.360632445655, 45.6391003300497], [-121.360336889147, 45.639065894918], [-121.360230733433, 45.6388974082983], [-121.360346952973, 45.638720982814], [-121.36049445275, 45.6386413963014], [-121.360375405313, 45.6384787873007], [-121.360276929297, 45.6383566261118], [-121.36021621576, 45.6383072658738], [-121.359983825189, 45.6381147047557], [-121.359848870386, 45.6378456279654], [-121.359777034808, 45.6375885867367], [-121.359321394024, 45.6374647302535], [-121.35924004888, 45.6375029581972], [-121.359104394289, 45.6378015420167], [-121.358732777426, 45.6380299488121], [-121.358433049141, 45.637969986709], [-121.358074103913, 45.6377644731122], [-121.358033997729, 45.6375078868822], [-121.3583411982, 45.637311948863], [-121.358334436581, 45.6370001879617], [-121.358193474743, 45.6369295130642], [-121.357916853823, 45.6371681281848], [-121.357275825019, 45.6370355269473], [-121.356797387689, 45.6373576651156], [-121.35625432915, 45.6378845069824], [-121.35557480574, 45.6390674211536], [-121.355848587984, 45.6397294021534], [-121.356243195431, 45.6402697389807], [-121.357226282033, 45.6407362846905], [-121.357329073556, 45.6412312931718], [-121.357599282302, 45.642016599771], [-121.359117090179, 45.6422440529693], [-121.359701971582, 45.6422935818233], [-121.360575101699, 45.6425117558351], [-121.360875340227, 45.6422692997401]]]]}, "properties": {"OBJECTID": 13618, "poly_SourceOID": 4362, "poly_IncidentName": "Mosier Creek", "poly_FeatureCategory": "Wildfire Daily Fire Perimeter", "poly_MapMethod": "Mixed Methods", "poly_GISAcres": 985, "poly_DeleteThis": "No", "poly_FeatureAccess": "Public", "poly_FeatureStatus": "Approved", "poly_IsVisible": "Yes", "poly_CreateDate": 1620168679082, "poly_DateCurrent": 1620168679082, "poly_PolygonDateTime": 1597396584000, "poly_IRWINID": "{47839EA3-1520-4582-B4FC-D4385699CDF1}", "poly_FORID": null, "poly_Acres_AutoCalc": 997.066551882077, "poly_SourceGlobalID": "{E67F3AA5-602A-4CA6-A5F7-95D6C3B8B39D}", "poly_Source": "2020 NIFS", "attr_SourceOID": 12889188, "attr_ABCDMisc": null, "attr_ADSPermissionState": "DEFAULT", "attr_CalculatedAcres": 790.8727, "attr_ContainmentDateTime": null, "attr_ControlDateTime": null, "attr_CreatedBySystem": "firecode", "attr_IncidentSize": 985, "attr_DiscoveryAcres": null, "attr_DispatchCenterID": "OR954C", "attr_EstimatedCostToDate": 3255453, "attr_FinalAcres": null, "attr_FFReportApprovedByTitle": null, "attr_FFReportApprovedByUnit": null, "attr_FFReportApprovedDate": null, "attr_FireBehaviorGeneral": "Minimal", "attr_FireBehaviorGeneral1": "Creeping", "attr_FireBehaviorGeneral2": "Smoldering", "attr_FireBehaviorGeneral3": "Smoldering", "attr_FireCause": "Human", "attr_FireCauseGeneral": null, "attr_FireCauseSpecific": null, "attr_FireCode": "NE2U", "attr_FireDepartmentID": null, "attr_FireDiscoveryDateTime": 1597275180000, "attr_FireMgmtComplexity": "Type 1 Incident", "attr_FireOutDateTime": null, "attr_FireStrategyConfinePercent": 0, "attr_FireStrategyFullSuppPrcnt": 100, "attr_FireStrategyMonitorPercent": 0, "attr_FireStrategyPointZonePrcnt": 0, "attr_FSJobCode": null, "attr_FSOverrideCode": null, "attr_GACC": "NWCC", "attr_ICS209ReportDateTime": 1597626000000, "attr_ICS209RptForTimePeriodFrom": 1597539600000, "attr_ICS209RptForTimePeriodTo": 1597626000000, "attr_ICS209ReportStatus": "U", "attr_IncidentManagementOrg": "Type 1 Team", "attr_IncidentName": "MOSIER CREEK", "attr_IncidentShortDescription": "Two miles south of Mosier, OR", "attr_IncidentTypeCategory": "WF", "attr_IncidentTypeKind": "FI", "attr_InitialLatitude": null, "attr_InitialLongitude": null, "attr_InitialResponseAcres": null, "attr_InitialResponseDateTime": null, "attr_IrwinID": "{47839EA3-1520-4582-B4FC-D4385699CDF1}", "attr_IsFireCauseInvestigated": null, "attr_IsFireCodeRequested": 0, "attr_IsFSAssisted": 1, "attr_IsMultiJurisdictional": 1, "attr_IsQuarantined": 0, "attr_IsReimbursable": 1, "attr_IsTrespass": 0, "attr_IsUnifiedCommand": 0, "attr_IsValid": 1, "attr_LocalIncidentIdentifier": "000022", "attr_ModifiedBySystem": "ics209", "attr_PercentContained": 65, "attr_PercentPerimToBeContained": 100, "attr_POOCity": "Mosier", "attr_POOCounty": "Wasco", "attr_POODispatchCenterID": "ORCOC", "attr_POOFips": "41065", "attr_POOJurisdictionalAgency": null, "attr_POOJurisdictionalUnit": null, "attr_POOJurisdictUnitParentUnit": null, "attr_POOLandownerCategory": "Private", "attr_POOLandownerKind": "Private", "attr_POOLegalDescPrincipalMerid": "Willamette", "attr_POOLegalDescQtr": "SW", "attr_POOLegalDescQtrQtr": "NW", "attr_POOLegalDescRange": "12E", "attr_POOLegalDescSection": 18, "attr_POOLegalDescTownship": "2N", "attr_POOPredictiveServiceAreaID": "NW06", "attr_POOProtectingAgency": "DOF", "attr_POOProtectingUnit": "OR954S", "attr_POOState": "US-OR", "attr_PredominantFuelGroup": null, "attr_PredominantFuelModel": null, "attr_PrimaryFuelModel": "Short Grass (1 foot)", "attr_SecondaryFuelModel": "Timber (Grass and Understory)", "attr_TotalIncidentPersonnel": 693, "attr_UniqueFireIdentifier": "2020-OR954S-000022", "attr_FORID": null, "attr_WFDSSDecisionStatus": "No Decision", "attr_EstimatedFinalCost": null, "attr_OrganizationalAssessment": null, "attr_StratDecisionPublishDate": null, "attr_CreatedOnDateTime_dt": 1597277799547, "attr_ModifiedOnDateTime_dt": 1597635206523, "attr_Source": "IRWIN", "attr_IsCpxChild": 0, "attr_CpxName": null, "attr_CpxID": null, "attr_SourceGlobalID": "{47839EA3-1520-4582-B4FC-D4385699CDF1}", "GlobalID": "0f081f4c-d8b1-4f68-a3b5-7973f703d33e", "Shape__Area": 0.0004656702903957921, "Shape__Length": 0.18016626042617778, "attr_IncidentComplexityLevel": null}}]}