{"type": "FeatureCollection", "features": [{"type": "Feature", "id": 22963, "geometry": {"type": "MultiPolygon", "coordinates": [[[[-121.566769879719, 45.7281175377336], [-121.56670989166, 45.7281692492692], [-121.566520833106, 45.7283322213828], [-121.566479603171, 45.7283677625137], [-121.566371032161, 45.728461351554], [-121.566099808004, 45.7285487791763], [-121.566015362459, 45.7285759995936], [-121.565304368468, 45.7288051792241], [-121.565159282649, 45.7288741616705], [-121.565114895198, 45.7288952655476], [-121.564919068581, 45.7289883718893], [-121.564347516396, 45.7292601142536], [-121.563655232439, 45.729476483548], [-121.563655866134, 45.7294777669426], [-121.563619083261, 45.7294485503857], [-121.563581449859, 45.7294409499795], [-121.563538165973, 45.7294197335194], [-121.563494916395, 45.7294032333467], [-121.563460383361, 45.7293874336536], [-121.563420100106, 45.729367650051], [-121.563403066318, 45.7293510831508], [-121.563367082768, 45.7293388836346], [-121.563320233235, 45.7293289830551], [-121.563274316325, 45.7293258165749], [-121.563231483128, 45.7293390166871], [-121.563183582833, 45.729349749744], [-121.563140233766, 45.729362983484], [-121.563106366248, 45.7293770166826], [-121.563066684019, 45.7293847838301], [-121.563026833755, 45.7293937672477], [-121.562982133103, 45.729403799683], [-121.562934917131, 45.7294050335344], [-121.562889782849, 45.7293936670474], [-121.562849250631, 45.729392449776], [-121.562798600199, 45.7293917994596], [-121.562752883504, 45.7293844829087], [-121.562704333276, 45.7293964329926], [-121.562659083181, 45.7293922666161], [-121.562619333931, 45.7293761172858], [-121.562588865994, 45.729356100411], [-121.562542983515, 45.7293426335697], [-121.562501382565, 45.7293372827874], [-121.562451766442, 45.7293366999382], [-121.562395833878, 45.7293328168891], [-121.562345232664, 45.7293319166671], [-121.562290901032, 45.7293333163464], [-121.562244483724, 45.7293313166778], [-121.562195599669, 45.7293518328601], [-121.562209282655, 45.7293780330553], [-121.562196866003, 45.7294088667252], [-121.562178116592, 45.7294422336063], [-121.562128117153, 45.7294496496398], [-121.562073683229, 45.7294375166449], [-121.562033483486, 45.7294141002665], [-121.561986816741, 45.7294076831429], [-121.56193429975, 45.7294026330381], [-121.561886749635, 45.7293786668716], [-121.561864383116, 45.7293443164625], [-121.561812983359, 45.7293516672792], [-121.561773966632, 45.7293429329998], [-121.561771682881, 45.7293057334932], [-121.561763433125, 45.729278583147], [-121.561762371149, 45.7292750012531], [-121.561751916165, 45.7292397332222], [-121.561744016508, 45.7292002499425], [-121.56173266627, 45.729167732868], [-121.561689700273, 45.7291541833007], [-121.561639616674, 45.7291658333588], [-121.561597399805, 45.7291810335374], [-121.561550033251, 45.7291903338216], [-121.561519899835, 45.7292180502278], [-121.561510216847, 45.7292541001467], [-121.561497467568, 45.7292876334998], [-121.561468983084, 45.7293094336183], [-121.561470301123, 45.7293151095797], [-121.561476483705, 45.7293417332658], [-121.561454750523, 45.7293714831526], [-121.56144031594, 45.7293751499209], [-121.561440333602, 45.7293752667253], [-121.56139894913, 45.7293888663788], [-121.561351583375, 45.7294030334587], [-121.561305900726, 45.7294044330315], [-121.561261583553, 45.7294098327192], [-121.561219666355, 45.7294258001382], [-121.561184367032, 45.7294461167848], [-121.561144016995, 45.7294493663706], [-121.561104034097, 45.729441966333], [-121.561067115903, 45.7294211496396], [-121.561064725764, 45.7294197208201], [-121.561034383132, 45.7294015837809], [-121.560996067455, 45.7293860664149], [-121.560950583121, 45.7293807336509], [-121.56091223301, 45.7293967339338], [-121.560872632848, 45.7293872499272], [-121.560839600238, 45.7293714002125], [-121.560792967108, 45.7293742166799], [-121.560752117014, 45.729391633309], [-121.560708283208, 45.7294015999873], [-121.560676332628, 45.7294196165978], [-121.560639816916, 45.7294423001416], [-121.560623316755, 45.729467533192], [-121.560638883957, 45.7295004335535], [-121.560641066128, 45.7295327167577], [-121.560640760322, 45.7295386032726], [-121.560639416503, 45.7295644331995], [-121.560642782314, 45.729596132999], [-121.560616782587, 45.7296245831349], [-121.560594516939, 45.7296499838498], [-121.560566800036, 45.7296741168243], [-121.560529167242, 45.7296932999247], [-121.560513332492, 45.7297228168238], [-121.560498333572, 45.7297551160552], [-121.560474283818, 45.7297816834593], [-121.560452917038, 45.7298071998503], [-121.560438833342, 45.7298371168466], [-121.560405616801, 45.7298566668191], [-121.560354799682, 45.7298466835938], [-121.560308782605, 45.7298439334414], [-121.560264982559, 45.7298435665992], [-121.560221167149, 45.7298509001667], [-121.560173299518, 45.729862316356], [-121.560132467353, 45.7298817669803], [-121.560086183224, 45.7298965666797], [-121.559988165589, 45.7299407999781], [-121.55995223425, 45.7299583499712], [-121.559917183652, 45.7299752663195], [-121.559883200461, 45.7299913673118], [-121.559842116903, 45.7300107833043], [-121.559798699377, 45.73003176616], [-121.559751700054, 45.7300429832445], [-121.559691033765, 45.730047467217], [-121.559644766738, 45.7300511165499], [-121.559604133532, 45.7300543664439], [-121.559550766004, 45.7300669507339], [-121.55950180058, 45.7300811662681], [-121.55945611634, 45.7301041498214], [-121.559422533558, 45.7301329661368], [-121.559384684028, 45.7301579004549], [-121.559345167151, 45.7301789670114], [-121.559302283282, 45.7301984501257], [-121.559255134005, 45.7302133835855], [-121.559207500154, 45.7302334665006], [-121.559163933753, 45.7302552162175], [-121.559113715859, 45.7302748834039], [-121.559078516881, 45.7302904503193], [-121.559028733263, 45.730309116432], [-121.558991666996, 45.7303225828066], [-121.558955783924, 45.7303370502913], [-121.558944385858, 45.7303414376975], [-121.558919800333, 45.7303508996639], [-121.558872916467, 45.7303658169694], [-121.558834116706, 45.7303878501587], [-121.558799665741, 45.7304025002798], [-121.558756882618, 45.7304227002573], [-121.558709033925, 45.7304389663302], [-121.558662966797, 45.7304531326547], [-121.558624283974, 45.7304767833677], [-121.55859951618, 45.7305053663102], [-121.558574700296, 45.7305389497527], [-121.558545666945, 45.7305704835507], [-121.558520183339, 45.730594100143], [-121.558488350297, 45.7306113502073], [-121.558464166378, 45.7306394336547], [-121.558439567289, 45.7306688499672], [-121.558412516171, 45.7307009166632], [-121.55839116667, 45.7307298165466], [-121.558359666465, 45.7307568665017], [-121.558326916691, 45.7307875002995], [-121.558312804961, 45.7308110648664], [-121.558307533748, 45.7308198665178], [-121.558280116663, 45.7308516162997], [-121.558250516896, 45.7308843169522], [-121.558229233554, 45.7309174829185], [-121.558192699504, 45.7309427328851], [-121.558147584062, 45.7309526170177], [-121.558126013741, 45.7309543079085], [-121.558104216341, 45.7309560162249], [-121.558054699994, 45.730969366213], [-121.558008216795, 45.7309850504959], [-121.557962699194, 45.7310023830754], [-121.557910066178, 45.7310101161847], [-121.557864167063, 45.7310265831244], [-121.557835566529, 45.7310592832771], [-121.557815166107, 45.7310957664403], [-121.557795666917, 45.7311299332106], [-121.557769400193, 45.7311622668119], [-121.557739017052, 45.731188032915], [-121.557709682345, 45.731216016108], [-121.557683083515, 45.7312396663739], [-121.557658615861, 45.7312684001464], [-121.557622866463, 45.7312798336993], [-121.557598284149, 45.7313027829781], [-121.557572099765, 45.7313250670648], [-121.557553633064, 45.7313536499864], [-121.557544799503, 45.7313828838643], [-121.557488683544, 45.7314060167454], [-121.557451565927, 45.7314230327008], [-121.557428983542, 45.7314467666633], [-121.557427063368, 45.7314700204966], [-121.557425367591, 45.7314905665978], [-121.557427817268, 45.7315217496148], [-121.557453333833, 45.7315463834331], [-121.557429216017, 45.7315726664798], [-121.557387316604, 45.731593866277], [-121.557342566528, 45.7316072332814], [-121.557292715908, 45.7316114830368], [-121.557245299245, 45.7316142828775], [-121.55719683254, 45.7316149168977], [-121.557149983352, 45.7316038665249], [-121.557112817078, 45.7315939831336], [-121.557068466532, 45.7315833834562], [-121.557026666247, 45.7315713003903], [-121.556982282645, 45.731562999916], [-121.556943433743, 45.7315499830467], [-121.556910815969, 45.7315249334763], [-121.556884482853, 45.7315025332448], [-121.556855632821, 45.7314822827955], [-121.556822400491, 45.7314677501446], [-121.556790066169, 45.7314515336758], [-121.556748466709, 45.7314377165561], [-121.556709366552, 45.7314217668974], [-121.556668882736, 45.731407566774], [-121.556650819303, 45.7313957350438], [-121.556666099805, 45.731373716338], [-121.556688883121, 45.7313486498782], [-121.556712832646, 45.7313148329524], [-121.556726416772, 45.7312821165282], [-121.556748566168, 45.7312578999933], [-121.556776233067, 45.7312366666245], [-121.556816856471, 45.7312110269394], [-121.5568173998, 45.7312106835254], [-121.556845566741, 45.7311779832071], [-121.556873466277, 45.7311439330284], [-121.556899566634, 45.7311153001792], [-121.556927049827, 45.7310811828116], [-121.556949066174, 45.7310492834021], [-121.556971566878, 45.7310173173579], [-121.556988883333, 45.7309830668466], [-121.557012399609, 45.730951133552], [-121.557031966907, 45.7309152000233], [-121.5570648334, 45.7308800837319], [-121.557092416147, 45.7308588330775], [-121.557125351025, 45.7308305832126], [-121.557152233563, 45.7307969833985], [-121.557155487057, 45.7307914984199], [-121.557166413694, 45.7307730737257], [-121.557169322379, 45.7307681678396], [-121.557170356438, 45.730767284451], [-121.557169730649, 45.7307674810777], [-121.557175016586, 45.730758566871], [-121.557191767012, 45.7307306668574], [-121.557223083271, 45.7306996833429], [-121.557245092625, 45.7306845521554], [-121.55725161706, 45.7306800667107], [-121.55726241201, 45.7306741636192], [-121.557281311465, 45.7306638304293], [-121.557290566641, 45.7306587695836], [-121.557294200567, 45.7306567829556], [-121.557337183655, 45.730630816801], [-121.557363349608, 45.7306102668084], [-121.557391683133, 45.7305909993335], [-121.557421865766, 45.730564566673], [-121.557450250511, 45.7305363666305], [-121.5574646669, 45.7304984334985], [-121.557464539452, 45.7304980846825], [-121.557451716211, 45.7304628664023], [-121.557401417124, 45.730438467075], [-121.557360566791, 45.7304409326903], [-121.557327015435, 45.7304295083146], [-121.557311082954, 45.7304240837833], [-121.557312351137, 45.7303958981072], [-121.55731261724, 45.7303899993802], [-121.557321532895, 45.7303543169606], [-121.557327383997, 45.7303315049071], [-121.557329283783, 45.7303240999145], [-121.557344516425, 45.7302931000036], [-121.557373617402, 45.730266816076], [-121.557398366611, 45.7302444834236], [-121.557422233166, 45.7302118161338], [-121.557426532828, 45.7301758162358], [-121.557430434136, 45.7301378666654], [-121.557451650382, 45.730110716483], [-121.557480216064, 45.7300847326793], [-121.557509083817, 45.7300626501577], [-121.557559532623, 45.7300436167637], [-121.557595333333, 45.7300316833673], [-121.557644416414, 45.7300198996545], [-121.557677499741, 45.7300030663799], [-121.557723383259, 45.7299815996041], [-121.557736849697, 45.7299502329218], [-121.557691182521, 45.729931533492], [-121.55763606703, 45.7299365166882], [-121.557581782885, 45.7299150665438], [-121.557612583506, 45.729882283709], [-121.557652132743, 45.7298628172622], [-121.55768328365, 45.729840816727], [-121.557714382616, 45.7298231499896], [-121.557752483438, 45.7297964170264], [-121.557779383721, 45.7297627835988], [-121.557745433068, 45.7297371997356], [-121.557734733454, 45.7297379381681], [-121.557687983145, 45.7297411665433], [-121.557642197766, 45.7297507058602], [-121.557633266939, 45.7297525667878], [-121.557589965753, 45.7297706666119], [-121.557544133013, 45.7297826330278], [-121.557493417212, 45.7297864330256], [-121.557439532865, 45.7297849837687], [-121.557382449943, 45.7297917497745], [-121.557331200809, 45.7297991673049], [-121.55729188329, 45.7298169830744], [-121.557240799524, 45.7298244502981], [-121.557187183804, 45.7298291168713], [-121.557132666897, 45.7298354330684], [-121.557084399953, 45.7298550171491], [-121.557069109468, 45.7298646676954], [-121.557055116362, 45.7298734998635], [-121.557022666497, 45.7299032999704], [-121.556994349784, 45.7299304168364], [-121.556966083664, 45.7299631334223], [-121.556943749222, 45.7299967831857], [-121.556910999438, 45.7300250834492], [-121.556885767146, 45.7300537999342], [-121.556854533814, 45.7300763498816], [-121.556814032396, 45.7300938832645], [-121.556770066301, 45.7301062673366], [-121.556731950445, 45.73011398335], [-121.55668328364, 45.730130617045], [-121.556633182884, 45.7301387828898], [-121.556580550652, 45.7301546502449], [-121.556528232839, 45.7301727172757], [-121.556488311572, 45.7301855275752], [-121.55647951594, 45.7301883499017], [-121.556435299202, 45.7302069833332], [-121.556429094641, 45.7302118031455], [-121.556401716498, 45.7302330670141], [-121.556361766308, 45.7302549832658], [-121.556320282885, 45.7302734497488], [-121.556270067584, 45.7302840333013], [-121.556219716788, 45.7302855834581], [-121.556171416296, 45.7302885333101], [-121.556116149658, 45.7302979332726], [-121.556064316491, 45.7303143498515], [-121.556027350372, 45.7303404165574], [-121.555993733127, 45.730367866297], [-121.555951383109, 45.7303892668373], [-121.555911349493, 45.7304087831086], [-121.555867733198, 45.7304304834172], [-121.555821516943, 45.7304489832885], [-121.555768382827, 45.7304605333441], [-121.555722483371, 45.7304679161806], [-121.555674516625, 45.7304656835829], [-121.55563461633, 45.730468183755], [-121.55559476638, 45.7304651165317], [-121.555609083112, 45.7304973337599], [-121.555568899851, 45.7305054664544], [-121.555529932939, 45.7305157327985], [-121.555493716886, 45.7305311830466], [-121.555450567042, 45.7305469834926], [-121.555410283528, 45.7305608999247], [-121.555366916724, 45.730577316918], [-121.555325583196, 45.7305930337117], [-121.555278149639, 45.730605533366], [-121.555252363732, 45.7306141392892], [-121.555238949903, 45.7306186162867], [-121.555220266424, 45.7306184836212], [-121.55522011704, 45.7306185327089], [-121.555165216956, 45.7306266330897], [-121.555156167189, 45.7306206650897], [-121.55513228392, 45.7306049169403], [-121.555087050135, 45.7305971167717], [-121.555050217324, 45.7305762505299], [-121.555002433846, 45.7305518661637], [-121.554957366467, 45.7305443667093], [-121.554902566513, 45.7305421006149], [-121.554859767049, 45.7305387170446], [-121.554820049733, 45.7305339837209], [-121.554766433329, 45.7305338830312], [-121.554717266883, 45.7305334833061], [-121.554668782988, 45.7305312164328], [-121.554618700695, 45.7305171000721], [-121.554587182522, 45.730500566718], [-121.554551316285, 45.7304894664211], [-121.554512082942, 45.7304855166605], [-121.554467833157, 45.7304902166042], [-121.554416883667, 45.7304991830054], [-121.554364700379, 45.7305119660829], [-121.554314467156, 45.730520833055], [-121.554263199765, 45.7305169832673], [-121.554204649813, 45.7305184329175], [-121.554146233426, 45.7305253330238], [-121.554099266369, 45.7305412829492], [-121.554065317031, 45.7305647168167], [-121.554021333409, 45.7305864000455], [-121.553986617296, 45.7306014335673], [-121.554012283307, 45.7306236337548], [-121.554053815839, 45.7306429672195], [-121.554083317003, 45.730661733047], [-121.55409393299, 45.7306940336853], [-121.554090110063, 45.7307025498457], [-121.554081483199, 45.7307217670037], [-121.554094450322, 45.7307525835024], [-121.554094386483, 45.7307693685033], [-121.554094283638, 45.7307967667156], [-121.554069467476, 45.7308234829587], [-121.554058516393, 45.7308561663064], [-121.554040367052, 45.7308828165474], [-121.554011533507, 45.730901399519], [-121.55397478284, 45.7309104136865], [-121.553991944829, 45.7309313995881], [-121.553943499058, 45.7309326285684], [-121.553895021096, 45.7309299483067], [-121.553854897822, 45.7309552610269], [-121.553808763116, 45.7309630078882], [-121.553761704604, 45.7309762088124], [-121.553714803135, 45.7309945450628], [-121.55368230684, 45.7310104547949], [-121.553643242845, 45.731015600769], [-121.553603992777, 45.731034432248], [-121.553563530178, 45.7310518003248], [-121.553519291476, 45.7310591298296], [-121.553475334326, 45.731051649087], [-121.553452785587, 45.7310252212684], [-121.553437966855, 45.7309931659313], [-121.553420949116, 45.7309911188602], [-121.553393244245, 45.7309877851936], [-121.553357103915, 45.7310180326368], [-121.553354017267, 45.7310208337125], [-121.553325589533, 45.7310466316047], [-121.553319198449, 45.7310901990951], [-121.553291450509, 45.7311175562289], [-121.553260832372, 45.7311435032573], [-121.553216395683, 45.7311545379674], [-121.553172410721, 45.7311668263208], [-121.553126354256, 45.7311745802665], [-121.553079780687, 45.7311841223822], [-121.553042075244, 45.7311974586908], [-121.5529878586, 45.7312109250677], [-121.552935532076, 45.7312155721494], [-121.552914696026, 45.7312169726456], [-121.552889412538, 45.7312186729515], [-121.552841425591, 45.7312156097385], [-121.552785931272, 45.7312063326556], [-121.552743996816, 45.7311951661368], [-121.552689178422, 45.731211376009], [-121.552624626992, 45.7312303878451], [-121.552587493288, 45.7312536422732], [-121.552544766685, 45.731274937062], [-121.552509938677, 45.7312972224528], [-121.552455444055, 45.7313183635491], [-121.552435957938, 45.7313424022725], [-121.552409173128, 45.7313733375861], [-121.552397528624, 45.7314042771812], [-121.552364208199, 45.7314352951494], [-121.552330037922, 45.7314690491655], [-121.552317353892, 45.7314802268134], [-121.55229874737, 45.731496624504], [-121.552257883216, 45.7315186485929], [-121.552226772702, 45.7315354447262], [-121.55220646998, 45.7315485947653], [-121.55219115884, 45.7315585111646], [-121.552152552344, 45.731588106422], [-121.552127988052, 45.7316146228232], [-121.552103178028, 45.7316380876788], [-121.552073730209, 45.7316675784552], [-121.552038884976, 45.7316965374874], [-121.552005406346, 45.7317209551769], [-121.551955754829, 45.7317524143935], [-121.551913630132, 45.7317819371547], [-121.551881365223, 45.7318001305256], [-121.551839715648, 45.7318075134622], [-121.551792052349, 45.7318064910633], [-121.551748691058, 45.7318135876273], [-121.55170788052, 45.7318214467583], [-121.551665701256, 45.7318259795913], [-121.551626554881, 45.7318348686913], [-121.551594928669, 45.7318513212496], [-121.551555840126, 45.7318583904402], [-121.551516623959, 45.7318622657088], [-121.551480042815, 45.7318739623981], [-121.551448681434, 45.7318917765008], [-121.551424236412, 45.7319132438951], [-121.551412768017, 45.7319403756925], [-121.551411299483, 45.7319749353521], [-121.551447839817, 45.7320019923635], [-121.551481537882, 45.732021476402], [-121.551507312625, 45.7320323992678], [-121.551473501763, 45.7320409397736], [-121.551445073363, 45.7320664384611], [-121.551434492041, 45.7320983919699], [-121.551411267871, 45.7321257504856], [-121.551365585743, 45.7321467448913], [-121.55131717228, 45.7321513492844], [-121.551266117764, 45.7321303311308], [-121.551226124885, 45.7321129167792], [-121.551181770076, 45.7320969899633], [-121.551131350074, 45.7320808174125], [-121.551112285617, 45.7320764208852], [-121.551093601866, 45.7320721125786], [-121.551049197065, 45.7320674639533], [-121.551034298906, 45.7320551456059], [-121.55102108598, 45.7320442205772], [-121.550995456064, 45.7320224701609], [-121.550962080183, 45.7320080253092], [-121.5509158798, 45.7319977329052], [-121.550877570739, 45.7319867595027], [-121.550833140259, 45.7319752862422], [-121.55078163644, 45.7319613613889], [-121.550739321661, 45.7319522959443], [-121.550693009828, 45.7319430968159], [-121.550636926003, 45.73193202642], [-121.550600461532, 45.7319148110762], [-121.550551805415, 45.7318880053751], [-121.550516783879, 45.7318732230323], [-121.550479004431, 45.7318627952179], [-121.550424369743, 45.7318530617626], [-121.550389180217, 45.7318407256349], [-121.550353580492, 45.7318262086694], [-121.550314378915, 45.7318168000113], [-121.550278178757, 45.7318049618519], [-121.550241924546, 45.7317908882454], [-121.550204204668, 45.7317813577595], [-121.550148115191, 45.7317717331131], [-121.550090662373, 45.7317693310436], [-121.550056563597, 45.7317858431103], [-121.550017765911, 45.7318027453886], [-121.550006668289, 45.7318075798672], [-121.549973499235, 45.7318224465508], [-121.549971057198, 45.7318231441482], [-121.54993609676, 45.7318331273494], [-121.549902013962, 45.7318469695888], [-121.549850982155, 45.7318669173214], [-121.549798856494, 45.7318825158194], [-121.549761751282, 45.731892278718], [-121.549714882162, 45.7319083698452], [-121.549668135579, 45.7319216480155], [-121.549613529926, 45.7319268249588], [-121.549562390428, 45.7319289436328], [-121.549509773146, 45.7319305091966], [-121.549450376, 45.7319318805759], [-121.549395199397, 45.731933043441], [-121.549339064798, 45.7319447821553], [-121.549298037451, 45.7319459175154], [-121.549256713454, 45.7319361035705], [-121.549198893388, 45.7319316223884], [-121.549157485361, 45.7319277998879], [-121.549116639992, 45.7319289100927], [-121.549075823913, 45.7319306831434], [-121.549036780697, 45.7319357607333], [-121.548984937934, 45.7319395475785], [-121.548942229399, 45.7319594578625], [-121.548904949957, 45.7319801507587], [-121.548870883486, 45.7319999454379], [-121.54884512211, 45.7320229874301], [-121.548815535736, 45.7320477188215], [-121.548777120781, 45.7320565902167], [-121.548508998849, 45.7319893793646], [-121.548404949973, 45.731992643308], [-121.548372850642, 45.7319719710717], [-121.548318168845, 45.7319610268392], [-121.548272905652, 45.7319598060539], [-121.54824931951, 45.731933778269], [-121.548210755519, 45.7319256568223], [-121.548163916378, 45.7319184365703], [-121.548158276031, 45.731920401983], [-121.548127084946, 45.7319312682086], [-121.548119832845, 45.7319115361676], [-121.548116978397, 45.7319037724869], [-121.548095836789, 45.7318769013272], [-121.548056495224, 45.7318676119595], [-121.548035383972, 45.7318434218335], [-121.547997662399, 45.7318219326287], [-121.547958389267, 45.7318128612355], [-121.547922971009, 45.7317933813644], [-121.547893783106, 45.7317655835867], [-121.54786070481, 45.7317434077961], [-121.547807774202, 45.7317270942695], [-121.547766211004, 45.7317362780389], [-121.547725454677, 45.7317417373198], [-121.547681641258, 45.7317338939708], [-121.547627945359, 45.7317337915114], [-121.547589731644, 45.731742974651], [-121.547550440555, 45.7317481925963], [-121.5475074743, 45.7317332591782], [-121.54746353009, 45.7317429751528], [-121.547458463463, 45.7317438932561], [-121.547421744865, 45.731750549364], [-121.547421362017, 45.731750618608], [-121.547365920439, 45.7317592105796], [-121.547321738515, 45.7317487350797], [-121.547319941255, 45.7317464420727], [-121.547313180136, 45.7317378158275], [-121.547301407789, 45.7317227973984], [-121.547295216806, 45.7317148991663], [-121.547280796956, 45.7316855413612], [-121.547261413474, 45.7316564339588], [-121.547225354151, 45.7316342281188], [-121.547183080569, 45.7316388789181], [-121.547143720463, 45.7316507556914], [-121.547142707982, 45.7316861982067], [-121.547142630153, 45.7316889378425], [-121.547115454892, 45.7317230939909], [-121.547109004928, 45.7317520250081], [-121.547077413044, 45.7317765910286], [-121.547070126113, 45.7317768927166], [-121.547028846297, 45.731778599155], [-121.5469840317, 45.7317943920089], [-121.546939621259, 45.7317829746208], [-121.546909513508, 45.7317549512022], [-121.546878076642, 45.7317231655785], [-121.546837731793, 45.7317026820279], [-121.546812810464, 45.7316736836097], [-121.546814217098, 45.7316683150806], [-121.546834683879, 45.7316425334736], [-121.546849152688, 45.7316295421157], [-121.546861347536, 45.7316185936848], [-121.546904980782, 45.731624873419], [-121.546920163066, 45.7315982114516], [-121.546896305832, 45.7315683456761], [-121.546907519605, 45.7315398013817], [-121.546861324515, 45.7315314885788], [-121.546821982298, 45.7315293942828], [-121.546782465349, 45.7315409268744], [-121.546737756002, 45.7315509448034], [-121.546702399914, 45.7315274590827], [-121.546662699608, 45.7315351477023], [-121.546611550816, 45.73151316468], [-121.546585950583, 45.7314701594436], [-121.546593665403, 45.7314352125137], [-121.54659328767, 45.7313985286415], [-121.546602777413, 45.731361308584], [-121.546638128263, 45.7313340111419], [-121.546679791141, 45.7313172795578], [-121.546706270081, 45.7312909193308], [-121.546727361079, 45.7312641826804], [-121.546710451283, 45.7312343287793], [-121.546666786253, 45.7312198451298], [-121.546671670972, 45.7312100749769], [-121.546707972823, 45.7311766951998], [-121.546739806781, 45.7311453868261], [-121.546745184018, 45.7311073690883], [-121.546789486918, 45.7310907703855], [-121.546809797152, 45.7311241260803], [-121.546842666139, 45.7311437739523], [-121.546893377652, 45.731172525432], [-121.546894296157, 45.7312029553474], [-121.546893368943, 45.7312339566806], [-121.546928860348, 45.7312482507905], [-121.546966734373, 45.7312618290145], [-121.546932156617, 45.7312924179464], [-121.546930908846, 45.731314911298], [-121.546974442782, 45.7313229455856], [-121.547014497774, 45.7313081543403], [-121.547023054494, 45.7312680222524], [-121.547069531589, 45.7312507589887], [-121.547109565666, 45.7312289721605], [-121.547092371776, 45.7312025095053], [-121.547114325442, 45.7311785927498], [-121.547151359021, 45.7311915515831], [-121.547199197928, 45.731186419853], [-121.54723825193, 45.731178813532], [-121.547279397739, 45.7311872073224], [-121.547314567848, 45.7311628689022], [-121.54734803596, 45.7311411943336], [-121.547396968917, 45.7311310199085], [-121.547428764894, 45.731111687682], [-121.547465476619, 45.7310933093759], [-121.547517829157, 45.7310650194347], [-121.547547375478, 45.7310374283774], [-121.547583454741, 45.7310167335981], [-121.547612664391, 45.7309943589458], [-121.547613332435, 45.7309939496329], [-121.547650785825, 45.730970989915], [-121.547657327772, 45.7309669790516], [-121.547707090276, 45.730959095696], [-121.547726682453, 45.7309304553781], [-121.547747090869, 45.7309273043611], [-121.547723872121, 45.7308995436909], [-121.547685430937, 45.730894196733], [-121.547637463498, 45.7309037810502], [-121.54760105096, 45.7308929436668], [-121.547549366318, 45.7308857133545], [-121.547515265911, 45.7308713246239], [-121.547511923722, 45.7308690666848], [-121.547456391051, 45.7308976048467], [-121.547320385504, 45.7309037545668], [-121.547167818048, 45.7308965120189], [-121.547118620895, 45.7308556689185], [-121.547155206152, 45.7308053445143], [-121.547156401146, 45.7307981676035], [-121.547131232592, 45.7307742786758], [-121.547088452759, 45.7307559170345], [-121.547037626826, 45.7307529029443], [-121.547000624308, 45.7307843359355], [-121.546972836788, 45.7308161997195], [-121.546928041083, 45.7308367449873], [-121.546907128981, 45.7308719576839], [-121.54685969202, 45.730891505333], [-121.546807808857, 45.7308822007482], [-121.546749364328, 45.730884969105], [-121.546708244457, 45.7308558926797], [-121.546675920647, 45.7308376793426], [-121.546631996166, 45.7308195891011], [-121.546603364523, 45.730797761231], [-121.546587488745, 45.7307887004777], [-121.546552240054, 45.7308024535599], [-121.546490838479, 45.7307783253279], [-121.546405977949, 45.7307502697708], [-121.54635519812, 45.7307296112792], [-121.546316162354, 45.7307174149034], [-121.54627593135, 45.7307218835321], [-121.546228637456, 45.7307103253037], [-121.546196937842, 45.7307019234651], [-121.546200640818, 45.7307612876356], [-121.546105614525, 45.7307577569461], [-121.546084906113, 45.7307795996538], [-121.546046130371, 45.7307731269299], [-121.545999885374, 45.7307503323855], [-121.545965581615, 45.730723957393], [-121.545936627259, 45.7307493245887], [-121.545905412718, 45.7307678960807], [-121.545879759409, 45.7307894193639], [-121.545827511712, 45.7307836475278], [-121.545776805111, 45.7307824547024], [-121.545767960883, 45.730777178674], [-121.545636633672, 45.7307954217681], [-121.545602443269, 45.7307519508125], [-121.545661780235, 45.7307160414959], [-121.545659446957, 45.7307149510393], [-121.545609814058, 45.7307031461366], [-121.545552384799, 45.730695129657], [-121.545503697856, 45.7306948123347], [-121.545492738467, 45.7306947404167], [-121.545504454043, 45.7307261426338], [-121.545517137639, 45.7307602891711], [-121.545468717813, 45.7307745627833], [-121.54543060954, 45.7307658126233], [-121.545385798317, 45.7307677114062], [-121.545344707496, 45.730781674896], [-121.545302865865, 45.7308077661908], [-121.545287318027, 45.7307822129598], [-121.545247764937, 45.7307699616318], [-121.545201411269, 45.730750572515], [-121.545162453307, 45.7307381293812], [-121.545110466638, 45.7307513751066], [-121.545059205017, 45.7307367345932], [-121.545025654645, 45.7307183747096], [-121.54498124334, 45.7307130237438], [-121.544931771737, 45.7307169360924], [-121.544913715007, 45.7307143449186], [-121.54487874406, 45.730732068297], [-121.544889883426, 45.7307639312063], [-121.544900585639, 45.7307912939038], [-121.544873970765, 45.7307935887153], [-121.544853823295, 45.7307953259448], [-121.544814328745, 45.7307925494383], [-121.544808558876, 45.7307825731894], [-121.544703143106, 45.7307947667681], [-121.544603266267, 45.7307693343279], [-121.544382811704, 45.7306926882889], [-121.544301879717, 45.7306593157557], [-121.5441307173, 45.7306234595711], [-121.544060763135, 45.7306473348532], [-121.543942331661, 45.7306293692043], [-121.54387730987, 45.7306464530497], [-121.543753428758, 45.7306179014924], [-121.543608402445, 45.730600355621], [-121.543578874566, 45.7305765827911], [-121.543546760877, 45.7305747316992], [-121.543534973075, 45.730576033123], [-121.543490318176, 45.7305809646398], [-121.543474823411, 45.7305796640677], [-121.543431019891, 45.7306089895271], [-121.543249997882, 45.7305503007321], [-121.543229109279, 45.7305066041823], [-121.543245536352, 45.7304840053695], [-121.543303672123, 45.7304736799936], [-121.543314649101, 45.73045319124], [-121.543359474781, 45.730443430026], [-121.543381528336, 45.7304200394537], [-121.54342668469, 45.7303980634248], [-121.543419283295, 45.7303728447665], [-121.543417267977, 45.7303276426277], [-121.543423165407, 45.7302793664347], [-121.543441413809, 45.7302554568439], [-121.543357447329, 45.7302392371454], [-121.543250850809, 45.7302592125519], [-121.543173493984, 45.7302569742515], [-121.543122188356, 45.7301860686484], [-121.543101104701, 45.7301569313174], [-121.543135657009, 45.7301460794413], [-121.543254421892, 45.7301087769594], [-121.543305058987, 45.730075172824], [-121.54326956582, 45.7300514434822], [-121.543190618411, 45.7300424536353], [-121.543186829145, 45.7300420217523], [-121.543172264387, 45.7300403634135], [-121.543155625678, 45.7300233813484], [-121.543119255335, 45.7299862615607], [-121.543126140321, 45.7299714226129], [-121.54314269411, 45.7299357426368], [-121.543185203707, 45.7299031639956], [-121.543129435177, 45.7297746395679], [-121.54311819367, 45.7297487330438], [-121.54309305869, 45.729504436264], [-121.543572264593, 45.7293061469473], [-121.543581324611, 45.729007468721], [-121.544133438378, 45.7291550841531], [-121.544531832998, 45.7290835117817], [-121.544458582125, 45.7285774288644], [-121.544503943382, 45.7285597325102], [-121.544542767765, 45.7285474684152], [-121.544862631753, 45.7284227366514], [-121.545757295599, 45.7283471014926], [-121.545920977681, 45.7286206539283], [-121.545957930793, 45.7286082321658], [-121.546002231247, 45.7285987896821], [-121.546039251087, 45.7285699473037], [-121.546080488818, 45.7285689254253], [-121.546105678644, 45.728540693184], [-121.546117733803, 45.7285817557455], [-121.546145406327, 45.728605720597], [-121.546184530209, 45.7286138996074], [-121.546237945426, 45.7286485890352], [-121.54627704976, 45.7286716054636], [-121.546324581811, 45.7286885708803], [-121.546366342503, 45.7286847673376], [-121.546412433646, 45.7286861629247], [-121.546447752457, 45.7287018156293], [-121.546486821363, 45.728712105016], [-121.546531133327, 45.7287222574894], [-121.54674774281, 45.7289636439918], [-121.546970138288, 45.729010700746], [-121.547276473169, 45.7290065594911], [-121.547665464562, 45.7289809653974], [-121.54782593464, 45.7288773454291], [-121.547948605018, 45.7288244940047], [-121.548213945059, 45.7288000485465], [-121.548648729895, 45.7287559258458], [-121.548932744942, 45.728742938873], [-121.549192669311, 45.7287250046207], [-121.549455892331, 45.7286863550193], [-121.54954330068, 45.7286666289997], [-121.549575032447, 45.7286497783265], [-121.549613809507, 45.728640351702], [-121.549705574072, 45.7286062803446], [-121.549740662894, 45.7286209381183], [-121.549778194004, 45.7286320109093], [-121.549836255306, 45.7286321939901], [-121.549889772235, 45.7286235107417], [-121.549927277935, 45.7286087089125], [-121.549969648845, 45.7286105282294], [-121.550010827381, 45.7285959170727], [-121.550058559418, 45.7285950941211], [-121.550067223243, 45.7286299398759], [-121.550103868121, 45.728649739635], [-121.550139910267, 45.7286622298379], [-121.550165484722, 45.728692110403], [-121.550217404057, 45.7286993400083], [-121.550261903148, 45.7287126753758], [-121.550291858228, 45.7287325986475], [-121.550336757925, 45.7287255818539], [-121.550385419273, 45.7287226140332], [-121.550420830571, 45.728706923701], [-121.550424751179, 45.7286721738394], [-121.550473877876, 45.7286638182898], [-121.550510647023, 45.7286515020138], [-121.550563341067, 45.7286597445771], [-121.55060451917, 45.7286638953008], [-121.550644425549, 45.7286796730608], [-121.550666566234, 45.7287157723977], [-121.550679517793, 45.7287525828045], [-121.550695098154, 45.7287815676406], [-121.550680627247, 45.7288084115508], [-121.550722424327, 45.7288214570259], [-121.550761029195, 45.7288125048933], [-121.550770801857, 45.7287843848398], [-121.55079057412, 45.7288138263269], [-121.550827505854, 45.7287975611203], [-121.55087784197, 45.728804556858], [-121.550912738036, 45.7287875179173], [-121.550954435529, 45.7287920856617], [-121.550986171876, 45.7288115521391], [-121.551013831749, 45.728790371552], [-121.551052100216, 45.7287773149883], [-121.55108911686, 45.7287951575513], [-121.551137401372, 45.7287915594819], [-121.551157728176, 45.7287573681815], [-121.55120205012, 45.7287465278945], [-121.551231595289, 45.7287247753942], [-121.551268439517, 45.7287142505193], [-121.551302975952, 45.728733813139], [-121.551346966039, 45.7287413150954], [-121.55139479993, 45.7287330800851], [-121.55144151961, 45.7287299580779], [-121.55147480139, 45.7287073626291], [-121.551511867322, 45.7286800737053], [-121.551539321071, 45.7286530733706], [-121.551571779516, 45.7286373760531], [-121.551572434208, 45.7286067767077], [-121.551604636367, 45.7285822756806], [-121.55161156441, 45.7285518085076], [-121.551637066641, 45.7285302808042], [-121.551668824912, 45.72849805664], [-121.551687012257, 45.7284710897142], [-121.551657043213, 45.7284422195836], [-121.551610875498, 45.728440107039], [-121.551581255435, 45.7284125589979], [-121.551540829401, 45.7283871021492], [-121.551511615882, 45.7283636298718], [-121.551496071046, 45.7283322082259], [-121.551481511025, 45.728306019469], [-121.551455229795, 45.7282760909113], [-121.551432481582, 45.7282518969166], [-121.551432476097, 45.7282241380267], [-121.551412137672, 45.7281964798925], [-121.551417182541, 45.7281668329134], [-121.551407305468, 45.7281390915053], [-121.551395762274, 45.7281118317346], [-121.551436428651, 45.7280937058141], [-121.551477673061, 45.7280894121127], [-121.551489794467, 45.7280577537457], [-121.55145807287, 45.728031219548], [-121.551426196957, 45.7280089958021], [-121.551381272252, 45.7279863117165], [-121.551344420533, 45.727973465962], [-121.55130491557, 45.727963980428], [-121.551257165317, 45.7279432949765], [-121.551217855062, 45.7279348576315], [-121.551194641956, 45.7279010736371], [-121.551198172206, 45.7278718987923], [-121.551180451138, 45.7278280436437], [-121.551106261234, 45.727841585797], [-121.550771424971, 45.7278824812178], [-121.550750379401, 45.7278598359113], [-121.550727648878, 45.7278337097991], [-121.550712200923, 45.7278064045152], [-121.550701966696, 45.7277757367171], [-121.550709732754, 45.7277450656359], [-121.550721963588, 45.7277112387787], [-121.550752527181, 45.7276877979216], [-121.550802858896, 45.7276860389198], [-121.550838914291, 45.7276685221968], [-121.55085430297, 45.7276376711042], [-121.550883237406, 45.7276059899838], [-121.550889141093, 45.7275740001035], [-121.550869296407, 45.7275427570682], [-121.550852010905, 45.7275138097674], [-121.550800807968, 45.7275038672594], [-121.550757871127, 45.7275019707643], [-121.550718167667, 45.727502423988], [-121.550697494932, 45.7274689770044], [-121.550682492718, 45.7274412572625], [-121.550657108941, 45.7274143613925], [-121.550625881538, 45.727382630661], [-121.55058857878, 45.7273646826542], [-121.550553022002, 45.7273411289502], [-121.550516011539, 45.7273292930589], [-121.550467976898, 45.7273293461312], [-121.550428022155, 45.7273071200894], [-121.550405644311, 45.7272783740839], [-121.550374027228, 45.7272593796243], [-121.55034319637, 45.7272311263448], [-121.550353996422, 45.7272622441797], [-121.550322751201, 45.7272446975734], [-121.550289167434, 45.7272176036703], [-121.550239216198, 45.7272065128222], [-121.550193244145, 45.7272123365896], [-121.550145992444, 45.7272262666393], [-121.550109584987, 45.7272366809068], [-121.55005923267, 45.7272465944476], [-121.550064142612, 45.7272148847136], [-121.550021303947, 45.7272101644332], [-121.549982732641, 45.727202310026], [-121.549988946385, 45.7271703182073], [-121.549989016743, 45.7271356294589], [-121.550001944956, 45.7271073846794], [-121.550021193455, 45.7270815472491], [-121.550045085064, 45.7270572735189], [-121.550063885695, 45.7270317344832], [-121.550024443874, 45.7269581399135], [-121.550061781012, 45.7269470349748], [-121.550190498798, 45.7269064272805], [-121.550322673961, 45.726865706212], [-121.550450334371, 45.7268261284232], [-121.550576648477, 45.7267877120595], [-121.550710871721, 45.7267453455319], [-121.550850163514, 45.7267013893329], [-121.551000431181, 45.7266532923384], [-121.551154346389, 45.7266034002362], [-121.551313523325, 45.7265565387277], [-121.551470849344, 45.726508561458], [-121.551632889475, 45.7264590751113], [-121.551791530297, 45.7264085918359], [-121.551939722756, 45.7263639293995], [-121.552065999449, 45.72632689465], [-121.552155277423, 45.7262994731215], [-121.552238587678, 45.7263807595424], [-121.552285008062, 45.7264036434444], [-121.552294045147, 45.7264308491581], [-121.552308515684, 45.7264632038954], [-121.552325455937, 45.7264957200065], [-121.552365682533, 45.7265142681561], [-121.552379807941, 45.7265506894917], [-121.55239283828, 45.7265775078692], [-121.552530838268, 45.7265227508575], [-121.552873281864, 45.7263988035907], [-121.553583613334, 45.7261624458955], [-121.554365409832, 45.7259254154801], [-121.554842433052, 45.7258031461014], [-121.555172734155, 45.7258128140859], [-121.555212700507, 45.7258156283981], [-121.555260383275, 45.7258077809378], [-121.555316493133, 45.7257988350404], [-121.555359057263, 45.7257993035371], [-121.555399666051, 45.7257926416318], [-121.555451884676, 45.7257963424798], [-121.55549688945, 45.7258015712528], [-121.555548325634, 45.7258031163311], [-121.555594942377, 45.7258176057348], [-121.555636095514, 45.7258394300137], [-121.555685981464, 45.7258567905085], [-121.555727732244, 45.7258790284471], [-121.555756715663, 45.7259003162344], [-121.555810484885, 45.7259306267204], [-121.555848210957, 45.7259559624839], [-121.555876079001, 45.7259916822919], [-121.555901209464, 45.7260156434096], [-121.555920970484, 45.7260448078801], [-121.555932228498, 45.7260714364317], [-121.555922268583, 45.7260997467646], [-121.555905076398, 45.7261294304829], [-121.55588886103, 45.726159004265], [-121.555887934924, 45.7261606928282], [-121.555864410088, 45.7261843759321], [-121.555831273468, 45.7262221235537], [-121.555778255883, 45.7262286014239], [-121.555759980489, 45.7262363668596], [-121.555678309689, 45.7262767594893], [-121.555653035748, 45.7263060636428], [-121.555617328329, 45.726320555422], [-121.555575320622, 45.7263426382611], [-121.5555372038, 45.7263507812927], [-121.555491200501, 45.7263613601382], [-121.55543419416, 45.7263661107716], [-121.555385928757, 45.7263592884332], [-121.555372109321, 45.7263609052726], [-121.555332077665, 45.7263655876497], [-121.55527667703, 45.726371137452], [-121.555221272842, 45.726371995834], [-121.555177598668, 45.7263729593264], [-121.555134160842, 45.7263842787956], [-121.555077688626, 45.7263894867278], [-121.555027900878, 45.7263940993412], [-121.5549879982, 45.7263954476212], [-121.554945006883, 45.7264007532379], [-121.554896986113, 45.7264180414641], [-121.554856818979, 45.7264239756277], [-121.554814399882, 45.7264235919566], [-121.554766485376, 45.7264361544139], [-121.554725187206, 45.7264382957757], [-121.554728038531, 45.7264603954327], [-121.554731425255, 45.7264866497341], [-121.554724423185, 45.7265152894632], [-121.554733617669, 45.7265572012377], [-121.554747966712, 45.7265870185488], [-121.554756114491, 45.7266160949401], [-121.554802250236, 45.7266203731391], [-121.554844220268, 45.726640895284], [-121.554896397688, 45.7266574680621], [-121.554932558369, 45.7266813548644], [-121.554972302081, 45.7266791389127], [-121.555020430739, 45.7266684305984], [-121.555039875754, 45.72669929066], [-121.555065516565, 45.7267200421858], [-121.555101533421, 45.7267383435803], [-121.555085948552, 45.7267671267315], [-121.555069320422, 45.7267922071835], [-121.555051316835, 45.7268188598291], [-121.555047677722, 45.7268463280589], [-121.555078249344, 45.7268700404352], [-121.555119033806, 45.726861367795], [-121.555156805408, 45.7268493888036], [-121.55519486125, 45.7268415299047], [-121.555247074547, 45.7268365615758], [-121.555304230378, 45.7268293208633], [-121.555344567687, 45.7268305327596], [-121.555365449956, 45.7268574625783], [-121.555389129616, 45.726891347531], [-121.555456119774, 45.7268744157779], [-121.555897978763, 45.7267516779358], [-121.556295652181, 45.7266240306334], [-121.556693325297, 45.7264571067303], [-121.557017357235, 45.7262509064295], [-121.557078343472, 45.726199303233], [-121.557336478073, 45.7259808816477], [-121.557546408975, 45.7261292421231], [-121.557588591053, 45.7261438281414], [-121.557632468715, 45.7261650448592], [-121.557667837314, 45.7261883119858], [-121.557699286836, 45.7262122088628], [-121.557729747369, 45.7262358477873], [-121.557731618813, 45.7262375064909], [-121.557758868401, 45.7262616551471], [-121.557793350655, 45.7262837806481], [-121.557849352697, 45.726310323438], [-121.557892313896, 45.7263279477653], [-121.557932600249, 45.72633496636], [-121.557973264682, 45.7263328144778], [-121.558013037351, 45.7263502392722], [-121.558059603159, 45.726357986129], [-121.558104472181, 45.7263764121467], [-121.558167413623, 45.7263795746007], [-121.558222175499, 45.7263649038548], [-121.55828185535, 45.7263520529996], [-121.55833450352, 45.7263351526236], [-121.558386511196, 45.7263176131035], [-121.558391282821, 45.7263164867277], [-121.55844841828, 45.7263030010612], [-121.55851871141, 45.7262876965128], [-121.558576407787, 45.7262764675437], [-121.558625794914, 45.7262641757414], [-121.558687147762, 45.7262543015955], [-121.55874816682, 45.7262465855163], [-121.558818665924, 45.7262360026636], [-121.558889730891, 45.7262283342172], [-121.558963903248, 45.7262152234562], [-121.559031594564, 45.7262061479031], [-121.55907578341, 45.7262028224618], [-121.559138583262, 45.7262005501596], [-121.5592013376, 45.7261972444086], [-121.559267682679, 45.7261915951233], [-121.55932607327, 45.7261820787089], [-121.559383970178, 45.7261679222672], [-121.559421944433, 45.7261574713443], [-121.559465421335, 45.726156213833], [-121.559502932532, 45.7261476099793], [-121.559551508565, 45.7261391287503], [-121.559604350542, 45.7261250620445], [-121.559658336283, 45.7261130261417], [-121.559705120054, 45.7260958356876], [-121.559758561021, 45.7260864106127], [-121.559796737871, 45.7260597410011], [-121.559833337732, 45.7260410735254], [-121.559867135647, 45.726026891696], [-121.559899706967, 45.7260042221211], [-121.55994918231, 45.7259839011058], [-121.55999719824, 45.7259802522506], [-121.560050596808, 45.7259859652592], [-121.560078862071, 45.7259575551073], [-121.560103644139, 45.7259192847054], [-121.560153596849, 45.7259214354995], [-121.560194222744, 45.7259324900808], [-121.560239525601, 45.725925574385], [-121.560280876541, 45.7259024504308], [-121.560324794358, 45.7258949934792], [-121.560359041606, 45.7258793343369], [-121.560409168494, 45.7258651956389], [-121.560438383891, 45.7258445334135], [-121.560475458433, 45.7258215675268], [-121.56052368723, 45.7258128884946], [-121.560516336479, 45.7257801105104], [-121.560532717639, 45.7257522134587], [-121.560575273672, 45.7257297078882], [-121.560617136421, 45.7257220146392], [-121.560663950832, 45.7257219750164], [-121.560710029153, 45.7257119682942], [-121.560739581364, 45.7256926659768], [-121.560767905163, 45.7256694710961], [-121.56081007858, 45.7256653154656], [-121.560853566345, 45.7256582897501], [-121.560899429017, 45.725651775211], [-121.560944504889, 45.7256493116578], [-121.560995857566, 45.7256406866696], [-121.561033471409, 45.725632975711], [-121.561084273825, 45.7256292128562], [-121.561132721114, 45.7256137975805], [-121.561169914939, 45.7255974652836], [-121.561215758887, 45.7255877736833], [-121.561258108359, 45.7255686466562], [-121.561304690728, 45.7255539947949], [-121.561339381011, 45.7255388863366], [-121.56137829979, 45.7255328374456], [-121.561429983778, 45.7255192666671], [-121.561468616494, 45.7255078253856], [-121.561515440247, 45.7254923028773], [-121.561559331271, 45.7254783960997], [-121.561592745427, 45.725461265199], [-121.561645330176, 45.7254472431394], [-121.561684782359, 45.7254424829906], [-121.561739980171, 45.7254402952959], [-121.561787321609, 45.7254262479236], [-121.561818497091, 45.7254088150435], [-121.561846892354, 45.7253861608775], [-121.561878727862, 45.7253626329738], [-121.561924437099, 45.725353100713], [-121.561963036097, 45.7253483368143], [-121.562004060445, 45.7253510514607], [-121.562049469634, 45.7253386768873], [-121.562087936373, 45.7253269013401], [-121.562125895514, 45.7253389053444], [-121.562162051224, 45.7253264677391], [-121.562204806725, 45.7253139858653], [-121.562267121297, 45.725293616494], [-121.562300945871, 45.7252769349959], [-121.562341785942, 45.7252562408885], [-121.562369060952, 45.7252288580369], [-121.56241035356, 45.7252066480114], [-121.56244342359, 45.7251896145778], [-121.562476349224, 45.725168280668], [-121.562512006454, 45.7251540481001], [-121.56255641176, 45.7251427274316], [-121.562594820873, 45.7251335786987], [-121.562644497515, 45.7251518621697], [-121.562690087016, 45.7251604963013], [-121.562721677299, 45.725189556074], [-121.562765321341, 45.7251999666974], [-121.562814924166, 45.7252031894414], [-121.562836796331, 45.7252354721215], [-121.562876753281, 45.7252677757588], [-121.562919416808, 45.7252815706376], [-121.562962555708, 45.7252869544063], [-121.563010493557, 45.7252985822924], [-121.56305587468, 45.7253122003045], [-121.563094248557, 45.7253181076859], [-121.563141273079, 45.7253326738098], [-121.563197103259, 45.7253341145243], [-121.563256775854, 45.7253161296584], [-121.563308574592, 45.7252990100111], [-121.563336107031, 45.7252706752265], [-121.56335537215, 45.7252368461883], [-121.563385669922, 45.7252114212481], [-121.563414720253, 45.7251926700213], [-121.563444751287, 45.7251658709263], [-121.56347119813, 45.725133603541], [-121.563497110765, 45.7251015490425], [-121.563517914545, 45.7250641054404], [-121.563548367056, 45.7250446580057], [-121.563570734443, 45.725020237381], [-121.563611047954, 45.7250095937802], [-121.563668341212, 45.7250082401314], [-121.563730638062, 45.7249992711724], [-121.56377917643, 45.7249942552981], [-121.563839254156, 45.7249883304895], [-121.563890120693, 45.724971593684], [-121.563933163307, 45.7249663156422], [-121.563981010085, 45.7249710174982], [-121.564024040246, 45.7249646265162], [-121.564045517537, 45.7249681063652], [-121.564055680978, 45.7249390501372], [-121.564084602452, 45.724920030919], [-121.564126490381, 45.7249105662581], [-121.564154396202, 45.7248913091807], [-121.564198268866, 45.7248803087147], [-121.564235006247, 45.7248690292506], [-121.564222908316, 45.7248398756643], [-121.564189101394, 45.7248239532923], [-121.564181786851, 45.7247964955648], [-121.564140972171, 45.7247829761215], [-121.564114135243, 45.7247452789643], [-121.564075062946, 45.7247267744692], [-121.564067339476, 45.7246996922067], [-121.564118804449, 45.72469456575], [-121.564128750401, 45.7246807663747], [-121.564136997204, 45.7246693251721], [-121.564176050637, 45.7246593762035], [-121.564220664281, 45.7246678434793], [-121.564261609192, 45.7246553185419], [-121.564302023507, 45.7246567289383], [-121.564320170281, 45.7246634461138], [-121.564338944582, 45.7246703948961], [-121.564353520143, 45.7246821197821], [-121.564367539826, 45.724693397333], [-121.564412362104, 45.7247020218219], [-121.564455609457, 45.7247025155064], [-121.564500656237, 45.7247024558979], [-121.564546805548, 45.7246426803009], [-121.56455828522, 45.7246278118499], [-121.564755592544, 45.7244389396454], [-121.564695898735, 45.7242317898227], [-121.564692861457, 45.7242066419027], [-121.564734718084, 45.7241921205639], [-121.564768693947, 45.7241780291374], [-121.564808388891, 45.7241713274704], [-121.564856289072, 45.724162236674], [-121.564905297561, 45.7241544616463], [-121.564960498049, 45.724141689167], [-121.565012551587, 45.7241305399268], [-121.565066785459, 45.7241124102716], [-121.565119738756, 45.7240993575427], [-121.565180036413, 45.724082643411], [-121.565233626195, 45.7240638944225], [-121.56523889496, 45.7240620513279], [-121.565285113285, 45.7240422302297], [-121.56530193341, 45.7240376469093], [-121.565337234956, 45.7240280272527], [-121.565386125818, 45.7240163606948], [-121.565439486391, 45.7240047175094], [-121.565496207537, 45.7239950040132], [-121.565506744088, 45.7239932001401], [-121.565578185172, 45.7239806488917], [-121.565663184604, 45.7239700414749], [-121.565741157329, 45.7239493294241], [-121.565822761992, 45.7239249712409], [-121.565900419253, 45.723904227873], [-121.565984520573, 45.7238832362964], [-121.566073094702, 45.7238650276097], [-121.566162234631, 45.723850844494], [-121.56623018514, 45.7238301793021], [-121.566297480038, 45.723808428848], [-121.5663514647, 45.7237856121926], [-121.56640730287, 45.7237728347588], [-121.566466883021, 45.7237553250256], [-121.56652134694, 45.723729790923], [-121.566558528742, 45.7236950835014], [-121.566580699012, 45.7236504362573], [-121.566601385582, 45.7236040637942], [-121.566612533121, 45.7235591250469], [-121.566614275862, 45.7235208410491], [-121.566614913734, 45.7235068380854], [-121.566607639273, 45.7234515689403], [-121.566597580876, 45.7233998847797], [-121.566582549995, 45.7233583297111], [-121.566567674116, 45.7233235376916], [-121.566547205389, 45.7232922267907], [-121.566531809909, 45.7232574675814], [-121.5665131432, 45.7232307959501], [-121.566488437152, 45.723177024464], [-121.566450698827, 45.7231139467407], [-121.566491873273, 45.7227364326291], [-121.566960179932, 45.7226959215861], [-121.568071699509, 45.7225506013324], [-121.5688218788, 45.7224327748112], [-121.570043373851, 45.7222324683604], [-121.571606573777, 45.7219496826729], [-121.572627758656, 45.7217611588411], [-121.575593123313, 45.7213251987518], [-121.57738805324, 45.7211091837125], [-121.578684173001, 45.7209560109163], [-121.580164891075, 45.720779270643], [-121.581849846176, 45.7205828932779], [-121.582329018416, 45.720516125471], [-121.582678578146, 45.7204454282071], [-121.58302028367, 45.7203511664071], [-121.58344054053, 45.7202372659114], [-121.583766533232, 45.7201587137861], [-121.583998265357, 45.7201076539555], [-121.584290932834, 45.7200724440413], [-121.584409913364, 45.7200672555428], [-121.584597203395, 45.7199044065369], [-121.584714060652, 45.7198919148645], [-121.584777755365, 45.7198893037444], [-121.585449499567, 45.7198617591938], [-121.58565751295, 45.7198706761966], [-121.586002355635, 45.7201464631856], [-121.58639019313, 45.7201822888184], [-121.58718357361, 45.7201980013169], [-121.588695711248, 45.7202490660506], [-121.589829351786, 45.7202594567498], [-121.590242010195, 45.7202632360902], [-121.590632737197, 45.7202668133464], [-121.590727562845, 45.7202676809031], [-121.590804081165, 45.7202691477281], [-121.590855015213, 45.7202690726975], [-121.59294148134, 45.7203197796324], [-121.5940294356, 45.720335493307], [-121.595050619963, 45.7203629905207], [-121.595745810621, 45.7203669214918], [-121.596986329665, 45.7202908765407], [-121.597044994649, 45.7202868084465], [-121.597473738145, 45.720364877651], [-121.597723523171, 45.720384249915], [-121.597741672543, 45.7203856574933], [-121.597729199999, 45.7203719827443], [-121.597686967031, 45.7203678334696], [-121.597733432675, 45.7203591834852], [-121.597782250888, 45.7203567667231], [-121.59782723292, 45.7203748834543], [-121.59787176622, 45.7203800494953], [-121.597911067134, 45.7203755668972], [-121.597900540969, 45.7203922875883], [-121.597894782877, 45.72040143332], [-121.597933599862, 45.7204182334555], [-121.597981800739, 45.7204139672782], [-121.598022183531, 45.7203988332808], [-121.598058783708, 45.7204103498812], [-121.598093567271, 45.7204283167207], [-121.598143199816, 45.7204341005642], [-121.598177233741, 45.720459783114], [-121.598191550268, 45.7205156161708], [-121.598224284036, 45.7204840331205], [-121.598257200968, 45.7205026335665], [-121.598298549759, 45.7205247832768], [-121.598335500772, 45.720545216797], [-121.598372716739, 45.720534716844], [-121.598353316015, 45.720562766911], [-121.598338250479, 45.7205888671523], [-121.598372467418, 45.7206052666175], [-121.598409683533, 45.7206211329385], [-121.598407366709, 45.7206528836222], [-121.59839943385, 45.7206827671566], [-121.59838863261, 45.7207149164263], [-121.598425633245, 45.7207306660738], [-121.598464433669, 45.7207391837063], [-121.5984544998, 45.7207659834201], [-121.598437266458, 45.7207935336749], [-121.5984835, 45.7207919336333], [-121.59850260017, 45.7207654997831], [-121.598543566244, 45.7207737497214], [-121.598585366666, 45.7207616834428], [-121.598624833695, 45.7207486834474], [-121.598659466936, 45.7207285827398], [-121.598668383298, 45.7206929327893], [-121.598691066473, 45.7206640669291], [-121.598718666364, 45.7206394333482], [-121.598763116825, 45.7206123876802], [-121.598780835201, 45.7205726145115], [-121.599001173122, 45.7205935507901], [-121.599035395, 45.720558594992], [-121.599288072534, 45.7205866544484], [-121.599615133978, 45.7205933711736], [-121.599782148499, 45.7205963100475], [-121.599821472797, 45.7205970020967], [-121.599974925782, 45.7206006346086], [-121.600018992122, 45.7206222631676], [-121.60005592955, 45.7206410109724], [-121.600081574875, 45.7206664320922], [-121.600105533126, 45.7207042164899], [-121.600131716306, 45.7207290996735], [-121.600167767614, 45.7207454671806], [-121.600219767202, 45.720753783266], [-121.600222750769, 45.7207818164981], [-121.600216567474, 45.720812166258], [-121.600227516027, 45.7208415838099], [-121.600195399878, 45.720861883557], [-121.600178283113, 45.7208951168672], [-121.600172250116, 45.7209250170649], [-121.600213933046, 45.7209387336656], [-121.600252966236, 45.7209544664589], [-121.600278983333, 45.720979966684], [-121.600264583028, 45.7210075660258], [-121.600257717031, 45.7210419498814], [-121.600268717178, 45.7210755671064], [-121.600276283915, 45.7211026836664], [-121.600287566045, 45.7211358167516], [-121.60032294956, 45.7211594663712], [-121.600357883864, 45.7211792000217], [-121.60039686754, 45.7211950160312], [-121.600429065732, 45.7212147503048], [-121.600470917583, 45.7212166834233], [-121.600488015934, 45.7212445661085], [-121.600511666652, 45.7212689493867], [-121.600553682671, 45.7212822163184], [-121.600587783831, 45.7213025500986], [-121.600624916861, 45.721323216846], [-121.60065466592, 45.7213441330145], [-121.600672532672, 45.7213716329536], [-121.600668316664, 45.7214045170918], [-121.600676767093, 45.7214414164134], [-121.600683832435, 45.7214709501648], [-121.600669834246, 45.7215038993302], [-121.600710266324, 45.7215402997772], [-121.600726932991, 45.7215677169629], [-121.600715417194, 45.7215946331266], [-121.600709766966, 45.7216256165515], [-121.6007174833, 45.7216575832461], [-121.600729267596, 45.7216845667749], [-121.600719449958, 45.7217143168472], [-121.600697700693, 45.7217392833401], [-121.600686333092, 45.7217713834935], [-121.600723116224, 45.7217907831413], [-121.600720267411, 45.7218203337239], [-121.600723082923, 45.7218546166747], [-121.600713766032, 45.7218850006967], [-121.600698999596, 45.7219189831268], [-121.600699016221, 45.7219512167413], [-121.600701733589, 45.7219812833758], [-121.600713733543, 45.7220133494655], [-121.600699366927, 45.7220453502673], [-121.600700316526, 45.7220810830111], [-121.600687982994, 45.7221129334698], [-121.600709516093, 45.7221420999563], [-121.600719649979, 45.7221767666603], [-121.600741366137, 45.7222122172265], [-121.600748166422, 45.7222394663231], [-121.600751349818, 45.7222670665994], [-121.600747999771, 45.7223075661278], [-121.600741483874, 45.7223496496264], [-121.600752884331, 45.7223865668985], [-121.600762816207, 45.7224181835153], [-121.600757515987, 45.722449199514], [-121.600755532842, 45.7224780335085], [-121.600752416657, 45.7225117670927], [-121.600732966484, 45.7225469164405], [-121.600729716559, 45.722580966255], [-121.600729916296, 45.7226122668076], [-121.600764716399, 45.7226392664939], [-121.600785516335, 45.7226681162151], [-121.600808215929, 45.7227018493728], [-121.600815782802, 45.722733783335], [-121.600828133155, 45.7227660160501], [-121.600835082681, 45.7227943668172], [-121.600839617107, 45.722828583477], [-121.600856749806, 45.7228553833436], [-121.600871416733, 45.7228842165266], [-121.600881866669, 45.7229175835452], [-121.600884417275, 45.722946816812], [-121.60088168284, 45.7229764328674], [-121.600867883906, 45.7230138502267], [-121.600849366149, 45.723040483943], [-121.60063999693, 45.7230792938438], [-121.600534650765, 45.7230996084936], [-121.600378576378, 45.723041985699], [-121.600320093495, 45.7230037351947], [-121.600298228906, 45.7230487453695], [-121.600262955344, 45.7231213640901], [-121.600140321312, 45.7233738235891], [-121.600304133681, 45.7235647592491], [-121.600354293067, 45.7238171536708], [-121.600525993133, 45.7238668892901], [-121.600664694335, 45.7239070648934], [-121.600687122766, 45.7239135625398], [-121.600716533238, 45.7238642882437], [-121.600775069315, 45.7237206345521], [-121.600776392055, 45.7237173887059], [-121.600801072097, 45.7236534707909], [-121.600826211368, 45.7235883615688], [-121.600828884285, 45.7235814422107], [-121.600827064498, 45.7235816633513], [-121.600709524047, 45.7234643479772], [-121.600707404635, 45.7234622326121], [-121.600709650398, 45.7234615340244], [-121.600787404582, 45.7234373598462], [-121.600885207559, 45.7235074064122], [-121.601043479506, 45.7234535996541], [-121.601316398943, 45.7234803500518], [-121.601410943605, 45.7235155416932], [-121.601386304154, 45.7235694078884], [-121.601323883676, 45.7235382362973], [-121.601161207631, 45.7235137209187], [-121.601088786072, 45.723542085684], [-121.600936523715, 45.7235683796078], [-121.600837291206, 45.7235804215535], [-121.600861390923, 45.7235842799616], [-121.600912728442, 45.7235924969541], [-121.600993256278, 45.7236053863229], [-121.601246746586, 45.7236545181788], [-121.601257153796, 45.723659430885], [-121.601349060293, 45.7237028175013], [-121.601368716704, 45.723760489324], [-121.601448629968, 45.7238188233671], [-121.601556794525, 45.7237734528673], [-121.601636280581, 45.7238110617826], [-121.601624369347, 45.7238278125774], [-121.601540311185, 45.7238606194214], [-121.601516645738, 45.7239361464662], [-121.601437380595, 45.7240463460763], [-121.601338606832, 45.7240777634721], [-121.601157957976, 45.7240960321199], [-121.601001375267, 45.7241231718704], [-121.60101418743, 45.7241686925349], [-121.60122936361, 45.724186929842], [-121.601354572563, 45.7241822168654], [-121.601443423606, 45.7242068440531], [-121.601497155873, 45.7242589746141], [-121.601427106102, 45.7243136836004], [-121.601329614332, 45.7243431872059], [-121.601214317735, 45.7243341229338], [-121.601164161703, 45.724340294627], [-121.601101734819, 45.7244055156988], [-121.601305294166, 45.7244822991978], [-121.601254101884, 45.7245744669234], [-121.601231840864, 45.7245889506634], [-121.601196679513, 45.724611827747], [-121.601146428488, 45.7246603584919], [-121.601138357527, 45.7247320564538], [-121.601160562406, 45.7247438181207], [-121.601142901924, 45.7247489036228], [-121.601017443359, 45.7248804475495], [-121.600984030237, 45.7249976298089], [-121.600965933017, 45.725020126733], [-121.600848678019, 45.7251658850949], [-121.600795824403, 45.7251875169462], [-121.600784063044, 45.7252000830976], [-121.60076811793, 45.72521712067], [-121.600758852896, 45.7252255063244], [-121.60074716306, 45.7252303156528], [-121.600728021505, 45.7252381913924], [-121.600714902327, 45.7252583712661], [-121.600711747508, 45.7252632249337], [-121.600705534209, 45.7252636473777], [-121.600683700687, 45.7252759448564], [-121.600654425916, 45.7252882889681], [-121.600620755883, 45.7253024854912], [-121.600618950659, 45.7253033759233], [-121.60057457167, 45.7253252550605], [-121.600573655696, 45.7253257067052], [-121.600573403791, 45.7253257658534], [-121.60056115062, 45.7253311250358], [-121.600542226413, 45.7253394026211], [-121.600512776426, 45.7253406334024], [-121.600477104556, 45.7253539154718], [-121.600455057849, 45.7253759587265], [-121.600439301491, 45.7254060907313], [-121.600437903053, 45.725408764152], [-121.600429892227, 45.7254452251128], [-121.600398135192, 45.7254772986356], [-121.600388499391, 45.7254868755939], [-121.60038813532, 45.7254872372646], [-121.600387731773, 45.7254876164169], [-121.600386204543, 45.7254890484967], [-121.600385765724, 45.725489591754], [-121.600370700417, 45.7255045655697], [-121.600347024127, 45.7255371611712], [-121.600330293842, 45.7255791591019], [-121.600324409239, 45.7256056953806], [-121.600337311187, 45.7256365146125], [-121.600345889857, 45.7256671250475], [-121.600340005167, 45.7256975267909], [-121.600327174547, 45.7257316900073], [-121.600328239094, 45.7257666883182], [-121.600404513836, 45.7258040883651], [-121.600490218447, 45.7258219537222], [-121.600536367158, 45.7258453559462], [-121.600544845023, 45.7258611623417], [-121.600559116198, 45.7258877679873], [-121.600559902095, 45.7258892341495], [-121.600557138268, 45.7259289334445], [-121.600544848892, 45.7259501507342], [-121.600540027552, 45.725958475846], [-121.600535233519, 45.7259667530023], [-121.600513470164, 45.7260103171812], [-121.600478734606, 45.7260369581571], [-121.600469532652, 45.7260398778949], [-121.600434933424, 45.7260486001679], [-121.600383867265, 45.7260615332551], [-121.600341200612, 45.7260583501341], [-121.600296282965, 45.7260667664841], [-121.600250532801, 45.7260542836185], [-121.600213399563, 45.7260325333744], [-121.600169599072, 45.7260147335127], [-121.600158082525, 45.7259821326548], [-121.60014785007, 45.7259485330903], [-121.600148210515, 45.725940119308], [-121.600148676344, 45.7259292561899], [-121.600149266981, 45.7259154999536], [-121.600177933878, 45.7258928666119], [-121.600192216057, 45.7258568833697], [-121.600174499631, 45.7258188661133], [-121.600134333704, 45.7258124831547], [-121.60010703316, 45.7257833503862], [-121.600063966138, 45.7257755335982], [-121.600017915954, 45.7257565499491], [-121.599980483518, 45.7257430499543], [-121.599942532693, 45.7257289998452], [-121.599891833931, 45.725715016649], [-121.599849884396, 45.7257097667401], [-121.599808967022, 45.7257073833376], [-121.599746767124, 45.7257060166677], [-121.599699033768, 45.7257045662788], [-121.599655233396, 45.7257019167455], [-121.599617183438, 45.7256908835644], [-121.599558599481, 45.7256841997635], [-121.599504066066, 45.725676800648], [-121.59946146625, 45.7256731495579], [-121.599418499622, 45.7256922503141], [-121.599397683369, 45.7257252163912], [-121.599356617576, 45.725750233526], [-121.599309283503, 45.7257738838827], [-121.599275600436, 45.7257892003534], [-121.599252019056, 45.7257967772614], [-121.599238149524, 45.7258012333986], [-121.599203999797, 45.725816083817], [-121.599174466553, 45.7258344505006], [-121.599147116812, 45.7258690000325], [-121.599085515947, 45.7259433995631], [-121.599043266592, 45.725919533097], [-121.599037600576, 45.7259160855446], [-121.59902859372, 45.725910604698], [-121.599008037688, 45.7258980976948], [-121.59900231705, 45.725894616482], [-121.598968480117, 45.7258788945935], [-121.598956116265, 45.7258731504736], [-121.598953232881, 45.7258726720348], [-121.598917833174, 45.7258667999954], [-121.598860966481, 45.7258622333547], [-121.598810716241, 45.7258829327778], [-121.598768500235, 45.7259053002637], [-121.59876263171, 45.7259084635696], [-121.598736682816, 45.7259224501184], [-121.598698684304, 45.7259316999019], [-121.598643116892, 45.7259471829047], [-121.598604650225, 45.7259571831424], [-121.598573433506, 45.7259777336632], [-121.598541917263, 45.7260006661195], [-121.598511700901, 45.7260211330821], [-121.598490332785, 45.7260471832493], [-121.598491517306, 45.7260863994727], [-121.598482433063, 45.726124833178], [-121.598462099621, 45.7261611829441], [-121.598445266018, 45.7261928332009], [-121.598455183117, 45.7262212838378], [-121.598430700594, 45.7262470665441], [-121.598386450656, 45.7262702833208], [-121.598350383027, 45.726282583306], [-121.59829466596, 45.7262909494205], [-121.598274410243, 45.7262950322262], [-121.598241166811, 45.7263017331852], [-121.598198983798, 45.7262927661381], [-121.598152166904, 45.7262812160012], [-121.598107433233, 45.7262961333003], [-121.598059816059, 45.7262915669351], [-121.598017982992, 45.726273833436], [-121.597980683249, 45.7262829663875], [-121.597941666409, 45.7262866336988], [-121.597909267348, 45.7262658164071], [-121.597871833302, 45.7262365830486], [-121.597818367585, 45.7262352165366], [-121.597803479065, 45.7262281661255], [-121.597772966672, 45.7262137161525], [-121.597763116301, 45.7261813003714], [-121.597754882823, 45.7261485332095], [-121.597746166252, 45.7261135006077], [-121.597714166648, 45.7260869162676], [-121.597692466583, 45.7260609171576], [-121.59767051762, 45.7260242661576], [-121.597661832609, 45.7259967662131], [-121.597669284108, 45.7259656160295], [-121.597667067552, 45.7259601624649], [-121.597657282738, 45.725936083412], [-121.597640950405, 45.7259040160339], [-121.597616567188, 45.725871833672], [-121.59758791679, 45.7258449161272], [-121.597561983424, 45.7258209665667], [-121.597520749332, 45.725805032912], [-121.597473683437, 45.72580853287], [-121.597438141425, 45.7258144992785], [-121.59742661632, 45.725816433651], [-121.59738839972, 45.7258248006311], [-121.597343733467, 45.7258091504974], [-121.597315749346, 45.7257849167389], [-121.597307835703, 45.7257802637002], [-121.597277566817, 45.7257624667371], [-121.597220963574, 45.7257574387149], [-121.597218266107, 45.7257571995619], [-121.59717724992, 45.7257591504135], [-121.59713081637, 45.7257342667632], [-121.597129903428, 45.7257335144426], [-121.597102015935, 45.7257105168904], [-121.597067267439, 45.7256895503945], [-121.597035916375, 45.7256692004334], [-121.597019283498, 45.725631033581], [-121.597001732921, 45.7256051999709], [-121.596963383086, 45.7255856334948], [-121.596931533134, 45.7255660333844], [-121.596889332938, 45.7255532500498], [-121.596859782888, 45.7255231171722], [-121.596816433115, 45.7255045837084], [-121.596765949889, 45.7254922166219], [-121.596714233295, 45.7254879334625], [-121.596673249602, 45.7254781164766], [-121.596627649867, 45.725460783566], [-121.596579566989, 45.7254652666193], [-121.596556115842, 45.7254898997449], [-121.596515433375, 45.7255065828247], [-121.596470433833, 45.7255196161218], [-121.596424967401, 45.7255250498954], [-121.596382833243, 45.7255368171597], [-121.596333066462, 45.7255487001061], [-121.596294449471, 45.7255695163866], [-121.596272366494, 45.725596616829], [-121.596238799881, 45.7256230165547], [-121.596227704417, 45.7256298342336], [-121.59620421635, 45.725644266824], [-121.596203020306, 45.7256522946174], [-121.596194478422, 45.7257095903543], [-121.596159414864, 45.7256827636743], [-121.595963825712, 45.7255331145268], [-121.595370089951, 45.7250845460244], [-121.595011583993, 45.7248694344848], [-121.594860108201, 45.7247887933162], [-121.594682610582, 45.7247301922053], [-121.594596272409, 45.7247070739031], [-121.594515130102, 45.7246853473827], [-121.594395412801, 45.7246532919092], [-121.594030115341, 45.7245993904562], [-121.593822117194, 45.724576589669], [-121.593375720021, 45.7245779879424], [-121.592487125528, 45.7245837850919], [-121.591735831239, 45.724586744268], [-121.591572644355, 45.7245750517682], [-121.591429155171, 45.7245640031171], [-121.591232825093, 45.7244994228413], [-121.591128682069, 45.7244260930355], [-121.590995870324, 45.7244342406643], [-121.590828881707, 45.7244444845766], [-121.590475628147, 45.7244661534817], [-121.590346832331, 45.7244740536048], [-121.589952348261, 45.7244982507538], [-121.589901547117, 45.7245223841723], [-121.589775680614, 45.7245507567779], [-121.589654430916, 45.7245743022366], [-121.589407148737, 45.7246223217134], [-121.589405614324, 45.7246232723289], [-121.586722878739, 45.7246175852865], [-121.586522351182, 45.7246195202711], [-121.586348740379, 45.7246453237235], [-121.586228227021, 45.7246615791574], [-121.586186125871, 45.7246672579636], [-121.586051167411, 45.7246854619942], [-121.585755068085, 45.7247540605873], [-121.585740244109, 45.7247569262479], [-121.585232071137, 45.7248551588233], [-121.585020872629, 45.724865157909], [-121.584770074489, 45.7248621574486], [-121.584518976247, 45.7248232563268], [-121.584160878701, 45.7247472548992], [-121.583745059957, 45.7246558826696], [-121.583020092811, 45.7244965727865], [-121.582816013872, 45.7244517261271], [-121.582808389971, 45.7244500502655], [-121.582648314091, 45.724417622725], [-121.582458391651, 45.7243791483197], [-121.582270093339, 45.7243563483321], [-121.582161696516, 45.7243521497542], [-121.582042895072, 45.7243475471729], [-121.58180429684, 45.7243633461529], [-121.581593197893, 45.7243875453729], [-121.581386798537, 45.7244469451994], [-121.581386024901, 45.7244472594532], [-121.581345211792, 45.7244496479828], [-121.581261708239, 45.7244545339011], [-121.580958330612, 45.7245068461403], [-121.580070387814, 45.7246599506829], [-121.579714206211, 45.7247891247994], [-121.579668439342, 45.7248057227293], [-121.579594989807, 45.7248160437484], [-121.578750650563, 45.7249346811533], [-121.578639876412, 45.7249311461919], [-121.578270073562, 45.7249193429284], [-121.578119795158, 45.7249897569841], [-121.578049069826, 45.7250252869905], [-121.57792526202, 45.7250292956704], [-121.577821364291, 45.7249841981065], [-121.577935651941, 45.724908855371], [-121.578024461988, 45.7248480071071], [-121.57802947897, 45.7248437463171], [-121.577824838208, 45.7247767353782], [-121.577773915314, 45.7248012288486], [-121.577047496498, 45.72515062641], [-121.5770152122, 45.7251661549306], [-121.576847830927, 45.7252190232064], [-121.576833004229, 45.7253115389079], [-121.576833788829, 45.7253527772345], [-121.576636704283, 45.7254595928868], [-121.576514330967, 45.7254826813813], [-121.576367327805, 45.7254978675696], [-121.576251879427, 45.7254688995113], [-121.576199510678, 45.7254215534017], [-121.575818421039, 45.7255275219897], [-121.575206406296, 45.7256977007568], [-121.575136399736, 45.7257171664101], [-121.574972196889, 45.725792463577], [-121.574972030383, 45.7257988931796], [-121.574806571165, 45.7259034673687], [-121.574679485473, 45.7259543722724], [-121.574620285865, 45.7259948702486], [-121.574580822931, 45.7260077627317], [-121.574517184735, 45.7260011123595], [-121.574220402494, 45.7261372017696], [-121.573927389185, 45.726271561961], [-121.573719558851, 45.7265019370081], [-121.573558449949, 45.7265814369325], [-121.573518668927, 45.7266010669061], [-121.573452834577, 45.7266335519983], [-121.573429971721, 45.7266654744953], [-121.573409952173, 45.7269226607264], [-121.573169930382, 45.7269570568593], [-121.57287884823, 45.7270180279941], [-121.572442362059, 45.7271165056333], [-121.572177178525, 45.7271832487134], [-121.572005911998, 45.7272169886268], [-121.571894532843, 45.7272361100468], [-121.571848281444, 45.7271043450617], [-121.571749544851, 45.7271178105784], [-121.571710332751, 45.7271216559923], [-121.571640813958, 45.727128472931], [-121.571151997107, 45.7271751556421], [-121.571166296641, 45.7273073597875], [-121.570793828094, 45.7273462470472], [-121.570741736137, 45.7270994790404], [-121.570648926607, 45.7270964860944], [-121.570475272924, 45.7270792694872], [-121.570132075891, 45.7270452436033], [-121.569086421854, 45.727218966992], [-121.567757396524, 45.7275988792736], [-121.566953250167, 45.7279594670787], [-121.566865800998, 45.7280348510605], [-121.566769879719, 45.7281175377336]]], [[[-121.545301737275, 45.7312487611598], [-121.545299360133, 45.7311977615539], [-121.545307263368, 45.7311654655042], [-121.545314451776, 45.7311320585698], [-121.545318971751, 45.7310999477823], [-121.545327340598, 45.7310617736869], [-121.545377454932, 45.7310597645211], [-121.545422397138, 45.7310596145877], [-121.545469239202, 45.731065893879], [-121.54549564592, 45.7310969887643], [-121.545536922778, 45.7310815757578], [-121.545561547993, 45.7311171077552], [-121.545598111525, 45.7311292841572], [-121.545626295173, 45.7311552176095], [-121.545604700841, 45.7311809104855], [-121.545631750082, 45.7312075931831], [-121.545684067698, 45.7312041435829], [-121.545676192778, 45.7312490542266], [-121.545713805781, 45.7312813010998], [-121.545690743945, 45.7313116639477], [-121.545703495681, 45.7313410491321], [-121.545666150867, 45.7313679670896], [-121.545704704072, 45.7313887259234], [-121.54570196601, 45.731416611942], [-121.545738691207, 45.7314407762857], [-121.545768985058, 45.7314668619682], [-121.545817966587, 45.7314817518827], [-121.545808613615, 45.7315205245088], [-121.545800646584, 45.7315505240666], [-121.545773097559, 45.7315731221605], [-121.545746330396, 45.7316053945541], [-121.545745215069, 45.7316334841518], [-121.545753617743, 45.7316623914445], [-121.545704352121, 45.731680280199], [-121.545677447841, 45.7317038215438], [-121.545651006983, 45.7317003311736], [-121.54563472182, 45.7316773194933], [-121.545632566265, 45.7316759817474], [-121.545630424765, 45.731671246325], [-121.545629961389, 45.7316705910929], [-121.545604597325, 45.7316484411031], [-121.545563235586, 45.7316356353139], [-121.54552550075, 45.7316153547109], [-121.545485349758, 45.7316006697233], [-121.54544580836, 45.7315964686257], [-121.545428408965, 45.7315608767254], [-121.545402975141, 45.7315333367947], [-121.545377460212, 45.7315092491434], [-121.545357069197, 45.731480208361], [-121.545345077809, 45.7314419758041], [-121.545329522675, 45.7314112273498], [-121.545302699221, 45.7313766487691], [-121.54527438483, 45.7313514083751], [-121.545289191642, 45.7313174961438], [-121.545302809944, 45.7312892167278], [-121.545301737275, 45.7312487611598]]]]}, "properties": {"OBJECTID": 22963, "poly_SourceOID": 19207, "poly_IncidentName": "TUNNEL FIVE", "poly_FeatureCategory": "Wildfire Final Fire Perimeter", "poly_MapMethod": "Mixed Methods", "poly_GISAcres": 529, "poly_DeleteThis": "No", "poly_FeatureAccess": "Public", "poly_FeatureStatus": "Approved", "poly_IsVisible": "Yes", "poly_CreateDate": 1701298533071, "poly_DateCurrent": 1701298533071, "poly_PolygonDateTime": 1701298532638, "poly_IRWINID": "{40D91AA4-3D72-4A02-B42C-DE50293190B0}", "poly_FORID": "{7820742D-9D04-46A9-9C98-4D95393FE35F}", "poly_Acres_AutoCalc": 526.6199156560516, "poly_SourceGlobalID": null, "poly_Source": "FFP", "attr_SourceOID": 4829504, "attr_ABCDMisc": null, "attr_ADSPermissionState": "CERTIFIED", "attr_CalculatedAcres": 526.63, "attr_ContainmentDateTime": 1688994000000, "attr_ControlDateTime": 1689901200000, "attr_CreatedBySystem": "wildcade", "attr_IncidentSize": 546, "attr_DiscoveryAcres": null, "attr_DispatchCenterID": "WACWC", "attr_EstimatedCostToDate": null, "attr_FinalAcres": null, "attr_FFReportApprovedByTitle": null, "attr_FFReportApprovedByUnit": null, "attr_FFReportApprovedDate": 1701298529694, "attr_FireBehaviorGeneral": null, "attr_FireBehaviorGeneral1": null, "attr_FireBehaviorGeneral2": null, "attr_FireBehaviorGeneral3": null, "attr_FireCause": "Human", "attr_FireCauseGeneral": "Railroad operations and maintenance", "attr_FireCauseSpecific": "Exhaust particles", "attr_FireCode": "QA7V", "attr_FireDepartmentID": null, "attr_FireDiscoveryDateTime": 1688323020000, "attr_FireMgmtComplexity": "Type 2 Incident", "attr_FireOutDateTime": 1697137140000, "attr_FireStrategyConfinePercent": null, "attr_FireStrategyFullSuppPrcnt": null, "attr_FireStrategyMonitorPercent": null, "attr_FireStrategyPointZonePrcnt": null, "attr_FSJobCode": "PN", "attr_FSOverrideCode": "1522", "attr_GACC": "NWCC", "attr_ICS209ReportDateTime": null, "attr_ICS209RptForTimePeriodFrom": null, "attr_ICS209RptForTimePeriodTo": null, "attr_ICS209ReportStatus": null, "attr_IncidentManagementOrg": null, "attr_IncidentName": "TUNNEL FIVE", "attr_IncidentShortDescription": null, "attr_IncidentTypeCategory": "WF", "attr_IncidentTypeKind": "FI", "attr_InitialLatitude": 45.722232, "attr_InitialLongitude": -121.579246, "attr_InitialResponseAcres": null, "attr_InitialResponseDateTime": null, "attr_IrwinID": null, "attr_IsFireCauseInvestigated": 1, "attr_IsFireCodeRequested": null, "attr_IsFSAssisted": 1, "attr_IsMultiJurisdictional": null, "attr_IsQuarantined": 0, "attr_IsReimbursable": null, "attr_IsTrespass": null, "attr_IsUnifiedCommand": null, "attr_IsValid": 1, "attr_LocalIncidentIdentifier": "000336", "attr_ModifiedBySystem": "wildcade", "attr_PercentContained": null, "attr_PercentPerimToBeContained": null, "attr_POOCity": null, "attr_POOCounty": "Skamania", "attr_POODispatchCenterID": "WACWC", "attr_POOFips": "53059", "attr_POOJurisdictionalAgency": null, "attr_POOJurisdictionalUnit": null, "attr_POOJurisdictUnitParentUnit": null, "attr_POOLandownerCategory": "Private", "attr_POOLandownerKind": "Private", "attr_POOLegalDescPrincipalMerid": null, "attr_POOLegalDescQtr": null, "attr_POOLegalDescQtrQtr": null, "attr_POOLegalDescRange": null, "attr_POOLegalDescSection": null, "attr_POOLegalDescTownship": null, "attr_POOPredictiveServiceAreaID": null, "attr_POOProtectingAgency": "DNR", "attr_POOProtectingUnit": "WASES", "attr_POOState": "US-WA", "attr_PredominantFuelGroup": "Nonburnable", "attr_PredominantFuelModel": "NB1", "attr_PrimaryFuelModel": null, "attr_SecondaryFuelModel": null, "attr_TotalIncidentPersonnel": null, "attr_UniqueFireIdentifier": "2023-WASES-000336", "attr_FORID": "{7820742D-9D04-46A9-9C98-4D95393FE35F}", "attr_WFDSSDecisionStatus": null, "attr_EstimatedFinalCost": null, "attr_OrganizationalAssessment": null, "attr_StratDecisionPublishDate": null, "attr_CreatedOnDateTime_dt": 1688324706000, "attr_ModifiedOnDateTime_dt": 1697137595923, "attr_Source": "FODR", "attr_IsCpxChild": 0, "attr_CpxName": null, "attr_CpxID": null, "attr_SourceGlobalID": "{F6129F63-0E60-49D9-B968-B7DDCC02B5B2}", "GlobalID": "db426517-a462-462f-a3a8-df7bca5211f3", "Shape__Area": 0.00024631280120956944, "Shape__Length": 0.15946510802880598, "attr_IncidentComplexityLevel": null}}]}