{"type": "FeatureCollection", "features": [{"type": "Feature", "id": 3764, "geometry": {"type": "Polygon", "coordinates": [[[-121.011979686152, 45.4857038798436], [-121.011505336958, 45.4857975033524], [-121.011310182126, 45.4858232092007], [-121.011047850051, 45.4858710127938], [-121.010860517437, 45.4859011135158], [-121.010523267521, 45.4859595401144], [-121.010389290735, 45.4860143644832], [-121.010254056339, 45.4861048891131], [-121.010047261058, 45.4862084568364], [-121.009780311377, 45.4862895410467], [-121.009523010893, 45.4863850823128], [-121.009318728013, 45.4864172451449], [-121.008962932682, 45.4864253311004], [-121.008760160714, 45.4864146499595], [-121.008568294444, 45.4863827249016], [-121.008275420205, 45.4863347481878], [-121.007974410133, 45.4862294708913], [-121.007617356847, 45.4862732548382], [-121.007371965134, 45.4863189854439], [-121.007086221541, 45.4863568669549], [-121.00695475963, 45.4863402829163], [-121.006804758907, 45.4862733624047], [-121.006602995794, 45.4862341160925], [-121.006439317816, 45.4862669826387], [-121.006346697061, 45.4863010887403], [-121.006222363377, 45.4863703660586], [-121.00614853264, 45.4864476685139], [-121.006164802976, 45.4865622684087], [-121.006284098662, 45.4866357997189], [-121.006443494354, 45.4867243196], [-121.006540723322, 45.4868474780721], [-121.006718155143, 45.4870006146212], [-121.006835689045, 45.4871241272948], [-121.007050956925, 45.4873565172146], [-121.007137030042, 45.4875080584927], [-121.007397439628, 45.487612630367], [-121.007681426708, 45.4876247301291], [-121.007892340438, 45.4876927131106], [-121.008032445914, 45.4877523152644], [-121.008160135043, 45.4878760037177], [-121.008278427882, 45.48797809347], [-121.008419027897, 45.4881306730854], [-121.008418062155, 45.4882596314143], [-121.008417377907, 45.4883510936836], [-121.008415764655, 45.4885664418163], [-121.008805918346, 45.488799476153], [-121.009044523851, 45.4889465315109], [-121.009241014103, 45.4891357214069], [-121.009517211025, 45.4893691679559], [-121.009796930869, 45.489502649869], [-121.010241093752, 45.4895818380246], [-121.010561926519, 45.489701744115], [-121.010784764138, 45.4897199158935], [-121.010986291374, 45.4897662949549], [-121.011244707582, 45.4899279802383], [-121.01140211069, 45.4900736171909], [-121.011411856878, 45.490373865677], [-121.011407332144, 45.4905023929497], [-121.011422608575, 45.4906455536334], [-121.011499802425, 45.4907612136886], [-121.011637842125, 45.4909157060447], [-121.011734706478, 45.4909148166159], [-121.011853712959, 45.4910960349983], [-121.011928897777, 45.4912688176211], [-121.011856232838, 45.4917106274356], [-121.011690780977, 45.4917934832711], [-121.011525832655, 45.4918620581741], [-121.01129544558, 45.4920580991744], [-121.011148286252, 45.4921984306534], [-121.011102648778, 45.4923405303298], [-121.011096111592, 45.4925261803349], [-121.011090580103, 45.4926832680343], [-121.011024133196, 45.4928392946572], [-121.010818571528, 45.492907161976], [-121.010692719463, 45.4930192851231], [-121.010383117637, 45.4931567854159], [-121.009974504587, 45.4932211120292], [-121.009734872485, 45.4931026197471], [-121.00943331935, 45.4930116264238], [-121.009274908075, 45.4928945490637], [-121.008957582843, 45.4926746734699], [-121.008400155619, 45.4924776337721], [-121.008032635228, 45.4924013309848], [-121.007728570155, 45.4923817366212], [-121.00748290119, 45.4924346077795], [-121.00727784083, 45.4924881871126], [-121.007052978154, 45.4925271309922], [-121.006785995516, 45.4926082075608], [-121.006537804669, 45.4927324799581], [-121.00645204988, 45.4928595888204], [-121.006596798307, 45.4931717214485], [-121.006637399604, 45.4933171736883], [-121.006684082909, 45.4934844196559], [-121.006777167435, 45.4938178966579], [-121.006823972663, 45.4942188193746], [-121.006978854828, 45.4944358647054], [-121.007129706924, 45.4947671560202], [-121.00733492698, 45.495285158825], [-121.007364958371, 45.4955857623287], [-121.007313764482, 45.4958849483338], [-121.007419980877, 45.4963297749288], [-121.007488104617, 45.4967024903314], [-121.007334876813, 45.4970141852081], [-121.007388740991, 45.4972151774911], [-121.007630400443, 45.4972765521966], [-121.008066057638, 45.4975985218059], [-121.008407577489, 45.4978334000888], [-121.008660646749, 45.498023287701], [-121.008818567213, 45.498154646702], [-121.009053183591, 45.4984159487162], [-121.009349227161, 45.4986640308071], [-121.009622951768, 45.4989688817547], [-121.009834249696, 45.4993155123205], [-121.009444388111, 45.4994230321571], [-121.009198186302, 45.4994901871225], [-121.009054021579, 45.4995448313001], [-121.008830643689, 45.4995409362129], [-121.008410215689, 45.4996799845486], [-121.008410353958, 45.4997766286056], [-121.008410498925, 45.4998773287295], [-121.008836347596, 45.4999554304417], [-121.009160257611, 45.4999896572542], [-121.00940243431, 45.5000367477479], [-121.009498433239, 45.5001956060425], [-121.009495412839, 45.5002812900441], [-121.009476824967, 45.5005243869945], [-121.009429764784, 45.5006859261681], [-121.009461821678, 45.5009294055081], [-121.009457290842, 45.5010579323901], [-121.009474577952, 45.5011439703922], [-121.009834077251, 45.5013217100878], [-121.010137183492, 45.501369860956], [-121.010582949127, 45.501406207195], [-121.010988602859, 45.5014275635401], [-121.011274420783, 45.5013896735977], [-121.011523834764, 45.5018328412527], [-121.011276235694, 45.5021351053414], [-121.011142198369, 45.5022590281939], [-121.010780860069, 45.5027099967609], [-121.010607950938, 45.5029069617717], [-121.01064848161, 45.5031165754178], [-121.010715786255, 45.5034646486801], [-121.010869809848, 45.5037561531212], [-121.010984820136, 45.503989213347], [-121.011630412426, 45.5043181606413], [-121.01215388147, 45.5046160960782], [-121.012752343938, 45.5051175088135], [-121.013581452114, 45.5054679255831], [-121.014157594796, 45.5060373014094], [-121.014351676702, 45.5063583798808], [-121.014709963071, 45.5066823130751], [-121.015018068606, 45.5072653107418], [-121.014921757089, 45.5076679862246], [-121.014038941062, 45.5070749932623], [-121.013642652358, 45.5066637512131], [-121.012960035004, 45.5062186432533], [-121.012641795592, 45.5059242837455], [-121.011989944495, 45.5054691739722], [-121.010925950699, 45.5054770440953], [-121.010549401261, 45.5054798264395], [-121.009604111734, 45.505871373317], [-121.008431929332, 45.5060534070433], [-121.007461378833, 45.5060650592208], [-121.006552168974, 45.5062224820909], [-121.005846164545, 45.5064412111272], [-121.004814813781, 45.5065676056848], [-121.001886770183, 45.5077029339498], [-120.999605979375, 45.5066401421673], [-120.989886525659, 45.508168437438], [-120.985195680107, 45.5087087233318], [-120.979323668406, 45.5084916933295], [-120.977976144935, 45.5056361980161], [-120.977340153916, 45.4986590936799], [-120.97656704991, 45.4932652703736], [-120.975793418596, 45.4901367462301], [-120.97038759951, 45.4859632100828], [-120.96965507331, 45.4817027103528], [-120.971095444571, 45.4787232231419], [-120.968551025456, 45.4760233068718], [-120.963800636096, 45.4721407339188], [-120.960347009797, 45.4697005008079], [-120.956310185716, 45.4678160562668], [-120.952045110353, 45.4677962695272], [-120.950720812476, 45.4665832118004], [-120.954663485738, 45.464388579609], [-120.954161917034, 45.4626805977275], [-120.950804988679, 45.461041328867], [-120.947562497219, 45.4604667302456], [-120.939895462199, 45.4588561876492], [-120.934814671708, 45.4569521384512], [-120.935214865668, 45.4548073114859], [-120.943485141959, 45.4530876725629], [-120.946206326203, 45.449059054414], [-120.950407590678, 45.4463595145592], [-120.952756137342, 45.4392658431643], [-120.950702333829, 45.4360008942494], [-120.946794915957, 45.4346145339756], [-120.948471201346, 45.4309770816389], [-120.950996901128, 45.4256422527126], [-120.955257482822, 45.4212445832733], [-120.962077704253, 45.4194409797216], [-120.968788719754, 45.4184278950284], [-120.974173191707, 45.4185235584413], [-120.975220118816, 45.4192855768194], [-120.978719243657, 45.4218322417537], [-120.97967058936, 45.4269728695735], [-120.979693431322, 45.4270962858969], [-120.979732517132, 45.4273074654351], [-120.9817182309, 45.4279637597413], [-120.981622077266, 45.4280281486601], [-120.98146446235, 45.4282368475646], [-120.981474743724, 45.4284749496706], [-120.98159899914, 45.4286754139877], [-120.981761718226, 45.4288501220733], [-120.981812818525, 45.428996421028], [-120.982124798858, 45.4293090936209], [-120.982402358379, 45.4293082431774], [-120.982412002633, 45.4295057253257], [-120.982164479859, 45.4296635271377], [-120.982427019206, 45.4301929626956], [-120.982298660905, 45.4307028238357], [-120.982079037266, 45.4308731190169], [-120.981517512982, 45.4309606553536], [-120.98120697413, 45.431245956403], [-120.98130024275, 45.4314909381876], [-120.980741631779, 45.4316606979716], [-120.980622467197, 45.4318436396186], [-120.980442427607, 45.4321968796498], [-120.980350396801, 45.4323727767292], [-120.979849953972, 45.4326748956896], [-120.979589689999, 45.4329550184843], [-120.979407643168, 45.4333217961974], [-120.97925330585, 45.4334945023098], [-120.979228951612, 45.433726196386], [-120.979204028376, 45.433963292871], [-120.979032004015, 45.4355997156263], [-120.979262624726, 45.4381523016822], [-120.979909390694, 45.4403158157734], [-120.980379242987, 45.4429292626277], [-120.980203880624, 45.4455879280936], [-120.979955300195, 45.4476974661243], [-120.979581795299, 45.4476971746064], [-120.979128575209, 45.447599978918], [-120.9790315322, 45.4475845226132], [-120.978875971514, 45.447568029497], [-120.978602635666, 45.4475700605393], [-120.978464863776, 45.4476019694315], [-120.978357577982, 45.4476000698878], [-120.978152514687, 45.4476033077598], [-120.978063509234, 45.4476360796994], [-120.977945488241, 45.4476614679298], [-120.977872062191, 45.4478044277867], [-120.977808144002, 45.4479544257763], [-120.977792500526, 45.4481190174065], [-120.977780047302, 45.4481943618501], [-120.977654371547, 45.4483655117501], [-120.977656118204, 45.4504388879142], [-120.977656415574, 45.4507816156968], [-120.977657110534, 45.4515837675582], [-120.977657406065, 45.4519260037772], [-120.977658182476, 45.4528228667363], [-120.977870869102, 45.454067711881], [-120.977805855127, 45.4541537451557], [-120.977355489065, 45.4541616066466], [-120.977658609706, 45.4547593751052], [-120.978056801289, 45.4553634025557], [-120.978169797911, 45.455651414035], [-120.978320204715, 45.4560347732312], [-120.978469375642, 45.4564149769764], [-120.978290447497, 45.4567161640558], [-120.978360042763, 45.4570412932085], [-120.97875538199, 45.4571439309826], [-120.978896551837, 45.4574779688902], [-120.979057175429, 45.4578077998818], [-120.979034738966, 45.4586155632945], [-120.97970654764, 45.4588437539846], [-120.979820849436, 45.4589946441072], [-120.980072820266, 45.4593187087011], [-120.97994701166, 45.4596033970711], [-120.98049405137, 45.4597846113426], [-120.980412268699, 45.4602213157211], [-120.98069901512, 45.4605312309619], [-120.981095972228, 45.4606345624636], [-120.980903913397, 45.4608587511484], [-120.981291356823, 45.4611770092258], [-120.981314334608, 45.4612917317303], [-120.981627783846, 45.4613184872504], [-120.98170679745, 45.4614200979045], [-120.981601770944, 45.4615826047345], [-120.981721150856, 45.4616513991691], [-120.981836454641, 45.4618344385797], [-120.981832172902, 45.4620255356667], [-120.981950696843, 45.4620254162363], [-120.982236154272, 45.4621008835335], [-120.982182026828, 45.4623930752383], [-120.982152250433, 45.4624687601436], [-120.982259123553, 45.462508753919], [-120.982376469104, 45.4626346707229], [-120.982371033459, 45.462786996914], [-120.982299310982, 45.4629000457439], [-120.982405165844, 45.4629686004423], [-120.982492735022, 45.4631702020728], [-120.982393615068, 45.4632922938045], [-120.982309381162, 45.4633765424952], [-120.982386140977, 45.4635017411696], [-120.982517016333, 45.463627896885], [-120.982514638347, 45.4636945390261], [-120.982443254656, 45.4637980678663], [-120.982384041875, 45.4639399177296], [-120.982380644485, 45.4640351209035], [-120.982607246539, 45.464134388948], [-120.982544636662, 45.4643714411679], [-120.98262037785, 45.4645252016163], [-120.98376053364, 45.4672196909787], [-120.984164739386, 45.4675944316839], [-120.983738491405, 45.4678882474208], [-120.983302914494, 45.4678586098489], [-120.982893028881, 45.4679830401647], [-120.982732491289, 45.4681118736931], [-120.982782307285, 45.4684638744492], [-120.982885495522, 45.4688317853606], [-120.983226093655, 45.4687723086154], [-120.983411713364, 45.4687874948443], [-120.983697326172, 45.4688461242575], [-120.983963692365, 45.4689699072635], [-120.984044863155, 45.4690666044611], [-120.98411800149, 45.4691512511065], [-120.984224139154, 45.4693018736045], [-120.984307198881, 45.4693018538213], [-120.984577810159, 45.469301788958], [-120.984882675963, 45.4693017150116], [-120.985017980967, 45.4693016824165], [-120.985187113213, 45.4693016407894], [-120.9853139621, 45.4693016089493], [-120.985516919011, 45.4693015587687], [-120.985766045169, 45.4693681858779], [-120.985907781309, 45.4695258472828], [-120.986039449988, 45.4696723106822], [-120.986056197762, 45.4698522992961], [-120.986319129785, 45.4699834116472], [-120.986382809674, 45.4701855284821], [-120.98639505985, 45.4703167318583], [-120.986558685579, 45.4704744202041], [-120.986756774911, 45.4706148547657], [-120.986777483407, 45.4707462072287], [-120.986883820573, 45.4708492995405], [-120.986949143719, 45.4709159453423], [-120.987145531442, 45.4709750443816], [-120.987234776502, 45.47100190127], [-120.987410518324, 45.4710996815995], [-120.987478097742, 45.4712725439964], [-120.987580957443, 45.4713869528559], [-120.987662451756, 45.4714775970892], [-120.987723898487, 45.4715459419703], [-120.987649535253, 45.4716844453555], [-120.987641364735, 45.4717978721183], [-120.987617035917, 45.4718576888047], [-120.987579183993, 45.4719507536495], [-120.987576445761, 45.4719574851413], [-120.987513644989, 45.4720575956928], [-120.987512992662, 45.4723136053605], [-120.987499450368, 45.4724562617408], [-120.987584686491, 45.4726292390166], [-120.987578585065, 45.4728006055545], [-120.98759328931, 45.4729580492768], [-120.987933254882, 45.473118342005], [-120.987933299087, 45.473376828452], [-120.987878716891, 45.4753304680261], [-120.987822137926, 45.4784202545109], [-120.987887103097, 45.4784595988764], [-120.988190810712, 45.4786435308249], [-120.988303141153, 45.4785311940149], [-120.988417503232, 45.4783617349105], [-120.988533560263, 45.4781446735996], [-120.988633712136, 45.4779940159953], [-120.988708151726, 45.4778048003658], [-120.988889837174, 45.4776460526709], [-120.989112796962, 45.4774689786244], [-120.989240687797, 45.4772997569278], [-120.98939564336, 45.4771310107647], [-120.9895769847, 45.4769817828329], [-120.989771409185, 45.4767479444903], [-120.989832537179, 45.4765603029882], [-120.990048264234, 45.4766757099575], [-120.990043185222, 45.4768185155205], [-120.990037637855, 45.4770021524415], [-120.989895670469, 45.4771588675163], [-120.989909753376, 45.4773939816407], [-120.989817305024, 45.4775286934527], [-120.989606187261, 45.4777536084253], [-120.989417905987, 45.4779074785496], [-120.989226576204, 45.4781470307394], [-120.989167176316, 45.478674696831], [-120.989158537556, 45.4789174669688], [-120.989211305411, 45.4791470281171], [-120.989387396809, 45.4793358933128], [-120.989708125852, 45.4794558564647], [-120.989931421757, 45.479459787605], [-120.990192778694, 45.4795358357115], [-120.990492703098, 45.4796697199421], [-120.990652055253, 45.4797582621386], [-120.990956043761, 45.4797779007442], [-120.991120980275, 45.4797093543496], [-120.991371685043, 45.4795137120229], [-120.991638626032, 45.47943267065], [-120.991723377273, 45.4793341348827], [-120.991747229529, 45.4792345270649], [-120.992074645033, 45.4792617199244], [-120.992191369788, 45.4794066674151], [-120.992279673221, 45.4794939570777], [-120.992508046789, 45.4796408682619], [-120.992837159606, 45.479810983671], [-120.993067564724, 45.4799007705801], [-120.993318555125, 45.4799407773174], [-120.993451445135, 45.4800472707023], [-120.993453270115, 45.4801933391008], [-120.993342895638, 45.4804414659142], [-120.993150305336, 45.480716726603], [-120.993090678289, 45.4809657459722], [-120.993054142014, 45.4811365776354], [-120.992989948909, 45.4815141211555], [-120.992984115588, 45.4816783481589], [-120.992975492316, 45.4819211187368], [-120.993039443565, 45.482122295603], [-120.993127245212, 45.4822238652347], [-120.99329954789, 45.4822340386966], [-120.993556856686, 45.4821385340979], [-120.993661148848, 45.4820617740858], [-120.993825835442, 45.4820003646042], [-120.994031124072, 45.4819396690936], [-120.994207987319, 45.4818213150394], [-120.994303395671, 45.4817086751155], [-120.994418090358, 45.4816249519422], [-120.994686915787, 45.4814759744154], [-120.994833981861, 45.4813536107862], [-120.994959079174, 45.4812629263533], [-120.995074530752, 45.4811577820266], [-120.99521129679, 45.481024432845], [-120.995665020069, 45.4806259332973], [-120.995762456298, 45.4805514327329], [-120.995960884867, 45.4804929941569], [-120.996232228221, 45.4804787032935], [-120.996644154322, 45.4805097477932], [-120.996908916591, 45.4806811031916], [-120.996991990911, 45.4808206928367], [-120.997041737257, 45.4809454074052], [-120.997144268947, 45.4811091537586], [-120.997258141005, 45.48133502033], [-120.997325996735, 45.4815219747024], [-120.997454247122, 45.4817242768387], [-120.997516686269, 45.4818730301967], [-120.997593839951, 45.4819886991351], [-120.997807344679, 45.4820781809516], [-120.997993632527, 45.4821386530046], [-120.99824025589, 45.4820979832354], [-120.998404971017, 45.4819378140342], [-120.998477488061, 45.4818021438016], [-120.998481808941, 45.4816801634896], [-120.998520636324, 45.4815665858206], [-120.998621334768, 45.4814798343995], [-120.998694614244, 45.4814070340178], [-120.998764284863, 45.4813516921719], [-120.998863243942, 45.4813057946311], [-120.998974257289, 45.481277971236], [-120.999090964881, 45.4812576546469], [-120.999216608387, 45.4811666312719], [-120.999552926303, 45.4810805932925], [-120.99976521906, 45.4810262831431], [-121.000482301029, 45.480853078423], [-121.001027776174, 45.4809597905646], [-121.001354804229, 45.481454223822], [-121.001860398142, 45.482091811694], [-121.002841507931, 45.4824947924467], [-121.003611933742, 45.4825368451485], [-121.003944461643, 45.4824889517789], [-121.004788885128, 45.4825717065467], [-121.005356304371, 45.4826101990852], [-121.005660818702, 45.482615518195], [-121.005966845098, 45.4825779935522], [-121.006477393327, 45.4825011714785], [-121.006787953829, 45.4823351193547], [-121.007081232613, 45.4820830269565], [-121.007174020096, 45.4817559882941], [-121.007828013572, 45.4810672139964], [-121.008486339775, 45.4807478498864], [-121.009878011195, 45.4803818694222], [-121.01005292666, 45.4812357089341], [-121.01200272675, 45.4819699574024], [-121.010323340932, 45.4825556757179], [-121.009973558406, 45.4826776642692], [-121.009721226689, 45.4829209517923], [-121.009392382585, 45.4830295352157], [-121.009143401447, 45.4831776151616], [-121.00878681626, 45.4833047660895], [-121.008467044926, 45.4833174203467], [-121.008082366591, 45.4833115321145], [-121.007595136985, 45.4833030313777], [-121.007431382864, 45.4833382797585], [-121.00699828941, 45.4833307211715], [-121.00605089688, 45.4833141810202], [-121.005858730373, 45.4833870350625], [-121.005587374676, 45.4834013486048], [-121.005161806629, 45.4834848963989], [-121.005320308923, 45.4837612403119], [-121.005159164955, 45.4840226072387], [-121.004803909378, 45.4841116630623], [-121.004456051723, 45.483991268349], [-121.003946058844, 45.4837783364435], [-121.003539197108, 45.4837825117506], [-121.003129017267, 45.4839871213515], [-121.003357157818, 45.4844293222059], [-121.003372114868, 45.4847725321162], [-121.003360675422, 45.4850962274963], [-121.00340539257, 45.4853637469184], [-121.003582766338, 45.4857097957403], [-121.003873802974, 45.4859054105924], [-121.004714304148, 45.4858819960093], [-121.004962636361, 45.4857529664732], [-121.004998447113, 45.4855059076241], [-121.004982135406, 45.4852007792727], [-121.005128239228, 45.4848984894534], [-121.005310820892, 45.4843300991598], [-121.005695161331, 45.484184390943], [-121.006268308771, 45.484061031253], [-121.006649286084, 45.4840105248871], [-121.007273208703, 45.4839833103358], [-121.007734719141, 45.4839532578222], [-121.008465382774, 45.4837319257799], [-121.009041871268, 45.4837288958866], [-121.009474864149, 45.4837266182998], [-121.010043166792, 45.4837236260707], [-121.010665043755, 45.4837942422755], [-121.011369208127, 45.4837166335266], [-121.0116930797, 45.4837149232407], [-121.01223344714, 45.4837120682423], [-121.012387861538, 45.4841105617611], [-121.012459020423, 45.4843975908622], [-121.01247939021, 45.4845884720857], [-121.012630419223, 45.4849149962498], [-121.012624391122, 45.4850863650377], [-121.012615683759, 45.4853338980209], [-121.012338290798, 45.4855195962358], [-121.012172523066, 45.4856119742567], [-121.011979686152, 45.4857038798436]]]}, "properties": {"OBJECTID": 3764, "poly_SourceOID": null, "poly_IncidentName": "WRENTHAM MARKET", "poly_FeatureCategory": "Wildfire Daily Fire Perimeter", "poly_MapMethod": "Mixed Methods", "poly_GISAcres": 5798.096515565, "poly_DeleteThis": "No", "poly_FeatureAccess": "Public", "poly_FeatureStatus": "Approved", "poly_IsVisible": "Yes", "poly_CreateDate": 1625004842669, "poly_DateCurrent": 1636580559869, "poly_PolygonDateTime": 1625175285000, "poly_IRWINID": "{8C1E4886-6B55-480D-8201-8F50305379E1}", "poly_FORID": null, "poly_Acres_AutoCalc": 5798.07479619282, "poly_SourceGlobalID": "{3294B857-595C-41BB-AA26-C7BA8E45ADFA}", "poly_Source": "2021 NIFS", "attr_SourceOID": 20227594, "attr_ABCDMisc": null, "attr_ADSPermissionState": "DEFAULT", "attr_CalculatedAcres": null, "attr_ContainmentDateTime": null, "attr_ControlDateTime": null, "attr_CreatedBySystem": "wildcad", "attr_IncidentSize": 7222, "attr_DiscoveryAcres": 0.1, "attr_DispatchCenterID": "WACCC", "attr_EstimatedCostToDate": 588394, "attr_FinalAcres": null, "attr_FFReportApprovedByTitle": null, "attr_FFReportApprovedByUnit": null, "attr_FFReportApprovedDate": null, "attr_FireBehaviorGeneral": "Minimal", "attr_FireBehaviorGeneral1": "Smoldering", "attr_FireBehaviorGeneral2": "Smoldering", "attr_FireBehaviorGeneral3": "Smoldering", "attr_FireCause": "Undetermined", "attr_FireCauseGeneral": null, "attr_FireCauseSpecific": null, "attr_FireCode": "N36V", "attr_FireDepartmentID": null, "attr_FireDiscoveryDateTime": 1625000700000, "attr_FireMgmtComplexity": "Type 4 Incident", "attr_FireOutDateTime": null, "attr_FireStrategyConfinePercent": 0, "attr_FireStrategyFullSuppPrcnt": 100, "attr_FireStrategyMonitorPercent": 0, "attr_FireStrategyPointZonePrcnt": 0, "attr_FSJobCode": "PN", "attr_FSOverrideCode": "1522", "attr_GACC": "NWCC", "attr_ICS209ReportDateTime": 1625349600000, "attr_ICS209RptForTimePeriodFrom": 1625281200000, "attr_ICS209RptForTimePeriodTo": 1625349600000, "attr_ICS209ReportStatus": "F", "attr_IncidentManagementOrg": "Type 2 Team", "attr_IncidentName": "WRENTHAM MARKET", "attr_IncidentShortDescription": "7 miles west of Dufur, 7 miles southeast of The Dalles.", "attr_IncidentTypeCategory": "WF", "attr_IncidentTypeKind": "FI", "attr_InitialLatitude": 45.49026, "attr_InitialLongitude": -121.0059, "attr_InitialResponseAcres": 100, "attr_InitialResponseDateTime": null, "attr_IrwinID": "{8C1E4886-6B55-480D-8201-8F50305379E1}", "attr_IsFireCauseInvestigated": null, "attr_IsFireCodeRequested": 0, "attr_IsFSAssisted": 1, "attr_IsMultiJurisdictional": 0, "attr_IsQuarantined": 0, "attr_IsReimbursable": 0, "attr_IsTrespass": 0, "attr_IsUnifiedCommand": 0, "attr_IsValid": 1, "attr_LocalIncidentIdentifier": "000396", "attr_ModifiedBySystem": "ics209", "attr_PercentContained": 100, "attr_PercentPerimToBeContained": 100, "attr_POOCity": "Dufur", "attr_POOCounty": "Wasco", "attr_POODispatchCenterID": "ORCOC", "attr_POOFips": "41065", "attr_POOJurisdictionalAgency": null, "attr_POOJurisdictionalUnit": null, "attr_POOJurisdictUnitParentUnit": null, "attr_POOLandownerCategory": "Private", "attr_POOLandownerKind": "Private", "attr_POOLegalDescPrincipalMerid": null, "attr_POOLegalDescQtr": null, "attr_POOLegalDescQtrQtr": null, "attr_POOLegalDescRange": null, "attr_POOLegalDescSection": null, "attr_POOLegalDescTownship": null, "attr_POOPredictiveServiceAreaID": "NW06", "attr_POOProtectingAgency": "DOF", "attr_POOProtectingUnit": "OR954S", "attr_POOState": "US-OR", "attr_PredominantFuelGroup": null, "attr_PredominantFuelModel": null, "attr_PrimaryFuelModel": "Tall Grass (2.5 feet)", "attr_SecondaryFuelModel": "Brush (2 feet)", "attr_TotalIncidentPersonnel": 112, "attr_UniqueFireIdentifier": "2021-OR954S-000396", "attr_FORID": null, "attr_WFDSSDecisionStatus": "No Decision", "attr_EstimatedFinalCost": null, "attr_OrganizationalAssessment": null, "attr_StratDecisionPublishDate": null, "attr_CreatedOnDateTime_dt": 1625004829800, "attr_ModifiedOnDateTime_dt": 1625369346610, "attr_Source": "IRWIN", "attr_IsCpxChild": 0, "attr_CpxName": null, "attr_CpxID": null, "attr_SourceGlobalID": "{8C1E4886-6B55-480D-8201-8F50305379E1}", "GlobalID": "625d4132-f10a-41a1-bf32-1ea5463225f3", "Shape__Area": 0.002699488873986411, "Shape__Length": 0.37530355697994755, "attr_IncidentComplexityLevel": null}}]}